{
"type": "FeatureCollection",
"name": "20181031_095848_0f43_3B_AnalyticMS_clip",
"crs": { "type": "name", "properties": { "name": "urn:ogc:def:crs:OGC:1.3:CRS84" } },
"features": [
{ "type": "Feature", "geometry": { "type": "LineString", "coordinates": [ [ 0.0, 0.0 ], [ 1.0, 1.0 ] ] } },
{ "type": "Feature", "properties": { }, "geometry": { "type": "LineString", "coordinates": [ [ 181964.297834592376603, 628932.14459767320659 ], [ 182446.440623395523289, 629293.996183590381406 ] ] } },
{ "type": "Feature", "properties": { }, "geometry": { "type": "LineString", "coordinates": [ [ 181577.996817194332834, 628461.737535980879329 ], [ 181997.54906140640378, 628807.941485750256106 ] ] } },
{ "type": "Feature", "properties": { }, "geometry": { "type": "LineString", "coordinates": [ [ 181413.696637642773567, 628442.177990796160884 ], [ 181838.13876815099502, 628780.558122491696849 ] ] } },
{ "type": "Feature", "properties": { }, "geometry": { "type": "LineString", "coordinates": [ [ 181734.473178672022186, 628804.0295767133357 ], [ 182166.739127254142659, 629126.762072261073627 ] ] } },
{ "type": "Feature", "properties": { }, "geometry": { "type": "LineString", "coordinates": [ [ 181707.089815413433826, 628857.818325971369632 ], [ 182134.465877699374687, 629184.462730556027964 ] ] } },
{ "type": "Feature", "properties": { }, "geometry": { "type": "LineString", "coordinates": [ [ 181627.873657415359048, 628842.170689823571593 ], [ 182035.690174516581465, 629145.343640186591074 ] ] } },
{ "type": "Feature", "properties": { }, "geometry": { "type": "LineString", "coordinates": [ [ 181588.754567045922158, 628797.183735898695886 ], [ 182014.174674813402817, 629122.850163224153221 ] ] } },
{ "type": "Feature", "properties": { }, "geometry": { "type": "LineString", "coordinates": [ [ 181391.69214930999442, 628700.852975864079781 ], [ 181814.178325299784774, 629042.167039337218739 ] ] } },
{ "type": "Feature", "properties": { }, "geometry": { "type": "LineString", "coordinates": [ [ 181478.732125381968217, 628750.729816085076891 ], [ 181946.20525529657607, 629076.396243410534225 ] ] } },
{ "type": "Feature", "properties": { }, "geometry": { "type": "LineString", "coordinates": [ [ 181433.745171457150718, 628722.368475567200221 ], [ 181903.174255890218774, 629079.330175188253634 ] ] } },
{ "type": "Feature", "properties": { }, "geometry": { "type": "LineString", "coordinates": [ [ 181114.924584946333198, 628401.591934537980705 ], [ 181509.049420418275986, 628759.531611418235116 ] ] } },
{ "type": "Feature", "properties": { }, "geometry": { "type": "LineString", "coordinates": [ [ 180732.535476585268043, 628041.696303139207885 ], [ 181093.409085243183654, 628414.305638907942921 ] ] } },
{ "type": "Feature", "properties": { }, "geometry": { "type": "LineString", "coordinates": [ [ 180600.508546588476747, 627957.590258845011704 ], [ 180968.227996061032172, 628302.816231355071068 ] ] } },
{ "type": "Feature", "properties": { }, "geometry": { "type": "LineString", "coordinates": [ [ 180837.195063362421934, 628186.996967880055308 ], [ 181164.68223943101475, 628558.321010036510415 ] ] } },
{ "type": "Feature", "properties": { }, "geometry": { "type": "LineString", "coordinates": [ [ 180294.391515626717592, 627650.640018098405562 ], [ 180624.45733087696135, 628021.964060254977085 ] ] } },
{ "type": "Feature", "properties": { }, "geometry": { "type": "LineString", "coordinates": [ [ 180149.987721454759594, 627584.884718966553919 ], [ 180473.606938750861445, 627960.076719895470887 ] ] } },
{ "type": "Feature", "properties": { }, "geometry": { "type": "LineString", "coordinates": [ [ 180067.471267642191378, 627565.544925104244612 ], [ 180409.140959209820721, 627954.919441532227211 ] ] } },
{ "type": "Feature", "properties": { }, "geometry": { "type": "LineString", "coordinates": [ [ 180415.587557163904421, 627887.874822809477337 ], [ 180763.703846685646567, 628224.387236013892107 ] ] } },
{ "type": "Feature", "properties": { }, "geometry": { "type": "LineString", "coordinates": [ [ 180325.335185806441586, 627823.408843268523924 ], [ 180692.791269190463936, 628161.210576063604094 ] ] } },
{ "type": "Feature", "properties": { }, "geometry": { "type": "LineString", "coordinates": [ [ 179688.411307940754341, 627285.762573896092363 ], [ 180006.873246873612516, 627619.696347918710671 ] ] } },
{ "type": "Feature", "properties": { }, "geometry": { "type": "LineString", "coordinates": [ [ 179524.667719906487036, 627285.762573896092363 ], [ 179834.104421703552362, 627601.64587364718318 ] ] } },
{ "type": "Feature", "properties": { }, "geometry": { "type": "LineString", "coordinates": [ [ 179304.194069876044523, 626742.959026160300709 ], [ 179670.360833669285057, 627024.030696959351189 ] ] } },
{ "type": "Feature", "properties": { }, "geometry": { "type": "LineString", "coordinates": [ [ 178667.270192010415485, 626482.516468814457767 ], [ 179011.518522759666666, 626753.273582886904478 ] ] } },
{ "type": "Feature", "properties": { }, "geometry": { "type": "LineString", "coordinates": [ [ 178614.408088786760345, 626537.957211219705641 ], [ 178947.052543218625942, 626798.399768565664999 ] ] } },
{ "type": "Feature", "properties": { }, "geometry": { "type": "LineString", "coordinates": [ [ 179050.198110484314384, 626691.386242527514696 ], [ 179385.421204097801819, 626926.042408056906424 ] ] } },
{ "type": "Feature", "properties": { }, "geometry": { "type": "LineString", "coordinates": [ [ 178497.080006022035377, 626178.237045380636118 ], [ 178834.881738817173755, 626400.000015001860447 ] ] } },
{ "type": "Feature", "properties": { }, "geometry": { "type": "LineString", "coordinates": [ [ 178544.784830882417737, 626277.514653873862699 ], [ 178861.957450224406784, 626491.541705950163305 ] ] } },
{ "type": "Feature", "properties": { }, "geometry": { "type": "LineString", "coordinates": [ [ 178424.878108936041826, 626433.522324363235384 ], [ 178770.415759276103927, 626683.650324982590973 ] ] } },
{ "type": "Feature", "properties": { }, "geometry": { "type": "LineString", "coordinates": [ [ 178351.386892259237356, 626411.603891319246031 ], [ 178673.716789964528289, 626634.656180531368591 ] ] } },
{ "type": "Feature", "properties": { }, "geometry": { "type": "LineString", "coordinates": [ [ 177998.113324374164222, 625732.132466956740245 ], [ 178313.996624125371454, 625996.442983075045049 ] ] } },
{ "type": "Feature", "properties": { }, "geometry": { "type": "LineString", "coordinates": [ [ 178017.453118236502632, 625966.788632486248389 ], [ 178329.4684592152189, 626152.450653564417735 ] ] } },
{ "type": "Feature", "properties": { }, "geometry": { "type": "LineString", "coordinates": [ [ 178164.435551590111572, 626022.229374891496263 ], [ 178458.400418297329452, 626213.048674333025701 ] ] } },
{ "type": "Feature", "properties": { }, "geometry": { "type": "LineString", "coordinates": [ [ 177781.507633116212673, 625555.495683014276437 ], [ 178096.101613276579883, 625804.334364042733796 ] ] } },
{ "type": "Feature", "properties": { }, "geometry": { "type": "LineString", "coordinates": [ [ 177940.093942787207197, 625684.427642096416093 ], [ 178254.687922947574407, 625917.794488035026006 ] ] } },
{ "type": "Feature", "properties": { }, "geometry": { "type": "LineString", "coordinates": [ [ 177861.445447747129947, 625607.068466647062451 ], [ 178176.039427907497156, 625839.145992994890548 ] ] } },
{ "type": "Feature", "properties": { }, "geometry": { "type": "LineString", "coordinates": [ [ 177652.575674034102121, 625503.922899381374009 ], [ 177934.936664423934417, 625715.371312276110984 ] ] } },
{ "type": "Feature", "properties": { }, "geometry": { "type": "LineString", "coordinates": [ [ 177671.915467896411428, 625563.23160055920016 ], [ 177945.251221150509082, 625769.522735090577044 ] ] } },
{ "type": "Feature", "properties": { }, "geometry": { "type": "LineString", "coordinates": [ [ 177620.342684263567207, 625551.627724241814576 ], [ 177888.521159154362977, 625751.472260819049552 ] ] } },
{ "type": "Feature", "properties": { }, "geometry": { "type": "LineString", "coordinates": [ [ 177509.461199452955043, 625500.054940608912148 ], [ 177825.344499204133172, 625743.736343274125829 ] ] } },
{ "type": "Feature", "properties": { }, "geometry": { "type": "LineString", "coordinates": [ [ 177478.517529273231048, 625475.557868383359164 ], [ 177803.426066160172923, 625726.975188593496569 ] ] } },
{ "type": "Feature", "properties": { }, "geometry": { "type": "LineString", "coordinates": [ [ 177486.253446818154771, 625569.678198513342068 ], [ 177785.375591888674535, 625769.522735090577044 ] ] } },
{ "type": "Feature", "properties": { }, "geometry": { "type": "LineString", "coordinates": [ [ 177341.849652646196773, 625096.497908681863919 ], [ 177601.002890401257901, 625297.631764849997126 ] ] } },
{ "type": "Feature", "properties": { }, "geometry": { "type": "LineString", "coordinates": [ [ 177326.377817556349328, 625224.140548173221759 ], [ 177581.66309653891949, 625418.827806387213059 ] ] } },
{ "type": "Feature", "properties": { }, "geometry": { "type": "LineString", "coordinates": [ [ 177160.055590340431081, 625041.057166276616044 ], [ 177401.158353823993821, 625238.32306367228739 ] ] } },
{ "type": "Feature", "properties": { }, "geometry": { "type": "LineString", "coordinates": [ [ 177180.684703793580411, 625124.862939679995179 ], [ 177408.894271368917543, 625304.078362804139033 ] ] } },
{ "type": "Feature", "properties": { }, "geometry": { "type": "LineString", "coordinates": [ [ 177053.042064302280778, 625043.63580545829609 ], [ 177285.119590650079772, 625239.612383263069205 ] ] } },
{ "type": "Feature", "properties": { }, "geometry": { "type": "LineString", "coordinates": [ [ 177295.434147376654437, 625328.575435029692017 ], [ 177554.587385131715564, 625555.495683014276437 ] ] } },
{ "type": "Feature", "properties": { }, "geometry": { "type": "LineString", "coordinates": [ [ 174553.696037495305063, 622830.518727813730948 ], [ 174820.585192795289913, 623154.137945109861903 ] ] } },
{ "type": "Feature", "properties": { }, "geometry": { "type": "LineString", "coordinates": [ [ 174642.659089261956979, 622840.833284540334716 ], [ 174894.076409472094383, 623146.40202756493818 ] ] } },
{ "type": "Feature", "properties": { }, "geometry": { "type": "LineString", "coordinates": [ [ 174480.204820818471489, 622794.41777927079238 ], [ 174753.540574072569143, 623118.03699656680692 ] ] } },
{ "type": "Feature", "properties": { }, "geometry": { "type": "LineString", "coordinates": [ [ 174291.964160558592994, 622786.681861725868657 ], [ 174584.639707674999954, 623134.798151247552596 ] ] } },
{ "type": "Feature", "properties": { }, "geometry": { "type": "LineString", "coordinates": [ [ 174223.630222245061304, 622723.505201775580645 ], [ 174539.513521996268537, 623079.357408842188306 ] ] } },
{ "type": "Feature", "properties": { }, "geometry": { "type": "LineString", "coordinates": [ [ 174161.742881885642419, 622673.221737733576447 ], [ 174495.676655908348039, 623025.205986027722247 ] ] } },
{ "type": "Feature", "properties": { }, "geometry": { "type": "LineString", "coordinates": [ [ 174054.729355847492116, 622572.654809649451636 ], [ 174377.485231286671478, 622847.453543212846853 ] ] } },
{ "type": "Feature", "properties": { }, "geometry": { "type": "LineString", "coordinates": [ [ 173988.974056715611368, 622549.447057014680468 ], [ 174316.890590471128235, 622772.03827214310877 ] ] } },
{ "type": "Feature", "properties": { }, "geometry": { "type": "LineString", "coordinates": [ [ 173871.6459739508864, 622484.98107747361064 ], [ 174156.585603522369638, 622660.328541825292632 ] ] } },
{ "type": "Feature", "properties": { }, "geometry": { "type": "LineString", "coordinates": [ [ 175057.819997506361688, 622904.009944490506314 ], [ 175320.841194033884676, 623200.553450379404239 ] ] } },
{ "type": "Feature", "properties": { }, "geometry": { "type": "LineString", "coordinates": [ [ 174708.414388393837726, 622842.122604131116532 ], [ 174932.755997196712997, 623109.011759431101382 ] ] } },
{ "type": "Feature", "properties": { }, "geometry": { "type": "LineString", "coordinates": [ [ 174743.226017345994478, 622931.085655897739343 ], [ 175002.379255101055605, 623248.258275239844806 ] ] } },
{ "type": "Feature", "properties": { }, "geometry": { "type": "LineString", "coordinates": [ [ 174771.591048344067531, 622968.475924031576142 ], [ 175020.429729372553993, 623265.019429920474067 ] ] } },
{ "type": "Feature", "properties": { }, "geometry": { "type": "LineString", "coordinates": [ [ 174891.497770290443441, 623843.279266403638758 ], [ 175117.773358479549643, 624038.611184413079172 ] ] } },
{ "type": "Feature", "properties": { }, "geometry": { "type": "LineString", "coordinates": [ [ 174777.392986502760323, 623633.442502997466363 ], [ 175032.678265485359589, 623861.652070572832599 ] ] } },
{ "type": "Feature", "properties": { }, "geometry": { "type": "LineString", "coordinates": [ [ 174730.010491540073417, 623558.017306934460066 ], [ 174980.460822057095356, 623788.160853896057233 ] ] } },
{ "type": "Feature", "properties": { }, "geometry": { "type": "LineString", "coordinates": [ [ 174632.344532535382314, 623457.450378850568086 ], [ 174906.969605380290886, 623675.023059801664203 ] ] } },
{ "type": "Feature", "properties": { }, "geometry": { "type": "LineString", "coordinates": [ [ 174529.84362506508478, 623348.180543528520502 ], [ 174817.039563920494402, 623575.423121410654858 ] ] } },
{ "type": "Feature", "properties": { }, "geometry": { "type": "LineString", "coordinates": [ [ 179188.211589135666145, 627254.826866365387104 ], [ 179473.683125317009399, 627530.550593994208612 ] ] } },
{ "type": "Feature", "properties": { }, "geometry": { "type": "LineString", "coordinates": [ [ 179104.658944399678148, 627247.864145970670506 ], [ 179369.242319396988023, 627508.269888731185347 ] ] } },
{ "type": "Feature", "properties": { }, "geometry": { "type": "LineString", "coordinates": [ [ 178877.674259533552686, 627385.72600978508126 ], [ 179160.360707557003479, 627714.366412413306534 ] ] } },
{ "type": "Feature", "properties": { }, "geometry": { "type": "LineString", "coordinates": [ [ 179177.07123650421272, 626760.473718344117515 ], [ 179490.393654264189536, 626980.495682815555483 ] ] } },
{ "type": "Feature", "properties": { }, "geometry": { "type": "LineString", "coordinates": [ [ 179210.492294398602098, 626888.587773605831899 ], [ 179514.066903606057167, 627144.815884129493497 ] ] } },
{ "type": "Feature", "properties": { }, "geometry": { "type": "LineString", "coordinates": [ [ 178050.503076647233684, 626452.257295539951883 ], [ 178336.438794188172324, 626708.485406063729897 ] ] } },
{ "type": "Feature", "properties": { }, "geometry": { "type": "LineString", "coordinates": [ [ 176846.726083969464526, 624809.674190878402442 ], [ 177085.624757066456368, 625023.816524794325233 ] ] } },
{ "type": "Feature", "properties": { }, "geometry": { "type": "LineString", "coordinates": [ [ 176788.5486868940352, 624729.216088540037163 ], [ 177024.971726072923047, 624932.218069824506529 ] ] } },
{ "type": "Feature", "properties": { }, "geometry": { "type": "LineString", "coordinates": [ [ 177017.544824318611063, 625171.116742921527475 ], [ 177278.724202678509755, 625381.545625960337929 ] ] } },
{ "type": "Feature", "properties": { }, "geometry": { "type": "LineString", "coordinates": [ [ 176680.858611456525978, 624612.861294389236718 ], [ 176946.989257652661763, 624856.711235322407447 ] ] } },
{ "type": "Feature", "properties": { }, "geometry": { "type": "LineString", "coordinates": [ [ 176648.675370521174045, 624594.294040003442205 ], [ 176862.81770443712594, 624776.253132984042168 ] ] } },
{ "type": "Feature", "properties": { }, "geometry": { "type": "LineString", "coordinates": [ [ 175586.628419654880418, 623683.260758141172118 ], [ 175888.655757663509576, 623977.861194395576604 ] ] } },
{ "type": "Feature", "properties": { }, "geometry": { "type": "LineString", "coordinates": [ [ 175508.645951234619133, 623643.650615451508202 ], [ 175815.624557079456281, 623943.202319542062469 ] ] } },
{ "type": "Feature", "properties": { }, "geometry": { "type": "LineString", "coordinates": [ [ 175436.852567609603284, 623617.656459311489016 ], [ 175730.215186904883012, 623893.689641179982573 ] ] } },
{ "type": "Feature", "properties": { }, "geometry": { "type": "LineString", "coordinates": [ [ 176182.018376958585577, 624115.671482503414154 ], [ 176356.963173837895738, 624264.209517589653842 ] ] } },
{ "type": "Feature", "properties": { }, "geometry": { "type": "LineString", "coordinates": [ [ 176119.302317699970445, 624095.866411158582196 ], [ 176236.482323156873463, 624196.54219049483072 ] ] } },
{ "type": "Feature", "properties": { }, "geometry": { "type": "LineString", "coordinates": [ [ 176018.626538363780128, 624016.646125779370777 ], [ 176097.846823743078858, 624128.874863400007598 ] ] } },
{ "type": "Feature", "properties": { }, "geometry": { "type": "LineString", "coordinates": [ [ 176658.073610395367723, 623201.062284981133416 ], [ 176988.158132809156086, 623463.296100009931251 ] ] } },
{ "type": "Feature", "properties": { }, "geometry": { "type": "LineString", "coordinates": [ [ 177155.03419691833551, 623109.372139866231009 ], [ 177457.61167579764151, 623301.921444607665762 ] ] } },
{ "type": "Feature", "properties": { }, "geometry": { "type": "LineString", "coordinates": [ [ 176742.428543901100056, 622419.862248601973988 ], [ 177216.008143419778207, 622674.760852021398023 ] ] } },
{ "type": "Feature", "properties": { }, "geometry": { "type": "LineString", "coordinates": [ [ 173728.115023247664794, 622412.527036993182264 ], [ 174010.406057520274771, 622617.110673280665651 ] ] } },
{ "type": "Feature", "properties": { }, "geometry": { "type": "LineString", "coordinates": [ [ 172405.713905327429529, 624199.453352601965889 ], [ 172643.649831900693243, 624411.257587817497551 ] ] } },
{ "type": "Feature", "properties": { }, "geometry": { "type": "LineString", "coordinates": [ [ 172056.374452439544257, 624239.338565726997331 ], [ 172284.682913775730412, 624409.882235640776344 ] ] } },
{ "type": "Feature", "properties": { }, "geometry": { "type": "LineString", "coordinates": [ [ 171812.937117159366608, 624324.61040068382863 ], [ 172045.371635025745491, 624489.652661890722811 ] ] } },
{ "type": "Feature", "properties": { }, "geometry": { "type": "LineString", "coordinates": [ [ 171656.146969012828777, 624378.249135576072149 ], [ 171884.455430349014932, 624550.16815766657237 ] ] } },
{ "type": "Feature", "properties": { }, "geometry": { "type": "LineString", "coordinates": [ [ 171960.09980006882688, 624250.341383140766993 ], [ 172178.780796167964581, 624411.257587817497551 ] ] } },
{ "type": "Feature", "properties": { }, "geometry": { "type": "LineString", "coordinates": [ [ 172608.578351394273341, 625243.689492779783905 ], [ 172826.227833360841032, 625473.717144336900674 ] ] } },
{ "type": "Feature", "properties": { }, "geometry": { "type": "LineString", "coordinates": [ [ 172579.695955683069769, 625189.019243755028583 ], [ 172814.881177902861964, 625434.519607300288044 ] ] } },
{ "type": "Feature", "properties": { }, "geometry": { "type": "LineString", "coordinates": [ [ 180747.224857158813393, 628270.151957661495544 ], [ 181102.0657187536126, 628596.110423545120284 ] ] } },
{ "type": "Feature", "properties": { }, "geometry": { "type": "LineString", "coordinates": [ [ 180648.199500434682705, 628280.46709898696281 ], [ 181024.702158812899143, 628591.984367014956661 ] ] } },
{ "type": "Feature", "properties": { }, "geometry": { "type": "LineString", "coordinates": [ [ 176610.412832322646864, 624541.354844916495495 ], [ 176910.525262359966291, 624831.609567397856154 ] ] } }
]
}
