{
"type": "FeatureCollection",
"name": "20181031_095847_0f43_3B_AnalyticMS_clip",
"crs": { "type": "name", "properties": { "name": "urn:ogc:def:crs:OGC:1.3:CRS84" } },
"features": [
{ "type": "Feature", "geometry": { "type": "LineString", "coordinates": [ [ 0.0, 0.0 ], [ 1.0, 1.0 ] ] } },
{ "type": "Feature", "properties": { }, "geometry": { "type": "LineString", "coordinates": [ [ 183763.238637552276487, 629930.859296548296697 ], [ 184280.436911610857351, 630342.935970188467763 ] ] } },
{ "type": "Feature", "properties": { }, "geometry": { "type": "LineString", "coordinates": [ [ 182682.266251061839284, 629383.847045936388895 ], [ 183190.762469984503696, 629796.797796972328797 ] ] } },
{ "type": "Feature", "properties": { }, "geometry": { "type": "LineString", "coordinates": [ [ 182891.170748644712148, 629550.64676106069237 ], [ 183391.569894017651677, 629981.41107390599791 ] ] } },
{ "type": "Feature", "properties": { }, "geometry": { "type": "LineString", "coordinates": [ [ 183566.466682691709138, 629801.656041102134623 ], [ 184050.671680965198902, 630182.218497939174995 ] ] } },
{ "type": "Feature", "properties": { }, "geometry": { "type": "LineString", "coordinates": [ [ 183385.092235177871771, 629748.215355673921295 ], [ 183845.006012802215992, 630119.0613242512336 ] ] } },
{ "type": "Feature", "properties": { }, "geometry": { "type": "LineString", "coordinates": [ [ 183247.441984832577873, 629725.543549734749831 ], [ 183703.737998480995884, 630112.14009368873667 ] ] } },
{ "type": "Feature", "properties": { }, "geometry": { "type": "LineString", "coordinates": [ [ 184248.576839283428853, 630119.966988448984921 ], [ 184782.544992919167271, 630521.747586135868914 ] ] } },
{ "type": "Feature", "properties": { }, "geometry": { "type": "LineString", "coordinates": [ [ 182961.487478728231508, 629610.349174067145213 ], [ 183514.588041777606122, 630036.480111007695086 ] ] } },
{ "type": "Feature", "properties": { }, "geometry": { "type": "LineString", "coordinates": [ [ 182317.942798450501869, 629179.000307286391035 ], [ 182799.151883703132626, 629584.839294848847203 ] ] } },
{ "type": "Feature", "properties": { }, "geometry": { "type": "LineString", "coordinates": [ [ 181965.304039332113462, 628930.836057961918414 ], [ 182444.703303650574526, 629293.136157717322931 ] ] } },
{ "type": "Feature", "properties": { }, "geometry": { "type": "LineString", "coordinates": [ [ 181726.550768401881214, 628800.187598646152765 ], [ 182167.182213138294173, 629127.409403843339533 ] ] } },
{ "type": "Feature", "properties": { }, "geometry": { "type": "LineString", "coordinates": [ [ 181694.929316418594681, 628859.049217097111978 ], [ 182134.37087004762725, 629183.994235041667707 ] ] } },
{ "type": "Feature", "properties": { }, "geometry": { "type": "LineString", "coordinates": [ [ 181621.78089737292612, 628842.286037732497789 ], [ 182035.680476067762356, 629145.276470150100067 ] ] } },
{ "type": "Feature", "properties": { }, "geometry": { "type": "LineString", "coordinates": [ [ 181577.587060866149841, 628790.472574241808616 ], [ 182014.251653358951444, 629122.715003266232088 ] ] } },
{ "type": "Feature", "properties": { }, "geometry": { "type": "LineString", "coordinates": [ [ 181467.864432297617896, 628747.802663131733425 ], [ 181903.114098485850263, 629079.181212502066046 ] ] } },
{ "type": "Feature", "properties": { }, "geometry": { "type": "LineString", "coordinates": [ [ 181382.524610077642137, 628700.560975831467658 ], [ 181814.02430216097855, 629041.966842977912165 ] ] } },
{ "type": "Feature", "properties": { }, "geometry": { "type": "LineString", "coordinates": [ [ 185348.159473862004234, 630606.039193836390041 ], [ 185905.916169085394358, 631028.928491444326937 ] ] } },
{ "type": "Feature", "properties": { }, "geometry": { "type": "LineString", "coordinates": [ [ 185391.591347670386313, 630640.327515264041722 ], [ 185949.348042893776437, 631067.78858906228561 ] ] } },
{ "type": "Feature", "properties": { }, "geometry": { "type": "LineString", "coordinates": [ [ 185451.024438145017484, 630736.334815261536278 ], [ 186011.067021463590208, 631134.079343822435476 ] ] } },
{ "type": "Feature", "properties": { }, "geometry": { "type": "LineString", "coordinates": [ [ 186891.705410130816745, 631262.089077152544633 ], [ 187358.026581547106616, 631511.250879526953213 ] ] } },
{ "type": "Feature", "properties": { }, "geometry": { "type": "LineString", "coordinates": [ [ 187108.86477917272714, 631147.794672393705696 ], [ 187611.760160111851292, 631406.100027148844674 ] ] } },
{ "type": "Feature", "properties": { }, "geometry": { "type": "LineString", "coordinates": [ [ 187344.311252976040123, 631134.079343822668307 ], [ 187856.350186295894673, 631383.241146196960472 ] ] } },
{ "type": "Feature", "properties": { }, "geometry": { "type": "LineString", "coordinates": [ [ 187435.74677678316948, 631145.5087842985522 ], [ 187906.639724389795447, 631380.955258101806976 ] ] } },
{ "type": "Feature", "properties": { }, "geometry": { "type": "LineString", "coordinates": [ [ 187330.59592440497363, 631056.359148586634547 ], [ 187835.777193439280381, 631337.523384293424897 ] ] } },
{ "type": "Feature", "properties": { }, "geometry": { "type": "LineString", "coordinates": [ [ 184793.260138757410459, 630347.733839081018232 ], [ 185334.558439695538254, 630733.591749547049403 ] ] } },
{ "type": "Feature", "properties": { }, "geometry": { "type": "LineString", "coordinates": [ [ 184996.24700160921202, 630481.229703839402646 ], [ 185400.392016836674884, 630883.546008590725251 ] ] } },
{ "type": "Feature", "properties": { }, "geometry": { "type": "LineString", "coordinates": [ [ 185558.468458488845499, 630880.765665811370127 ], [ 186096.573379197827308, 631204.503585587488487 ] ] } },
{ "type": "Feature", "properties": { }, "geometry": { "type": "LineString", "coordinates": [ [ 185608.77908115676837, 630885.140502565191127 ], [ 186153.44625699633616, 631204.503585587488487 ] ] } },
{ "type": "Feature", "properties": { }, "geometry": { "type": "LineString", "coordinates": [ [ 185764.085785914241569, 630939.82596198678948 ], [ 186321.877472014981322, 631235.127442863653414 ] ] } },
{ "type": "Feature", "properties": { }, "geometry": { "type": "LineString", "coordinates": [ [ 186039.700501399318455, 630990.136584654683247 ], [ 186604.054442630644189, 631287.625483908457682 ] ] } },
{ "type": "Feature", "properties": { }, "geometry": { "type": "LineString", "coordinates": [ [ 186488.121268656774191, 631119.194268889725208 ], [ 187004.352005597087555, 631357.62287196808029 ] ] } },
{ "type": "Feature", "properties": { }, "geometry": { "type": "LineString", "coordinates": [ [ 187185.907730876933783, 631112.632013759226538 ], [ 187673.702028917963617, 631355.435453591286205 ] ] } },
{ "type": "Feature", "properties": { }, "geometry": { "type": "LineString", "coordinates": [ [ 187069.974556903034681, 631077.633319729357027 ], [ 187573.080783582146978, 631346.685780083760619 ] ] } },
{ "type": "Feature", "properties": { }, "geometry": { "type": "LineString", "coordinates": [ [ 187161.846128731413046, 631042.634625699487515 ], [ 187671.514610541111324, 631313.874504430801608 ] ] } },
{ "type": "Feature", "properties": { }, "geometry": { "type": "LineString", "coordinates": [ [ 186774.673076026170747, 631208.878422341309488 ], [ 187238.405771921708947, 631484.493137826328166 ] ] } }
]
}
