{
"type": "FeatureCollection",
"name": "20181031_095850_0f43_3B_AnalyticMS_clip",
"crs": { "type": "name", "properties": { "name": "urn:ogc:def:crs:OGC:1.3:CRS84" } },
"features": [
{ "type": "Feature", "geometry": { "type": "LineString", "coordinates": [ [ 0.0, 0.0 ], [ 1.0, 1.0 ] ] } },
{ "type": "Feature", "properties": { }, "geometry": { "type": "LineString", "coordinates": [ [ 172939.265913535957225, 622018.698735571815632 ], [ 173182.646094194846228, 622243.500276485807262 ] ] } },
{ "type": "Feature", "properties": { }, "geometry": { "type": "LineString", "coordinates": [ [ 173210.514053812250495, 621632.263028876855969 ], [ 173465.041418318112846, 621987.115048005362041 ] ] } },
{ "type": "Feature", "properties": { }, "geometry": { "type": "LineString", "coordinates": [ [ 172744.190196213981835, 621721.440499652642757 ], [ 173013.580472515779547, 622018.698735571815632 ] ] } },
{ "type": "Feature", "properties": { }, "geometry": { "type": "LineString", "coordinates": [ [ 172640.149813642230583, 621777.176418887451291 ], [ 172890.961450199101819, 621974.110000183922239 ] ] } },
{ "type": "Feature", "properties": { }, "geometry": { "type": "LineString", "coordinates": [ [ 172571.408846585924039, 621738.161275423015468 ], [ 172833.367666989739519, 621938.810584668535739 ] ] } },
{ "type": "Feature", "properties": { }, "geometry": { "type": "LineString", "coordinates": [ [ 172283.439930539170746, 621465.055271172313951 ], [ 172515.672927351057297, 621689.856812086189166 ] ] } },
{ "type": "Feature", "properties": { }, "geometry": { "type": "LineString", "coordinates": [ [ 172954.128825331921689, 621565.379925795015879 ], [ 173160.351726500899531, 621883.074665433727205 ] ] } },
{ "type": "Feature", "properties": { }, "geometry": { "type": "LineString", "coordinates": [ [ 172892.819314173597377, 621548.659150024526753 ], [ 173112.047263164015021, 621894.221849280642346 ] ] } },
{ "type": "Feature", "properties": { }, "geometry": { "type": "LineString", "coordinates": [ [ 172742.332332239486277, 621496.638958738651127 ], [ 172961.560281229903921, 621805.044378504855558 ] ] } },
{ "type": "Feature", "properties": { }, "geometry": { "type": "LineString", "coordinates": [ [ 172790.636795576341683, 621522.649054381647147 ], [ 172993.143968796328409, 621814.333698377362452 ] ] } },
{ "type": "Feature", "properties": { }, "geometry": { "type": "LineString", "coordinates": [ [ 172679.164957106637303, 621427.89799168240279 ], [ 172870.52494647965068, 621712.151179780135863 ] ] } },
{ "type": "Feature", "properties": { }, "geometry": { "type": "LineString", "coordinates": [ [ 171856.131216405279702, 622074.434654806740582 ], [ 172084.648485268175136, 622176.617173403967172 ] ] } },
{ "type": "Feature", "properties": { }, "geometry": { "type": "LineString", "coordinates": [ [ 171804.111025119404076, 622031.703783393255435 ], [ 172045.633341803768417, 622124.596982118091546 ] ] } },
{ "type": "Feature", "properties": { }, "geometry": { "type": "LineString", "coordinates": [ [ 171779.958793450961821, 622009.409415699308738 ], [ 171999.186742441408569, 622074.434654806740582 ] ] } },
{ "type": "Feature", "properties": { }, "geometry": { "type": "LineString", "coordinates": [ [ 171904.435679742135108, 622408.850170215824619 ], [ 172132.952948605059646, 622527.753464583540335 ] ] } },
{ "type": "Feature", "properties": { }, "geometry": { "type": "LineString", "coordinates": [ [ 171120.417082505184226, 622405.13444226689171 ], [ 171337.787167521135416, 622522.179872660082765 ] ] } },
{ "type": "Feature", "properties": { }, "geometry": { "type": "LineString", "coordinates": [ [ 171454.83259791432647, 622210.058724944945425 ], [ 171674.060546904773219, 622341.967067134100944 ] ] } },
{ "type": "Feature", "properties": { }, "geometry": { "type": "LineString", "coordinates": [ [ 171373.086583036551019, 622230.49522866436746 ], [ 171588.598804077977547, 622367.977162776980549 ] ] } },
{ "type": "Feature", "properties": { }, "geometry": { "type": "LineString", "coordinates": [ [ 171295.05629610773758, 622185.906493276474066 ], [ 171495.705605353228748, 622306.667651618714444 ] ] } },
{ "type": "Feature", "properties": { }, "geometry": { "type": "LineString", "coordinates": [ [ 171205.878825331979897, 622247.216004434856586 ], [ 171412.101726500928635, 622341.967067134100944 ] ] } },
{ "type": "Feature", "properties": { }, "geometry": { "type": "LineString", "coordinates": [ [ 171111.127762632706435, 622143.175621863105334 ], [ 171321.066391750675393, 622260.221052256296389 ] ] } },
{ "type": "Feature", "properties": { }, "geometry": { "type": "LineString", "coordinates": [ [ 171023.80815583144431, 622421.855218037380837 ], [ 171261.614744566817535, 622555.621424201061018 ] ] } },
{ "type": "Feature", "properties": { }, "geometry": { "type": "LineString", "coordinates": [ [ 171055.391843397868797, 622408.850170215941034 ], [ 171270.904064439295325, 622537.042784456047229 ] ] } },
{ "type": "Feature", "properties": { }, "geometry": { "type": "LineString", "coordinates": [ [ 170945.777868902659975, 622386.555802521994337 ], [ 171178.010865714546526, 622492.454049068153836 ] ] } },
{ "type": "Feature", "properties": { }, "geometry": { "type": "LineString", "coordinates": [ [ 170877.036901846324326, 622325.246291363611817 ], [ 171096.264850836771075, 622425.570945986313745 ] ] } },
{ "type": "Feature", "properties": { }, "geometry": { "type": "LineString", "coordinates": [ [ 170867.747581973846536, 622397.702986368909478 ], [ 171092.549122887779959, 622512.890552787692286 ] ] } },
{ "type": "Feature", "properties": { }, "geometry": { "type": "LineString", "coordinates": [ [ 170616.935945417004405, 622380.982210598420352 ], [ 170821.300982611457584, 622490.596185093745589 ] ] } },
{ "type": "Feature", "properties": { }, "geometry": { "type": "LineString", "coordinates": [ [ 172049.349069752788637, 621128.781891788821667 ], [ 172320.597210029081907, 621372.162072447594255 ] ] } },
{ "type": "Feature", "properties": { }, "geometry": { "type": "LineString", "coordinates": [ [ 172188.688867839926388, 621284.84246564633213 ], [ 172415.348272728326265, 621531.938374254270457 ] ] } },
{ "type": "Feature", "properties": { }, "geometry": { "type": "LineString", "coordinates": [ [ 172489.662831708148587, 621336.862656932207756 ], [ 172677.307093132141745, 621572.811381693114527 ] ] } },
{ "type": "Feature", "properties": { }, "geometry": { "type": "LineString", "coordinates": [ [ 172560.26166273895069, 621359.157024626154453 ], [ 172753.479516086459626, 621630.405164902447723 ] ] } },
{ "type": "Feature", "properties": { }, "geometry": { "type": "LineString", "coordinates": [ [ 172606.708262101339642, 621394.456440141540952 ], [ 172777.63174775490188, 621676.851764264865778 ] ] } },
{ "type": "Feature", "properties": { }, "geometry": { "type": "LineString", "coordinates": [ [ 171993.613150517921895, 620790.650648430688307 ], [ 172263.003426819719607, 621060.040924732456915 ] ] } },
{ "type": "Feature", "properties": { }, "geometry": { "type": "LineString", "coordinates": [ [ 171941.592959232046269, 620755.351232915185392 ], [ 172214.698963482864201, 621013.59432537003886 ] ] } },
{ "type": "Feature", "properties": { }, "geometry": { "type": "LineString", "coordinates": [ [ 171872.851992175739724, 620677.320945986430161 ], [ 172129.23722065606853, 620926.274718568776734 ] ] } },
{ "type": "Feature", "properties": { }, "geometry": { "type": "LineString", "coordinates": [ [ 171826.405392813350772, 621028.457237166003324 ], [ 172090.222077191661811, 621219.817226539016701 ] ] } },
{ "type": "Feature", "properties": { }, "geometry": { "type": "LineString", "coordinates": [ [ 171679.634138828230789, 620965.289862033212557 ], [ 171902.577815767668653, 621139.929075635736808 ] ] } },
{ "type": "Feature", "properties": { }, "geometry": { "type": "LineString", "coordinates": [ [ 171588.598804077977547, 620911.41180677281227 ], [ 171804.111025119404076, 621121.350435890839435 ] ] } },
{ "type": "Feature", "properties": { }, "geometry": { "type": "LineString", "coordinates": [ [ 171493.847741378704086, 620840.812975742039271 ], [ 171687.065594726213021, 621028.457237166003324 ] ] } },
{ "type": "Feature", "properties": { }, "geometry": { "type": "LineString", "coordinates": [ [ 166789.007944281504024, 618393.1978651083773 ], [ 166954.830940859043039, 618454.975059911725111 ] ] } },
{ "type": "Feature", "properties": { }, "geometry": { "type": "LineString", "coordinates": [ [ 174053.984298233117443, 622566.768608047976159 ], [ 174377.252629795257235, 622847.306068196776323 ] ] } },
{ "type": "Feature", "properties": { }, "geometry": { "type": "LineString", "coordinates": [ [ 173465.04141831814195, 622302.951923669665121 ], [ 173740.005286543426337, 622529.611328558064997 ] ] } },
{ "type": "Feature", "properties": { }, "geometry": { "type": "LineString", "coordinates": [ [ 171667.55802299399511, 619481.785478398902342 ], [ 171927.658979423315031, 619675.003331746440381 ] ] } },
{ "type": "Feature", "properties": { }, "geometry": { "type": "LineString", "coordinates": [ [ 170995.011264226719504, 619634.130324307479896 ], [ 171258.827948605059646, 619825.490313680493273 ] ] } },
{ "type": "Feature", "properties": { }, "geometry": { "type": "LineString", "coordinates": [ [ 171295.985228094970807, 620800.868900290457532 ], [ 171478.055897595506394, 620958.787338122492656 ] ] } },
{ "type": "Feature", "properties": { }, "geometry": { "type": "LineString", "coordinates": [ [ 171392.594154768739827, 620795.295308366883546 ], [ 171557.944048498815391, 620960.645202097017318 ] ] } },
{ "type": "Feature", "properties": { }, "geometry": { "type": "LineString", "coordinates": [ [ 171147.356110135355266, 620763.71162080054637 ], [ 171331.284643610386411, 620921.630058632581495 ] ] } },
{ "type": "Feature", "properties": { }, "geometry": { "type": "LineString", "coordinates": [ [ 171320.137459763413062, 620267.66193961026147 ], [ 171572.806960294779856, 620512.899984243675135 ] ] } },
{ "type": "Feature", "properties": { }, "geometry": { "type": "LineString", "coordinates": [ [ 171387.020562845253153, 620321.539994870661758 ], [ 171637.832199402095284, 620587.214543223497458 ] ] } },
{ "type": "Feature", "properties": { }, "geometry": { "type": "LineString", "coordinates": [ [ 171459.477257850550814, 620369.84445820748806 ], [ 171697.283846585953142, 620635.51900656032376 ] ] } },
{ "type": "Feature", "properties": { }, "geometry": { "type": "LineString", "coordinates": [ [ 171673.131614917510888, 620524.047168090590276 ], [ 171877.496652111964067, 620748.848709004581906 ] ] } },
{ "type": "Feature", "properties": { }, "geometry": { "type": "LineString", "coordinates": [ [ 171741.872581973817432, 620602.077455019461922 ], [ 171948.095483142795274, 620826.878995933337137 ] ] } },
{ "type": "Feature", "properties": { }, "geometry": { "type": "LineString", "coordinates": [ [ 171827.334324800613103, 620414.433193595381454 ], [ 172072.572369433968561, 620700.544245667639188 ] ] } },
{ "type": "Feature", "properties": { }, "geometry": { "type": "LineString", "coordinates": [ [ 171972.247714811237529, 620358.697274360572919 ], [ 172191.475663801655173, 620574.20949540194124 ] ] } },
{ "type": "Feature", "properties": { }, "geometry": { "type": "LineString", "coordinates": [ [ 172111.587512898346176, 620587.214543223497458 ], [ 172330.815461888792925, 620830.594723882386461 ] ] } },
{ "type": "Feature", "properties": { }, "geometry": { "type": "LineString", "coordinates": [ [ 170420.931296107708476, 619013.603756825905293 ], [ 170738.626035746361595, 619177.095786581514403 ] ] } },
{ "type": "Feature", "properties": { }, "geometry": { "type": "LineString", "coordinates": [ [ 171606.248511835612589, 619736.31284290459007 ], [ 171834.765780698537128, 619899.804872660082765 ] ] } },
{ "type": "Feature", "properties": { }, "geometry": { "type": "LineString", "coordinates": [ [ 170231.429170709190657, 620120.890685625025071 ], [ 170441.367799827130511, 620217.499612298794091 ] ] } },
{ "type": "Feature", "properties": { }, "geometry": { "type": "LineString", "coordinates": [ [ 169447.410573472210672, 619663.856147899175994 ], [ 169616.476195151277352, 619732.597114955540746 ] ] } },
{ "type": "Feature", "properties": { }, "geometry": { "type": "LineString", "coordinates": [ [ 169837.562008116219658, 619831.063905603834428 ], [ 169936.028798764455132, 619831.063905603834428 ] ] } },
{ "type": "Feature", "properties": { }, "geometry": { "type": "LineString", "coordinates": [ [ 169882.150743504113052, 618630.883778079994954 ], [ 170212.850530964235077, 618833.390951299923472 ] ] } },
{ "type": "Feature", "properties": { }, "geometry": { "type": "LineString", "coordinates": [ [ 169958.323166458401829, 618616.02086628403049 ], [ 170255.581402377632912, 618792.517943861079402 ] ] } },
{ "type": "Feature", "properties": { }, "geometry": { "type": "LineString", "coordinates": [ [ 169781.826088881352916, 618983.877933234092779 ], [ 170079.084324800584, 619165.948602734599262 ] ] } },
{ "type": "Feature", "properties": { }, "geometry": { "type": "LineString", "coordinates": [ [ 169690.790754131099675, 619093.491907729301602 ], [ 169973.186078254366294, 619288.567625051247887 ] ] } },
{ "type": "Feature", "properties": { }, "geometry": { "type": "LineString", "coordinates": [ [ 168341.981508647586452, 617518.023257357417606 ], [ 168631.808288668835303, 617644.358007623115554 ] ] } },
{ "type": "Feature", "properties": { }, "geometry": { "type": "LineString", "coordinates": [ [ 168291.819181336206384, 617475.292385944048874 ], [ 168576.072369433968561, 617597.911408260697499 ] ] } },
{ "type": "Feature", "properties": { }, "geometry": { "type": "LineString", "coordinates": [ [ 168717.27003149560187, 617763.261301990714855 ], [ 169018.243995363824069, 617902.601100077852607 ] ] } },
{ "type": "Feature", "properties": { }, "geometry": { "type": "LineString", "coordinates": [ [ 168854.751965608273167, 617869.159548536990769 ], [ 169153.868065501970705, 618001.067890726146288 ] ] } },
{ "type": "Feature", "properties": { }, "geometry": { "type": "LineString", "coordinates": [ [ 169224.466896532801911, 618363.351365752751008 ], [ 169510.577948605059646, 618504.549027814297006 ] ] } },
{ "type": "Feature", "properties": { }, "geometry": { "type": "LineString", "coordinates": [ [ 169280.202815767668653, 618398.650781268137507 ], [ 169558.882411941944156, 618543.564171278732829 ] ] } },
{ "type": "Feature", "properties": { }, "geometry": { "type": "LineString", "coordinates": [ [ 169412.57562395039713, 620332.687178717344068 ], [ 169585.356973578454927, 620413.504261607886292 ] ] } },
{ "type": "Feature", "properties": { }, "geometry": { "type": "LineString", "coordinates": [ [ 167782.299986330850516, 617269.998416761867702 ], [ 168033.111622887721751, 617336.881519843707792 ] ] } },
{ "type": "Feature", "properties": { }, "geometry": { "type": "LineString", "coordinates": [ [ 167732.137659019499552, 617322.947540035005659 ], [ 167957.868131920666201, 617389.830643116845749 ] ] } },
{ "type": "Feature", "properties": { }, "geometry": { "type": "LineString", "coordinates": [ [ 167562.14310535317054, 617113.93784290435724 ], [ 167846.396293450932717, 617166.886966177378781 ] ] } },
{ "type": "Feature", "properties": { }, "geometry": { "type": "LineString", "coordinates": [ [ 166949.047993769752793, 616601.167385943699628 ], [ 167202.646426288352814, 616676.410876910784282 ] ] } },
{ "type": "Feature", "properties": { }, "geometry": { "type": "LineString", "coordinates": [ [ 166740.038296639046166, 616551.005058632348664 ], [ 167015.93109685156378, 616645.756121331593022 ] ] } },
{ "type": "Feature", "properties": { }, "geometry": { "type": "LineString", "coordinates": [ [ 166533.815395470068324, 616537.071078823646531 ], [ 166790.20062395039713, 616629.035345561103895 ] ] } },
{ "type": "Feature", "properties": { }, "geometry": { "type": "LineString", "coordinates": [ [ 167219.367202058812836, 616743.293979992624372 ], [ 167467.392042653926183, 616804.603491150890477 ] ] } },
{ "type": "Feature", "properties": { }, "geometry": { "type": "LineString", "coordinates": [ [ 167124.616139359539375, 616746.08077595429495 ], [ 167350.346612260706024, 616785.095919418730773 ] ] } },
{ "type": "Feature", "properties": { }, "geometry": { "type": "LineString", "coordinates": [ [ 167127.402935321297264, 616982.958432702464052 ], [ 167361.493796107679373, 617052.62833174597472 ] ] } },
{ "type": "Feature", "properties": { }, "geometry": { "type": "LineString", "coordinates": [ [ 169142.256415661307983, 618910.027840247494169 ], [ 169429.296399720798945, 619124.611129301716574 ] ] } },
{ "type": "Feature", "properties": { }, "geometry": { "type": "LineString", "coordinates": [ [ 169331.758541059825802, 618910.027840247494169 ], [ 169604.864545310614631, 619102.316761607769877 ] ] } },
{ "type": "Feature", "properties": { }, "geometry": { "type": "LineString", "coordinates": [ [ 168961.114678148005623, 618898.880656400462613 ], [ 169239.79427432231023, 619119.037537378142588 ] ] } },
{ "type": "Feature", "properties": { }, "geometry": { "type": "LineString", "coordinates": [ [ 160861.756681336089969, 618721.919112829607911 ], [ 161051.258806734607788, 618969.015021437429823 ] ] } },
{ "type": "Feature", "properties": { }, "geometry": { "type": "LineString", "coordinates": [ [ 169713.549587818532018, 621132.497619737288915 ], [ 169942.066856681427453, 621292.273921543848701 ] ] } },
{ "type": "Feature", "properties": { }, "geometry": { "type": "LineString", "coordinates": [ [ 169577.925517680385383, 621134.355483711813577 ], [ 169791.579874747316353, 621281.12673769693356 ] ] } },
{ "type": "Feature", "properties": { }, "geometry": { "type": "LineString", "coordinates": [ [ 169390.281256256363122, 621132.497619737288915 ], [ 169596.504157425340964, 621277.411009747884236 ] ] } },
{ "type": "Feature", "properties": { }, "geometry": { "type": "LineString", "coordinates": [ [ 169239.794274322252022, 621134.355483711813577 ], [ 169412.575623950309819, 621238.395866283448413 ] ] } },
{ "type": "Feature", "properties": { }, "geometry": { "type": "LineString", "coordinates": [ [ 169055.865740847220877, 621093.482476272853091 ], [ 169234.220682398765348, 621201.238586793537252 ] ] } },
{ "type": "Feature", "properties": { }, "geometry": { "type": "LineString", "coordinates": [ [ 172360.076819486945169, 621252.329846092266962 ], [ 172504.990209497569595, 621454.837019312311895 ] ] } },
{ "type": "Feature", "properties": { }, "geometry": { "type": "LineString", "coordinates": [ [ 168515.517967471212614, 618971.952637477079406 ], [ 168736.615296241274336, 619131.272771443706006 ] ] } },
{ "type": "Feature", "properties": { }, "geometry": { "type": "LineString", "coordinates": [ [ 168538.277986609318759, 618923.181167895440012 ], [ 168772.381040601147106, 619085.752733167493716 ] ] } },
{ "type": "Feature", "properties": { }, "geometry": { "type": "LineString", "coordinates": [ [ 168658.580944910674589, 618871.158267008373514 ], [ 168892.683998902502935, 619046.73555750225205 ] ] } },
{ "type": "Feature", "properties": { }, "geometry": { "type": "LineString", "coordinates": [ [ 168788.638197128340835, 618598.03803735121619 ], [ 168999.98123198209214, 618760.609602623269893 ] ] } },
{ "type": "Feature", "properties": { }, "geometry": { "type": "LineString", "coordinates": [ [ 170703.73123603372369, 619527.947390707442537 ], [ 170921.577133498329204, 619684.016093368642032 ] ] } },
{ "type": "Feature", "properties": { }, "geometry": { "type": "LineString", "coordinates": [ [ 170118.473601054138271, 619716.53040642302949 ], [ 170411.102418543916428, 619940.87916649854742 ] ] } },
{ "type": "Feature", "properties": { }, "geometry": { "type": "LineString", "coordinates": [ [ 170997.985769176215399, 620721.222679804777727 ], [ 171163.808765753754415, 620883.794245076947846 ] ] } },
{ "type": "Feature", "properties": { }, "geometry": { "type": "LineString", "coordinates": [ [ 170576.925415121455444, 620303.413757055532187 ], [ 170632.19974731397815, 620288.782316180993803 ] ] } },
{ "type": "Feature", "properties": { }, "geometry": { "type": "LineString", "coordinates": [ [ 170656.585482104797848, 620376.570961427991278 ], [ 170690.725510811927961, 620371.693814469850622 ] ] } },
{ "type": "Feature", "properties": { }, "geometry": { "type": "LineString", "coordinates": [ [ 170468.002466389152687, 620106.702163076261058 ], [ 170484.25962291637552, 620145.71933874161914 ] ] } },
{ "type": "Feature", "properties": { }, "geometry": { "type": "LineString", "coordinates": [ [ 170030.684955807199003, 619970.142048247740604 ], [ 170134.730757581361104, 620022.164949134807102 ] ] } },
{ "type": "Feature", "properties": { }, "geometry": { "type": "LineString", "coordinates": [ [ 170807.777037807856686, 620565.153977143578231 ], [ 170807.777037807856686, 620540.768242352758534 ] ] } },
{ "type": "Feature", "properties": { }, "geometry": { "type": "LineString", "coordinates": [ [ 170874.431379569403362, 620594.416858892538585 ], [ 170851.67136043132632, 620573.282555407262407 ] ] } },
{ "type": "Feature", "properties": { }, "geometry": { "type": "LineString", "coordinates": [ [ 170926.454280456498964, 620674.0769258759683 ], [ 170988.231475259875879, 620765.117002428276464 ] ] } },
{ "type": "Feature", "properties": { }, "geometry": { "type": "LineString", "coordinates": [ [ 173169.129023385146866, 622175.425331163569354 ], [ 173416.237802598741837, 622347.751190352020785 ] ] } },
{ "type": "Feature", "properties": { }, "geometry": { "type": "LineString", "coordinates": [ [ 173291.057697339216247, 622185.179625079967082 ], [ 173538.166476552811218, 622403.025522544514388 ] ] } },
{ "type": "Feature", "properties": { }, "geometry": { "type": "LineString", "coordinates": [ [ 173968.98112452388159, 622537.959921720437706 ], [ 174316.884274206182454, 622772.062975712236948 ] ] } },
{ "type": "Feature", "properties": { }, "geometry": { "type": "LineString", "coordinates": [ [ 173850.303881875239313, 622489.188452138798311 ], [ 174164.067002850410063, 622671.268605243531056 ] ] } },
{ "type": "Feature", "properties": { }, "geometry": { "type": "LineString", "coordinates": [ [ 173721.872345310286619, 622414.405532113625668 ], [ 174007.998300189181464, 622622.497135661891662 ] ] } },
{ "type": "Feature", "properties": { }, "geometry": { "type": "LineString", "coordinates": [ [ 173650.340856590570183, 622352.628337310161442 ], [ 173913.706792331358884, 622583.47995999653358 ] ] } },
{ "type": "Feature", "properties": { }, "geometry": { "type": "LineString", "coordinates": [ [ 173595.066524398047477, 622342.874043393880129 ], [ 173855.181028833409073, 622546.088499984005466 ] ] } },
{ "type": "Feature", "properties": { }, "geometry": { "type": "LineString", "coordinates": [ [ 173349.583460837166058, 621713.722085790825076 ], [ 173588.563661787164165, 622055.122372862300836 ] ] } },
{ "type": "Feature", "properties": { }, "geometry": { "type": "LineString", "coordinates": [ [ 172167.688181308971252, 621126.83873515855521 ], [ 172349.768334413733101, 621312.170319568715058 ] ] } },
{ "type": "Feature", "properties": { }, "geometry": { "type": "LineString", "coordinates": [ [ 167654.701529355457751, 617900.606022333726287 ], [ 167888.804583347286098, 618043.668999773217365 ] ] } },
{ "type": "Feature", "properties": { }, "geometry": { "type": "LineString", "coordinates": [ [ 168485.442227895895485, 617749.414466630783863 ], [ 168782.948192343814299, 617850.208837099489756 ] ] } },
{ "type": "Feature", "properties": { }, "geometry": { "type": "LineString", "coordinates": [ [ 168511.453678339428734, 617863.214562321314588 ], [ 168776.445329732930986, 617924.991757124662399 ] ] } },
{ "type": "Feature", "properties": { }, "geometry": { "type": "LineString", "coordinates": [ [ 168235.082017376844306, 617872.968856237595901 ], [ 168469.185071368672652, 617941.248913651914336 ] ] } },
{ "type": "Feature", "properties": { }, "geometry": { "type": "LineString", "coordinates": [ [ 168659.393802737031365, 618032.288990204338916 ], [ 168893.496856728859711, 618123.32906675664708 ] ] } },
{ "type": "Feature", "properties": { }, "geometry": { "type": "LineString", "coordinates": [ [ 167970.09036598331295, 617469.791374362772331 ], [ 168200.941988669714192, 617539.697147429804318 ] ] } },
{ "type": "Feature", "properties": { }, "geometry": { "type": "LineString", "coordinates": [ [ 167883.927436389116338, 617534.820000471663661 ], [ 168092.019039937411435, 617596.597195275011472 ] ] } },
{ "type": "Feature", "properties": { }, "geometry": { "type": "LineString", "coordinates": [ [ 166606.1149333503854, 617261.699770814506337 ], [ 166827.212262120447122, 617368.997003894066438 ] ] } },
{ "type": "Feature", "properties": { }, "geometry": { "type": "LineString", "coordinates": [ [ 166594.734923781332327, 616847.142279370687902 ], [ 166833.715124731330434, 616957.690943755675107 ] ] } },
{ "type": "Feature", "properties": { }, "geometry": { "type": "LineString", "coordinates": [ [ 166485.81197504902957, 616652.056401044130325 ], [ 166728.043607304454781, 616741.470761943841353 ] ] } },
{ "type": "Feature", "properties": { }, "geometry": { "type": "LineString", "coordinates": [ [ 166131.405962755845394, 616795.119378483621404 ], [ 166380.140457622183021, 616918.673768090317026 ] ] } },
{ "type": "Feature", "properties": { }, "geometry": { "type": "LineString", "coordinates": [ [ 160760.041446165705565, 619085.752733167377301 ], [ 160890.098698383371811, 619279.21289584110491 ] ] } },
{ "type": "Feature", "properties": { }, "geometry": { "type": "LineString", "coordinates": [ [ 160412.138296483404702, 618554.143714727601036 ], [ 160664.124222655140329, 618757.358171317726374 ] ] } },
{ "type": "Feature", "properties": { }, "geometry": { "type": "LineString", "coordinates": [ [ 169020.302677641127957, 619485.678783736657351 ], [ 169150.359929858823307, 619523.070243749185465 ] ] } },
{ "type": "Feature", "properties": { }, "geometry": { "type": "LineString", "coordinates": [ [ 170229.835123265569564, 619612.484604648896493 ], [ 170442.803873772005318, 619770.17902296280954 ] ] } },
{ "type": "Feature", "properties": { }, "geometry": { "type": "LineString", "coordinates": [ [ 170504.581068575411336, 619601.104595079901628 ], [ 170756.566994747176068, 619797.816189059172757 ] ] } },
{ "type": "Feature", "properties": { }, "geometry": { "type": "LineString", "coordinates": [ [ 170020.117804064560914, 619435.281598502304405 ], [ 170247.717995445476845, 619565.338850719970651 ] ] } },
{ "type": "Feature", "properties": { }, "geometry": { "type": "LineString", "coordinates": [ [ 170018.492088411818258, 619175.167094066971913 ], [ 170307.869474596169312, 619363.750109782558866 ] ] } },
{ "type": "Feature", "properties": { }, "geometry": { "type": "LineString", "coordinates": [ [ 169990.854922315571457, 619214.184269732329994 ], [ 170291.612318068946479, 619391.387275878922082 ] ] } },
{ "type": "Feature", "properties": { }, "geometry": { "type": "LineString", "coordinates": [ [ 169906.317708374088397, 619110.138467958080582 ], [ 170182.689369336643722, 619293.844336715643294 ] ] } },
{ "type": "Feature", "properties": { }, "geometry": { "type": "LineString", "coordinates": [ [ 169864.049101403332315, 619152.407074928865768 ], [ 170153.426487587683368, 619339.364374991739169 ] ] } },
{ "type": "Feature", "properties": { }, "geometry": { "type": "LineString", "coordinates": [ [ 169694.974673520337092, 618659.815232154447585 ], [ 169974.597765788348624, 618814.258219162933528 ] ] } },
{ "type": "Feature", "properties": { }, "geometry": { "type": "LineString", "coordinates": [ [ 169652.706066549610114, 618641.932359974482097 ], [ 169946.960599692101823, 618807.75535655207932 ] ] } },
{ "type": "Feature", "properties": { }, "geometry": { "type": "LineString", "coordinates": [ [ 169602.308881315257167, 618625.67520344723016 ], [ 169875.429110972385388, 618788.246768719400279 ] ] } },
{ "type": "Feature", "properties": { }, "geometry": { "type": "LineString", "coordinates": [ [ 169386.088699503365206, 618585.032312129274942 ], [ 169647.828919591440354, 618728.095289568649605 ] ] } },
{ "type": "Feature", "properties": { }, "geometry": { "type": "LineString", "coordinates": [ [ 169088.582735055417288, 618433.840756426099688 ], [ 169325.937220352701843, 618550.892283422057517 ] ] } },
{ "type": "Feature", "properties": { }, "geometry": { "type": "LineString", "coordinates": [ [ 168748.808163636742393, 618406.203590329852886 ], [ 168981.285501975828083, 618533.009411242092028 ] ] } },
{ "type": "Feature", "properties": { }, "geometry": { "type": "LineString", "coordinates": [ [ 168864.233974979928462, 618887.415423535276204 ], [ 169129.225626373459818, 619079.249870556406677 ] ] } },
{ "type": "Feature", "properties": { }, "geometry": { "type": "LineString", "coordinates": [ [ 171359.707501906668767, 619651.50178031437099 ], [ 171543.413370664144168, 619775.056169921066612 ] ] } },
{ "type": "Feature", "properties": { }, "geometry": { "type": "LineString", "coordinates": [ [ 171408.478971488308161, 619609.233173343585804 ], [ 171623.073437647457467, 619718.156122075859457 ] ] } },
{ "type": "Feature", "properties": { }, "geometry": { "type": "LineString", "coordinates": [ [ 171574.301968065847177, 619401.141569795319811 ], [ 171826.287894237582805, 619552.333125498378649 ] ] } },
{ "type": "Feature", "properties": { }, "geometry": { "type": "LineString", "coordinates": [ [ 171967.725156024331227, 621286.971726951655 ], [ 172179.068190878053429, 621400.771822642185725 ] ] } },
{ "type": "Feature", "properties": { }, "geometry": { "type": "LineString", "coordinates": [ [ 171863.67935425019823, 621231.697394759161398 ], [ 172094.530976936570369, 621317.860324353445321 ] ] } },
{ "type": "Feature", "properties": { }, "geometry": { "type": "LineString", "coordinates": [ [ 171754.756405517866369, 621282.094579993514344 ], [ 172031.128066480450798, 621342.246059144148603 ] ] } }
]
}
