{
"type": "FeatureCollection",
"name": "20180630_093123_1038_3B_AnalyticMS",
"crs": { "type": "name", "properties": { "name": "urn:ogc:def:crs:OGC:1.3:CRS84" } },
"features": [
{ "type": "Feature", "geometry": { "type": "LineString", "coordinates": [ [ 0.0, 0.0 ], [ 1.0, 1.0 ] ] } },
{ "type": "Feature", "properties": { }, "geometry": { "type": "LineString", "coordinates": [ [ 304658.76814734749496, 5010013.684315904974937 ], [ 304921.477049308246933, 5009382.12150109000504 ] ] } },
{ "type": "Feature", "properties": { }, "geometry": { "type": "LineString", "coordinates": [ [ 304342.986739940068219, 5009875.69580174330622 ], [ 304565.891262815857772, 5009185.753230937756598 ] ] } },
{ "type": "Feature", "properties": { }, "geometry": { "type": "LineString", "coordinates": [ [ 304674.689898981479928, 5010257.817840958945453 ], [ 304950.666927303886041, 5009636.869527233764529 ] ] } },
{ "type": "Feature", "properties": { }, "geometry": { "type": "LineString", "coordinates": [ [ 303913.099445822415873, 5009971.226311547681689 ], [ 304059.048835800611414, 5009275.97649019677192 ] ] } },
{ "type": "Feature", "properties": { }, "geometry": { "type": "LineString", "coordinates": [ [ 302469.527297674270812, 5009384.775126360356808 ], [ 302530.560678937879857, 5008936.312455336563289 ] ] } },
{ "type": "Feature", "properties": { }, "geometry": { "type": "LineString", "coordinates": [ [ 302270.505402249458712, 5009326.395370369777083 ], [ 302342.153284602391068, 5008859.357322439551353 ] ] } },
{ "type": "Feature", "properties": { }, "geometry": { "type": "LineString", "coordinates": [ [ 303403.603393534838688, 5009509.49551416002214 ], [ 303592.010787870327476, 5009026.535714595578611 ] ] } },
{ "type": "Feature", "properties": { }, "geometry": { "type": "LineString", "coordinates": [ [ 301108.217532968323212, 5009169.831479303538799 ], [ 301105.563907695992384, 5008856.703697168268263 ] ] } },
{ "type": "Feature", "properties": { }, "geometry": { "type": "LineString", "coordinates": [ [ 299632.801881552382838, 5008134.917623092420399 ], [ 299640.762757369375322, 5007970.392856208607554 ] ] } },
{ "type": "Feature", "properties": { }, "geometry": { "type": "LineString", "coordinates": [ [ 299847.745528611179907, 5008249.02350980322808 ], [ 299975.119541683059651, 5008219.833631807006896 ] ] } },
{ "type": "Feature", "properties": { }, "geometry": { "type": "LineString", "coordinates": [ [ 300020.231171312683728, 5008477.23528322391212 ], [ 300129.029807478305884, 5008442.73815468326211 ] ] } },
{ "type": "Feature", "properties": { }, "geometry": { "type": "LineString", "coordinates": [ [ 313904.606718597467989, 5007909.96759741473943 ], [ 314375.182933557254728, 5007994.883606129325926 ] ] } },
{ "type": "Feature", "properties": { }, "geometry": { "type": "LineString", "coordinates": [ [ 313927.604804290982429, 5007957.732852316461504 ], [ 314405.25735331029864, 5008055.032445635646582 ] ] } },
{ "type": "Feature", "properties": { }, "geometry": { "type": "LineString", "coordinates": [ [ 313855.072380180645268, 5007840.973340334370732 ], [ 314313.265010536240879, 5007909.96759741473943 ] ] } },
{ "type": "Feature", "properties": { }, "geometry": { "type": "LineString", "coordinates": [ [ 313763.080037406587508, 5007798.515335977077484 ], [ 314169.969245830434375, 5007832.127922759391367 ] ] } },
{ "type": "Feature", "properties": { }, "geometry": { "type": "LineString", "coordinates": [ [ 313851.534213150909636, 5008362.85297722555697 ], [ 314265.499755634285975, 5008369.929311284795403 ] ] } },
{ "type": "Feature", "properties": { }, "geometry": { "type": "LineString", "coordinates": [ [ 313893.992217508144677, 5008477.843405692838132 ], [ 314272.576089693815447, 5008435.385401335544884 ] ] } },
{ "type": "Feature", "properties": { }, "geometry": { "type": "LineString", "coordinates": [ [ 314927.136990201775916, 5010126.629241567105055 ], [ 315353.486117289343383, 5010022.253314188681543 ] ] } },
{ "type": "Feature", "properties": { }, "geometry": { "type": "LineString", "coordinates": [ [ 315245.572022881300654, 5009919.646470325067639 ], [ 315599.388725858530961, 5009838.26862864010036 ] ] } },
{ "type": "Feature", "properties": { }, "geometry": { "type": "LineString", "coordinates": [ [ 314794.455726585292723, 5009581.751518981531262 ], [ 315272.108275604608934, 5009548.138932199217379 ] ] } },
{ "type": "Feature", "properties": { }, "geometry": { "type": "LineString", "coordinates": [ [ 314907.677071537997108, 5010542.363867565058172 ], [ 315178.346849315566942, 5010460.986025880090892 ] ] } },
{ "type": "Feature", "properties": { }, "geometry": { "type": "LineString", "coordinates": [ [ 308650.428679384989664, 5011387.985787679441273 ], [ 308855.642367111810017, 5010968.712994650937617 ] ] } },
{ "type": "Feature", "properties": { }, "geometry": { "type": "LineString", "coordinates": [ [ 308448.75315868796315, 5011655.117398426868021 ], [ 308606.2015915128286, 5011207.53926916141063 ] ] } },
{ "type": "Feature", "properties": { }, "geometry": { "type": "LineString", "coordinates": [ [ 308135.62537655304186, 5010970.482078166678548 ], [ 308512.440165223844815, 5010337.150179837830365 ] ] } },
{ "type": "Feature", "properties": { }, "geometry": { "type": "LineString", "coordinates": [ [ 307725.198001099459361, 5011138.545012081041932 ], [ 308163.930712791276164, 5010450.371524790301919 ] ] } },
{ "type": "Feature", "properties": { }, "geometry": { "type": "LineString", "coordinates": [ [ 308163.930712791334372, 5011883.329171848483384 ], [ 308308.995561012008693, 5011566.663222683593631 ] ] } },
{ "type": "Feature", "properties": { }, "geometry": { "type": "LineString", "coordinates": [ [ 308077.24562056188006, 5012023.086769524030387 ], [ 308247.077637990994845, 5011754.186075261794031 ] ] } },
{ "type": "Feature", "properties": { }, "geometry": { "type": "LineString", "coordinates": [ [ 307167.936693910334725, 5012612.191579981707036 ], [ 307537.67514852155, 5012111.540945268236101 ] ] } },
{ "type": "Feature", "properties": { }, "geometry": { "type": "LineString", "coordinates": [ [ 307130.785940097703133, 5012270.758461608551443 ], [ 307597.823988027696032, 5011686.960901696234941 ] ] } },
{ "type": "Feature", "properties": { }, "geometry": { "type": "LineString", "coordinates": [ [ 306628.366221870004665, 5012895.244942363351583 ], [ 307005.18101054080762, 5012391.056140620261431 ] ] } },
{ "type": "Feature", "properties": { }, "geometry": { "type": "LineString", "coordinates": [ [ 305968.498070817324333, 5013565.727594505995512 ], [ 306359.465527607186232, 5013139.378467418253422 ] ] } },
{ "type": "Feature", "properties": { }, "geometry": { "type": "LineString", "coordinates": [ [ 304682.374355494976044, 5013565.727594505064189 ], [ 305089.263563918822911, 5013036.771623553708196 ] ] } },
{ "type": "Feature", "properties": { }, "geometry": { "type": "LineString", "coordinates": [ [ 304379.861074449436273, 5014298.128169667907059 ], [ 304878.742625647340901, 5013836.397372283041477 ] ] } },
{ "type": "Feature", "properties": { }, "geometry": { "type": "LineString", "coordinates": [ [ 300516.377144858823158, 5007931.967591370455921 ], [ 300464.146120230550878, 5008360.261993322521448 ] ] } },
{ "type": "Feature", "properties": { }, "geometry": { "type": "LineString", "coordinates": [ [ 315040.780473481572699, 5009676.832020786590874 ], [ 315508.770454150624573, 5009635.04720108397305 ] ] } },
{ "type": "Feature", "properties": { }, "geometry": { "type": "LineString", "coordinates": [ [ 312872.148330916999839, 5007424.630238817073405 ], [ 313081.072429429972544, 5007382.845419114455581 ] ] } },
{ "type": "Feature", "properties": { }, "geometry": { "type": "LineString", "coordinates": [ [ 312349.838084634568077, 5006664.1465202299878 ], [ 312617.260930731194094, 5006676.68196614086628 ] ] } },
{ "type": "Feature", "properties": { }, "geometry": { "type": "LineString", "coordinates": [ [ 313465.492770693788771, 5007424.630238817073405 ], [ 313762.16499058221234, 5007370.309973203577101 ] ] } },
{ "type": "Feature", "properties": { }, "geometry": { "type": "LineString", "coordinates": [ [ 312178.520323853939772, 5006555.505989003926516 ], [ 312445.943169950507581, 5006555.505989003926516 ] ] } },
{ "type": "Feature", "properties": { }, "geometry": { "type": "LineString", "coordinates": [ [ 300017.048549414204899, 5008726.227372555993497 ], [ 299975.263729711587075, 5008517.303274042904377 ] ] } },
{ "type": "Feature", "properties": { }, "geometry": { "type": "LineString", "coordinates": [ [ 300159.116936402977444, 5008793.08308408036828 ], [ 300134.046044581453316, 5008617.58684132900089 ] ] } },
{ "type": "Feature", "properties": { }, "geometry": { "type": "LineString", "coordinates": [ [ 300267.757467629737221, 5008797.261566050350666 ], [ 300363.862552945676725, 5008663.550143002532423 ] ] } }
]
}
