{
"type": "FeatureCollection",
"name": "20180630_093126_1038_3B_AnalyticMS",
"crs": { "type": "name", "properties": { "name": "urn:ogc:def:crs:OGC:1.3:CRS84" } },
"features": [
{ "type": "Feature", "geometry": { "type": "LineString", "coordinates": [ [ 0.0, 0.0 ], [ 1.0, 1.0 ] ] } },
{ "type": "Feature", "properties": { }, "geometry": { "type": "LineString", "coordinates": [ [ 308592.350952025968581, 4982428.2345304582268 ], [ 308371.650059168867301, 4981637.38966438639909 ] ] } },
{ "type": "Feature", "properties": { }, "geometry": { "type": "LineString", "coordinates": [ [ 308396.938703142048325, 4982228.224346306174994 ], [ 308281.990321445628069, 4981451.173286038450897 ] ] } },
{ "type": "Feature", "properties": { }, "geometry": { "type": "LineString", "coordinates": [ [ 305745.640046777960379, 4987261.603192141279578 ], [ 305085.046858758723829, 4986828.679978782311082 ] ] } },
{ "type": "Feature", "properties": { }, "geometry": { "type": "LineString", "coordinates": [ [ 305835.306990644545294, 4987341.46281402092427 ], [ 305129.179807693173643, 4986881.219203704968095 ] ] } },
{ "type": "Feature", "properties": { }, "geometry": { "type": "LineString", "coordinates": [ [ 308866.820268642855808, 4989687.864599036984146 ], [ 308538.975505129666999, 4989183.488039785996079 ] ] } },
{ "type": "Feature", "properties": { }, "geometry": { "type": "LineString", "coordinates": [ [ 308997.117546449357178, 4989698.372444021515548 ], [ 308648.257092967396602, 4989236.02726470772177 ] ] } },
{ "type": "Feature", "properties": { }, "geometry": { "type": "LineString", "coordinates": [ [ 311638.789775526616722, 4981330.975482947193086 ], [ 311119.702233297459316, 4980297.003536481410265 ] ] } }
]
}
