{
"type": "FeatureCollection",
"name": "20181022_085430_0f2b_3B_AnalyticMS",
"crs": { "type": "name", "properties": { "name": "urn:ogc:def:crs:OGC:1.3:CRS84" } },
"features": [
{ "type": "Feature", "geometry": { "type": "LineString", "coordinates": [ [ 0.0, 0.0 ], [ 1.0, 1.0 ] ] } },
{ "type": "Feature", "properties": { }, "geometry": { "type": "LineString", "coordinates": [ [ 552086.126360322814435, 4203818.540338895283639 ], [ 552225.595748423249461, 4204173.962327925488353 ] ] } },
{ "type": "Feature", "properties": { }, "geometry": { "type": "LineString", "coordinates": [ [ 552511.276951307663694, 4205380.762276804074645 ], [ 552727.662422955385409, 4205702.381374888122082 ] ] } },
{ "type": "Feature", "properties": { }, "geometry": { "type": "LineString", "coordinates": [ [ 552432.506156621850096, 4203691.128730793483555 ], [ 552507.338411573320627, 4203915.625495648011565 ] ] } },
{ "type": "Feature", "properties": { }, "geometry": { "type": "LineString", "coordinates": [ [ 552613.678984399186447, 4203474.509045407176018 ], [ 552731.835176427848637, 4203742.329747338779271 ] ] } },
{ "type": "Feature", "properties": { }, "geometry": { "type": "LineString", "coordinates": [ [ 551912.618911695666611, 4203167.302946132607758 ], [ 552066.221961332950741, 4203474.509045407176018 ] ] } },
{ "type": "Feature", "properties": { }, "geometry": { "type": "LineString", "coordinates": [ [ 551727.507544183987193, 4203600.542316904291511 ], [ 551794.462719666888006, 4203958.949432725086808 ] ] } }
]
}
