{
"type": "FeatureCollection",
"name": "20181022_091552_1002_3B_AnalyticMS_clip",
"crs": { "type": "name", "properties": { "name": "urn:ogc:def:crs:OGC:1.3:CRS84" } },
"features": [
{ "type": "Feature", "geometry": { "type": "LineString", "coordinates": [ [ 0.0, 0.0 ], [ 1.0, 1.0 ] ] } },
{ "type": "Feature", "properties": { }, "geometry": { "type": "LineString", "coordinates": [ [ 544010.380147659219801, 4203519.251670522615314 ], [ 544323.794430457288399, 4203708.078909226693213 ] ] } },
{ "type": "Feature", "properties": { }, "geometry": { "type": "LineString", "coordinates": [ [ 543981.180059199803509, 4203418.024697196669877 ], [ 544298.48768712580204, 4203602.958590772934258 ] ] } },
{ "type": "Feature", "properties": { }, "geometry": { "type": "LineString", "coordinates": [ [ 544166.113952776300721, 4203659.412095127627254 ],  [ 544456.168164806789719, 4203813.199227681383491 ] ] } },
{ "type": "Feature", "properties": { }, "geometry": { "type": "LineString", "coordinates": [ [ 543914.993192025111057, 4203513.411652830429375 ], [ 544183.634005851927213, 4203696.398873843252659 ] ] } },
{ "type": "Feature", "properties": { }, "geometry": { "type": "LineString", "coordinates": [ [ 543173.31094515521545, 4202962.503317229449749 ], [ 543455.578466929844581, 4203003.383441072888672 ] ] } },
{ "type": "Feature", "properties": { }, "geometry": { "type": "LineString", "coordinates": [ [ 544025.953528170939535, 4202763.942715705372393 ], [ 544214.78076687536668, 4202820.396220060065389 ] ] } },
{ "type": "Feature", "properties": { }, "geometry": { "type": "LineString", "coordinates": [ [ 543772.886094855843112, 4202582.90216725692153 ], [ 543934.459917664760724, 4202608.208910588175058 ] ] } },
{ "type": "Feature", "properties": { }, "geometry": { "type": "LineString", "coordinates": [ [ 543868.273050490068272, 4202691.915830838494003 ], [ 544057.100289194495417, 4202754.209352885372937 ] ] } },
{ "type": "Feature", "properties": { }, "geometry": { "type": "LineString", "coordinates": [ [ 542772.296396978897974, 4202617.942273408174515 ], [ 543048.723901061690412, 4202606.262238024733961 ] ] } },
{ "type": "Feature", "properties": { }, "geometry": { "type": "LineString", "coordinates": [ [ 541824.266858328948729, 4201831.48655756842345 ], [ 542052.027548312675208, 4201878.206699103116989 ] ] } },
{ "type": "Feature", "properties": { }, "geometry": { "type": "LineString", "coordinates": [ [ 543134.377493876032531, 4202105.967389087192714 ], [ 543208.35105130658485, 4202162.42089344188571 ] ] } },
{ "type": "Feature", "properties": { }, "geometry": { "type": "LineString", "coordinates": [ [ 543210.297723870608024, 4202133.220804981887341 ], [ 543268.69790078944061, 4202183.83429164532572 ] ] } },
{ "type": "Feature", "properties": { }, "geometry": { "type": "LineString", "coordinates": [ [ 541241.968427633517422, 4201487.168847816996276 ], [ 541395.268892045598477, 4201614.189232615754008 ] ] } },
{ "type": "Feature", "properties": { }, "geometry": { "type": "LineString", "coordinates": [ [ 541148.528144563315436, 4201389.348551478236914 ], [ 541344.168737241532654, 4201513.448927430436015 ] ] } },
{ "type": "Feature", "properties": { }, "geometry": { "type": "LineString", "coordinates": [ [ 541717.929869522457011, 4201662.369378574192524 ], [ 541957.37059488997329, 4201697.409484725445509 ] ] } },
{ "type": "Feature", "properties": { }, "geometry": { "type": "LineString", "coordinates": [ [ 541085.747954375576228, 4201349.198429848998785 ], [ 541290.878575803246349, 4201482.058832339011133 ] ] } },
{ "type": "Feature", "properties": { }, "geometry": { "type": "LineString", "coordinates": [ [ 541500.632544570253231, 4205813.64862122759223 ], [ 541939.607207743916661, 4206134.849594281986356 ] ] } },
{ "type": "Feature", "properties": { }, "geometry": { "type": "LineString", "coordinates": [ [ 541508.419234826113097, 4205528.461090607568622 ], [ 541911.380455566453747, 4205851.608736225403845 ] ] } },
{ "type": "Feature", "properties": { }, "geometry": { "type": "LineString", "coordinates": [ [ 541954.207251973683015, 4205910.982249425724149 ], [ 542372.741853225743398, 4206192.276434918865561 ] ] } },
{ "type": "Feature", "properties": { }, "geometry": { "type": "LineString", "coordinates": [ [ 541336.13871291547548, 4204057.749968534335494 ], [ 541780.953393780975603, 4204244.630534674972296 ] ] } },
{ "type": "Feature", "properties": { }, "geometry": { "type": "LineString", "coordinates": [ [ 541460.725757009000517, 4204206.67041967716068 ], [ 541870.500331723247655, 4204368.244242486543953 ] ] } },
{ "type": "Feature", "properties": { }, "geometry": { "type": "LineString", "coordinates": [ [ 541408.16559778212104, 4204624.231684646569192 ], [ 541752.726641603629105, 4204816.952268479391932 ] ] } },
{ "type": "Feature", "properties": { }, "geometry": { "type": "LineString", "coordinates": [ [ 541729.366570836049505, 4204752.712073868140578 ], [ 542134.274464140413329, 4204953.219347956590354 ] ] } },
{ "type": "Feature", "properties": { }, "geometry": { "type": "LineString", "coordinates": [ [ 540985.737651402130723, 4204219.323791343718767 ], [ 541365.338801374891773, 4204410.097702612169087 ] ] } },
{ "type": "Feature", "properties": { }, "geometry": { "type": "LineString", "coordinates": [ [ 540851.417244488606229, 4203742.389013173058629 ], [ 541227.125049333553761, 4203894.229473161511123 ] ] } },
{ "type": "Feature", "properties": { }, "geometry": { "type": "LineString", "coordinates": [ [ 544254.200886296108365, 4203945.816296108067036 ], [ 544602.655275245546363, 4204047.043269434012473 ] ] } },
{ "type": "Feature", "properties": { }, "geometry": { "type": "LineString", "coordinates": [ [ 544205.534072197042406, 4203795.922508683055639 ], [ 544544.255098326597363, 4203957.49633149150759 ] ] } },
{ "type": "Feature", "properties": { }, "geometry": { "type": "LineString", "coordinates": [ [ 544121.827151946607046, 4202882.933076185174286 ], [ 544396.30798346537631, 4203003.626775151118636 ] ] } },
{ "type": "Feature", "properties": { }, "geometry": { "type": "LineString", "coordinates": [ [ 544106.253771434887312, 4202929.653217719867826 ], [ 544384.62794808158651, 4203058.133606941439211 ] ] } },
{ "type": "Feature", "properties": { }, "geometry": { "type": "LineString", "coordinates": [ [ 539528.398039680672809, 4198522.955718441866338 ], [ 539704.197282976936549, 4198294.852568048983812 ] ] } },
{ "type": "Feature", "properties": { }, "geometry": { "type": "LineString", "coordinates": [ [ 539692.574192511034198, 4198748.153096218593419 ], [ 539823.204583005281165, 4198741.319992564618587 ] ] } },
{ "type": "Feature", "properties": { }, "geometry": { "type": "LineString", "coordinates": [ [ 539878.54363996500615, 4198771.399277149699628 ], [ 540096.476586200064048, 4198704.566506971605122 ] ] } },
{ "type": "Feature", "properties": { }, "geometry": { "type": "LineString", "coordinates": [ [ 539807.352210861514322, 4199237.775782093405724 ], [ 540012.209180322592147, 4199030.013040015473962 ] ] } },
{ "type": "Feature", "properties": { }, "geometry": { "type": "LineString", "coordinates": [ [ 539266.8785041985102, 4198512.785514284856617 ], [ 539365.554225095896982, 4198313.716526377946138 ] ] } },
{ "type": "Feature", "properties": { }, "geometry": { "type": "LineString", "coordinates": [ [ 539240.000107496161945, 4200360.130455202423036 ], [ 539479.726348354830407, 4200487.98445032723248 ] ] } },
{ "type": "Feature", "properties": { }, "geometry": { "type": "LineString", "coordinates": [ [ 539177.525996242184192, 4200341.242933195084333 ], [ 539421.610896025435068, 4200467.644042011350393 ] ] } },
{ "type": "Feature", "properties": { }, "geometry": { "type": "LineString", "coordinates": [ [ 539882.175855735549703, 4199444.812081015668809 ], [ 540072.50396211410407, 4199356.186016213148832 ] ] } },
{ "type": "Feature", "properties": { }, "geometry": { "type": "LineString", "coordinates": [ [ 539928.668217598926276, 4199622.064210619777441 ], [ 540142.242504909285344, 4199629.328642160631716 ] ] } },
{ "type": "Feature", "properties": { }, "geometry": { "type": "LineString", "coordinates": [ [ 540820.740410854341462, 4200986.324454051442444 ], [ 541070.636855870485306, 4201096.74381347745657 ] ] } },
{ "type": "Feature", "properties": { }, "geometry": { "type": "LineString", "coordinates": [ [ 541528.296042964211665, 4201606.706907667219639 ], [ 541741.870330274570733, 4201695.332972469739616 ] ] } },
{ "type": "Feature", "properties": { }, "geometry": { "type": "LineString", "coordinates": [ [ 541892.970506330835633, 4201958.305394259281456 ], [ 542113.809225182281807, 4202049.837231678888202 ] ] } },
{ "type": "Feature", "properties": { }, "geometry": { "type": "LineString", "coordinates": [ [ 541919.122459879028611, 4201924.889009170234203 ], [ 542147.225610271678306, 4202013.51507397275418 ] ] } },
{ "type": "Feature", "properties": { }, "geometry": { "type": "LineString", "coordinates": [ [ 542556.939549193484709, 4202504.590646155178547 ], [ 542827.176402524928562, 4202546.724349093623459 ] ] } },
{ "type": "Feature", "properties": { }, "geometry": { "type": "LineString", "coordinates": [ [ 542955.030397649505176, 4202667.313912676647305 ], [ 543209.285501590347849, 4202700.730297766625881 ] ] } },
{ "type": "Feature", "properties": { }, "geometry": { "type": "LineString", "coordinates": [ [ 542984.088123814202845, 4201930.700554402545094 ], [ 543017.504508903599344, 4201953.946735334582627 ] ] } },
{ "type": "Feature", "properties": { }, "geometry": { "type": "LineString", "coordinates": [ [ 543405.425153201911598, 4202218.372043432667851 ], [ 543483.881013846490532, 4202272.128836837597191 ] ] } },
{ "type": "Feature", "properties": { }, "geometry": { "type": "LineString", "coordinates": [ [ 543267.400953919743188, 4202145.727728021331131 ], [ 543310.987543166731484, 4202208.201839275658131 ] ] } },
{ "type": "Feature", "properties": { }, "geometry": { "type": "LineString", "coordinates": [ [ 543738.136117787566036, 4202498.779100922867656 ], [ 543897.953611693228595, 4202530.742599703371525 ] ] } },
{ "type": "Feature", "properties": { }, "geometry": { "type": "LineString", "coordinates": [ [ 543720.701482088770717, 4202443.569421209394932 ], [ 543854.367022446240298, 4202479.891578915528953 ] ] } },
{ "type": "Feature", "properties": { }, "geometry": { "type": "LineString", "coordinates": [ [ 543900.859384309733286, 4202593.216710957698524 ], [ 544049.053787749493495, 4202645.52061805408448 ] ] } },
{ "type": "Feature", "properties": { }, "geometry": { "type": "LineString", "coordinates": [ [ 544149.302943017566577, 4203004.383536187000573 ], [ 544461.673499287804589, 4203119.161554537713528 ] ] } },
{ "type": "Feature", "properties": { }, "geometry": { "type": "LineString", "coordinates": [ [ 544268.439620292745531, 4203138.049076544120908 ], [ 544577.904403946478851, 4203236.845345504581928 ] ] } },
{ "type": "Feature", "properties": { }, "geometry": { "type": "LineString", "coordinates": [ [ 544266.986733984434977, 4203351.623363854363561 ], [ 544586.62172179587651, 4203515.799516685307026 ] ] } },
{ "type": "Feature", "properties": { }, "geometry": { "type": "LineString", "coordinates": [ [ 544205.965509038651362, 4204903.305941049009562 ], [ 544545.94090516527649, 4205217.129383627325296 ] ] } },
{ "type": "Feature", "properties": { }, "geometry": { "type": "LineString", "coordinates": [ [ 541744.049659736687317, 4204593.114714240655303 ], [ 542177.009779590298422, 4204835.746727716177702 ] ] } },
{ "type": "Feature", "properties": { }, "geometry": { "type": "LineString", "coordinates": [ [ 541776.013158517773263, 4204702.081187358126044 ], [ 542190.085756364394911, 4204915.65547466930002 ] ] } },
{ "type": "Feature", "properties": { }, "geometry": { "type": "LineString", "coordinates": [ [ 541283.484700026572682, 4203964.014942775480449 ], [ 541671.405344325001352, 4204102.039142057299614 ] ] } },
{ "type": "Feature", "properties": { }, "geometry": { "type": "LineString", "coordinates": [ [ 543595.025377774145454, 4202387.131617986597121 ], [ 543686.449914986500517, 4202398.015491464175284 ] ] } }
]
}
