{
"type": "FeatureCollection",
"name": "20181022_085429_0f2b_3B_AnalyticMS_clip",
"crs": { "type": "name", "properties": { "name": "urn:ogc:def:crs:OGC:1.3:CRS84" } },
"features": [
{ "type": "Feature", "geometry": { "type": "LineString", "coordinates": [ [ 0.0, 0.0 ], [ 1.0, 1.0 ] ] } },
{ "type": "Feature", "properties": { }, "geometry": { "type": "LineString", "coordinates": [ [ 565234.055436644004658, 4196279.889340753667057 ], [ 564719.744220890570432, 4196554.188655822537839 ] ] } },
{ "type": "Feature", "properties": { }, "geometry": { "type": "LineString", "coordinates": [ [ 563497.64280821941793, 4196096.206763697788119 ], [ 563176.81057363038417, 4196251.724678937345743 ] ] } },
{ "type": "Feature", "properties": { }, "geometry": { "type": "LineString", "coordinates": [ [ 563590.708647260442376, 4196032.530136985704303 ], [ 563307.837478596135043, 4196135.392380136065185 ] ] } },
{ "type": "Feature", "properties": { }, "geometry": { "type": "LineString", "coordinates": [ [ 564866.690282534342259, 4195765.578125 ], [ 564364.624571917927824, 4195924.769691781140864 ] ] } },
{ "type": "Feature", "properties": { }, "geometry": { "type": "LineString", "coordinates": [ [ 566675.351391267031431, 4195054.114276541396976 ], [ 566476.974208047846332, 4195259.838762843050063 ] ] } },
{ "type": "Feature", "properties": { }, "geometry": { "type": "LineString", "coordinates": [ [ 568983.629109588917345, 4195109.219049657694995 ], [ 568315.024529109476134, 4195214.530393836088479 ] ] } },
{ "type": "Feature", "properties": { }, "geometry": { "type": "LineString", "coordinates": [ [ 569390.179880136856809, 4195096.973544520325959 ], [ 568748.515410958789289, 4195175.344777397811413 ] ] } },
{ "type": "Feature", "properties": { }, "geometry": { "type": "LineString", "coordinates": [ [ 568790.150128424516879, 4195381.069263698533177 ], [ 568158.282063356018625, 4195491.27880993206054 ] ] } },
{ "type": "Feature", "properties": { }, "geometry": { "type": "LineString", "coordinates": [ [ 567161.497945205424912, 4194935.332876712083817 ], [ 566737.803467465681024, 4195123.91365582216531 ] ] } },
{ "type": "Feature", "properties": { }, "geometry": { "type": "LineString", "coordinates": [ [ 567550.905008561559953, 4195011.25500856153667 ], [ 567078.228510273853317, 4195165.548373287543654 ] ] } },
{ "type": "Feature", "properties": { }, "geometry": { "type": "LineString", "coordinates": [ [ 570284.101755136740394, 4195709.248801370151341 ], [ 569911.783283461118117, 4195898.853497797623277 ] ] } },
{ "type": "Feature", "properties": { }, "geometry": { "type": "LineString", "coordinates": [ [ 570284.101755136740394, 4195772.925428082235157 ], [ 569907.965747693669982, 4195962.249488350003958 ] ] } },
{ "type": "Feature", "properties": { }, "geometry": { "type": "LineString", "coordinates": [ [ 570088.173672945005819, 4195540.260830479674041 ], [ 569717.226169547066092, 4195686.036051776260138 ] ] } },
{ "type": "Feature", "properties": { }, "geometry": { "type": "LineString", "coordinates": [ [ 570149.401198629988357, 4195581.895547945052385 ], [ 569805.652080475003459, 4195741.546333960257471 ] ] } },
{ "type": "Feature", "properties": { }, "geometry": { "type": "LineString", "coordinates": [ [ 570063.682662671082653, 4195491.278809931129217 ], [ 569665.881507950485684, 4195634.270532296970487 ] ] } },
{ "type": "Feature", "properties": { }, "geometry": { "type": "LineString", "coordinates": [ [ 570332.250541273271665, 4196238.568022436462343 ], [ 569955.091382037382573, 4196170.478487783111632 ] ] } },
{ "type": "Feature", "properties": { }, "geometry": { "type": "LineString", "coordinates": [ [ 570405.342354070860893, 4196269.576670289970934 ], [ 570022.164062738185748, 4196176.550726729445159 ] ] } },
{ "type": "Feature", "properties": { }, "geometry": { "type": "LineString", "coordinates": [ [ 568768.528728088946082, 4195044.735080075450242 ], [ 568046.47021378565114, 4195128.901409964077175 ] ] } },
{ "type": "Feature", "properties": { }, "geometry": { "type": "LineString", "coordinates": [ [ 566378.647939950111322, 4195314.953297084197402 ], [ 565891.369187966338359, 4195609.535451692529023 ] ] } },
{ "type": "Feature", "properties": { }, "geometry": { "type": "LineString", "coordinates": [ [ 564857.009291709749959, 4196001.573356696404517 ], [ 564283.349306419724599, 4196207.559374581091106 ] ] } },
{ "type": "Feature", "properties": { }, "geometry": { "type": "LineString", "coordinates": [ [ 563962.188310794066638, 4196338.238676249049604 ], [ 563585.654729715664871, 4196437.90933006349951 ] ] } },
{ "type": "Feature", "properties": { }, "geometry": { "type": "LineString", "coordinates": [ [ 565342.073140275548212, 4196251.85744294244796 ], [ 564817.141030183876865, 4196511.001142861321568 ] ] } },
{ "type": "Feature", "properties": { }, "geometry": { "type": "LineString", "coordinates": [ [ 562775.000078688142821, 4195999.358453278429806 ], [ 562956.62215897301212, 4195893.043089209124446 ] ] } },
{ "type": "Feature", "properties": { }, "geometry": { "type": "LineString", "coordinates": [ [ 561308.734015900408849, 4194716.929374192841351 ], [ 561364.106601353152655, 4193930.638660764787346 ] ] } },
{ "type": "Feature", "properties": { }, "geometry": { "type": "LineString", "coordinates": [ [ 560611.039439196349122, 4195664.908037143759429 ], [ 560732.859127192292362, 4194834.319255352951586 ] ] } },
{ "type": "Feature", "properties": { }, "geometry": { "type": "LineString", "coordinates": [ [ 562755.065947925089858, 4196382.536744611337781 ], [ 562868.026022248668596, 4196400.255971956066787 ] ] } },
{ "type": "Feature", "properties": { }, "geometry": { "type": "LineString", "coordinates": [ [ 565259.014262096490711, 4195849.852472556754947 ], [ 564687.569180224556476, 4196124.500496402382851 ] ] } },
{ "type": "Feature", "properties": { }, "geometry": { "type": "LineString", "coordinates": [ [ 571487.322673816583119, 4195570.774641873314977 ], [ 570984.53959790605586, 4195648.296261507086456 ] ] } },
{ "type": "Feature", "properties": { }, "geometry": { "type": "LineString", "coordinates": [ [ 571403.156343928538263, 4195730.247687976807356 ], [ 570931.381915871519595, 4195710.313557214103639 ] ] } }
]
}
