{
"type": "FeatureCollection",
"name": "20181022_091141_0e20_3B_AnalyticMS_clip",
"crs": { "type": "name", "properties": { "name": "urn:ogc:def:crs:OGC:1.3:CRS84" } },
"features": [
{ "type": "Feature", "geometry": { "type": "LineString", "coordinates": [ [ 0.0, 0.0 ], [ 1.0, 1.0 ] ] } },
{ "type": "Feature", "properties": { }, "geometry": { "type": "LineString", "coordinates": [ [ 575436.680346460547298, 4196846.791226319037378 ], [ 574833.319516450632364, 4197006.300411264412105 ] ] } },
{ "type": "Feature", "properties": { }, "geometry": { "type": "LineString", "coordinates": [ [ 575235.560069790575653, 4196705.775859918445349 ], [ 574680.745513459551148, 4196853.726408272981644 ] ] } },
{ "type": "Feature", "properties": { }, "geometry": { "type": "LineString", "coordinates": [ [ 575549.954985044780187, 4196553.201856927014887 ], [ 575002.075610667932779, 4196749.698678961023688 ] ] } },
{ "type": "Feature", "properties": { }, "geometry": { "type": "LineString", "coordinates": [ [ 574509.67769192403648, 4194777.795276666991413 ], [ 574375.597507477388717, 4194893.381642568856478 ] ] } },
{ "type": "Feature", "properties": { }, "geometry": { "type": "LineString", "coordinates": [ [ 575230.936615154379979, 4194761.613185440190136 ], [ 575101.479885343811475, 4194840.21191425435245 ] ] } },
{ "type": "Feature", "properties": { }, "geometry": { "type": "LineString", "coordinates": [ [ 574953.529336988809519, 4195408.896834493614733 ], [ 574824.072607178241014, 4195517.548018441535532 ] ] } },
{ "type": "Feature", "properties": { }, "geometry": { "type": "LineString", "coordinates": [ [ 574070.449501495226286, 4194784.730458620935678 ], [ 573890.134770687669516, 4194948.86309820227325 ] ] } },
{ "type": "Feature", "properties": { }, "geometry": { "type": "LineString", "coordinates": [ [ 573998.785954635823146, 4194720.002093715593219 ], [ 573806.912587238010019, 4194898.005097204819322 ] ] } },
{ "type": "Feature", "properties": { }, "geometry": { "type": "LineString", "coordinates": [ [ 574340.92159770661965, 4194701.508275171741843 ], [ 574165.230321535142139, 4194814.782913755625486 ] ] } },
{ "type": "Feature", "properties": { }, "geometry": { "type": "LineString", "coordinates": [ [ 574299.310505981789902, 4194683.014456626959145 ], [ 574118.995775174233131, 4194791.665640574879944 ] ] } },
{ "type": "Feature", "properties": { }, "geometry": { "type": "LineString", "coordinates": [ [ 574396.403053339803591, 4194722.313821033574641 ], [ 574262.322868893039413, 4194837.900186936371028 ] ] } },
{ "type": "Feature", "properties": { }, "geometry": { "type": "LineString", "coordinates": [ [ 572325.095376370358281, 4195173.100648053921759 ], [ 571978.336278663482517, 4195300.245650546625257 ] ] } },
{ "type": "Feature", "properties": { }, "geometry": { "type": "LineString", "coordinates": [ [ 570138.201333498698659, 4195730.22693170234561 ], [ 569911.652056330232881, 4195898.983025919646025 ] ] } },
{ "type": "Feature", "properties": { }, "geometry": { "type": "LineString", "coordinates": [ [ 570145.136515452875756, 4195790.331841971725225 ], [ 569907.028601694153622, 4195963.711390824988484 ] ] } },
{ "type": "Feature", "properties": { }, "geometry": { "type": "LineString", "coordinates": [ [ 570189.059334495803341, 4196238.806941672228277 ], [ 569953.263148055062629, 4196169.455122130922973 ] ] } },
{ "type": "Feature", "properties": { }, "geometry": { "type": "LineString", "coordinates": [ [ 570017.991512960405089, 4195596.146747255697846 ], [ 569805.312599700177088, 4195741.785568292252719 ] ] } },
{ "type": "Feature", "properties": { }, "geometry": { "type": "LineString", "coordinates": [ [ 569948.63969341898337, 4195556.847382849082351 ], [ 569719.330458956770599, 4195685.615193894132972 ] ] } },
{ "type": "Feature", "properties": { }, "geometry": { "type": "LineString", "coordinates": [ [ 569904.716874376055785, 4195499.054199897684157 ], [ 569664.198076422675513, 4195635.533105943351984 ] ] } },
{ "type": "Feature", "properties": { }, "geometry": { "type": "LineString", "coordinates": [ [ 577799.26566550321877, 4195945.217572278343141 ], [ 577517.234932701685466, 4196021.50457377359271 ] ] } },
{ "type": "Feature", "properties": { }, "geometry": { "type": "LineString", "coordinates": [ [ 577644.379935194156133, 4196030.751483046449721 ], [ 577360.037475074524991, 4196125.532303086481988 ] ] } },
{ "type": "Feature", "properties": { }, "geometry": { "type": "LineString", "coordinates": [ [ 577554.222569790435955, 4196016.881119137629867 ], [ 577267.568382352706976, 4196067.739120135083795 ] ] } },
{ "type": "Feature", "properties": { }, "geometry": { "type": "LineString", "coordinates": [ [ 577366.972657028702088, 4195096.813646555878222 ], [ 577394.713384845177643, 4195032.085281650535762 ] ] } },
{ "type": "Feature", "properties": { }, "geometry": { "type": "LineString", "coordinates": [ [ 577607.392298105405644, 4194969.668644063174725 ], [ 577658.250299102510326, 4194895.693369885906577 ] ] } },
{ "type": "Feature", "properties": { }, "geometry": { "type": "LineString", "coordinates": [ [ 577496.429386839270592, 4194995.097644561901689 ], [ 577531.105296609923244, 4194925.745825020596385 ] ] } },
{ "type": "Feature", "properties": { }, "geometry": { "type": "LineString", "coordinates": [ [ 579396.231440763687715, 4196578.731303242966533 ], [ 578802.434103586245328, 4196763.244600106030703 ] ] } },
{ "type": "Feature", "properties": { }, "geometry": { "type": "LineString", "coordinates": [ [ 580162.800319549394771, 4196260.02651775162667 ], [ 579662.937024411279708, 4196446.217208222486079 ] ] } },
{ "type": "Feature", "properties": { }, "geometry": { "type": "LineString", "coordinates": [ [ 580521.762551628402434, 4196135.899390770122409 ], [ 580194.670798098435625, 4196275.123060221783817 ] ] } },
{ "type": "Feature", "properties": { }, "geometry": { "type": "LineString", "coordinates": [ [ 578893.556637466885149, 4197269.412459180690348 ], [ 578181.249227326596156, 4197426.919378254562616 ] ] } },
{ "type": "Feature", "properties": { }, "geometry": { "type": "LineString", "coordinates": [ [ 579168.60603346163407, 4197236.500565643422306 ], [ 578439.842676552478224, 4197299.973503179848194 ] ] } },
{ "type": "Feature", "properties": { }, "geometry": { "type": "LineString", "coordinates": [ [ 579279.095961767248809, 4196961.451169648207724 ], [ 578738.400567931355909, 4197135.414035490714014 ] ] } },
{ "type": "Feature", "properties": { }, "geometry": { "type": "LineString", "coordinates": [ [ 580068.981406675302424, 4196289.108201661147177 ], [ 579542.391110069933347, 4196439.562572119757533 ] ] } },
{ "type": "Feature", "properties": { }, "geometry": { "type": "LineString", "coordinates": [ [ 579481.269022071035579, 4195492.170208137482405 ], [ 579262.640014998381957, 4195626.168631827458739 ] ] } },
{ "type": "Feature", "properties": { }, "geometry": { "type": "LineString", "coordinates": [ [ 579337.867200227687135, 4195508.626154906116426 ], [ 579126.290741770179011, 4195560.344844751991332 ] ] } },
{ "type": "Feature", "properties": { }, "geometry": { "type": "LineString", "coordinates": [ [ 577337.294243035139516, 4195412.241323829628527 ], [ 577334.943393496796489, 4195381.680279830470681 ] ] } },
{ "type": "Feature", "properties": { }, "geometry": { "type": "LineString", "coordinates": [ [ 577323.189145804732107, 4195351.119235831312835 ], [ 577358.451888880925253, 4195287.646298293955624 ] ] } },
{ "type": "Feature", "properties": { }, "geometry": { "type": "LineString", "coordinates": [ [ 577224.453465191181749, 4195294.698846909217536 ], [ 577257.365358729031868, 4195210.068263526074588 ] ] } },
{ "type": "Feature", "properties": { }, "geometry": { "type": "LineString", "coordinates": [ [ 577906.199831331963651, 4195381.680279830470681 ], [ 577791.008203949546441, 4195362.873483522795141 ] ] } },
{ "type": "Feature", "properties": { }, "geometry": { "type": "LineString", "coordinates": [ [ 577993.181264253449626, 4195358.171784446574748 ], [ 577877.989636871032417, 4195306.453094601631165 ] ] } },
{ "type": "Feature", "properties": { }, "geometry": { "type": "LineString", "coordinates": [ [ 578068.408449482754804, 4195344.066687216050923 ], [ 577950.865972561878152, 4195257.085254294797778 ] ] } },
{ "type": "Feature", "properties": { }, "geometry": { "type": "LineString", "coordinates": [ [ 578677.278479932690971, 4195313.505643216893077 ], [ 578837.136248545022681, 4195214.769962603226304 ] ] } },
{ "type": "Feature", "properties": { }, "geometry": { "type": "LineString", "coordinates": [ [ 573874.49287294736132, 4195125.437680142000318 ], [ 573735.792750180698931, 4195240.629307524301112 ] ] } },
{ "type": "Feature", "properties": { }, "geometry": { "type": "LineString", "coordinates": [ [ 574673.781716009019874, 4194960.878212452866137 ], [ 574570.344336318667047, 4195040.807096758857369 ] ] } },
{ "type": "Feature", "properties": { }, "geometry": { "type": "LineString", "coordinates": [ [ 574481.012053858838044, 4194927.966318915598094 ], [ 574396.381470475811511, 4195012.59690229780972 ] ] } },
{ "type": "Feature", "properties": { }, "geometry": { "type": "LineString", "coordinates": [ [ 575127.495676923426799, 4194789.266196148470044 ], [ 574930.0243156964425, 4194864.493381378240883 ] ] } },
{ "type": "Feature", "properties": { }, "geometry": { "type": "LineString", "coordinates": [ [ 574845.393732313415967, 4194763.406851226463914 ], [ 574744.307202161522582, 4194843.335735532455146 ] ] } },
{ "type": "Feature", "properties": { }, "geometry": { "type": "LineString", "coordinates": [ [ 577233.856863344786689, 4196227.986113660037518 ], [ 576787.195451045641676, 4196251.494609044864774 ] ] } },
{ "type": "Feature", "properties": { }, "geometry": { "type": "LineString", "coordinates": [ [ 577123.366935039171949, 4196371.387935503385961 ], [ 576617.93428427958861, 4196411.352377656847239 ] ] } },
{ "type": "Feature", "properties": { }, "geometry": { "type": "LineString", "coordinates": [ [ 576998.7719095031498, 4196500.684660117141902 ], [ 576490.988409205107018, 4196533.596553654409945 ] ] } },
{ "type": "Feature", "properties": { }, "geometry": { "type": "LineString", "coordinates": [ [ 576878.878583043813705, 4196745.173012112267315 ], [ 576338.18318920803722, 4196684.050924113020301 ] ] } },
{ "type": "Feature", "properties": { }, "geometry": { "type": "LineString", "coordinates": [ [ 576864.773485813406296, 4196862.715489032678306 ], [ 576136.01012890425045, 4196879.17143580224365 ] ] } },
{ "type": "Feature", "properties": { }, "geometry": { "type": "LineString", "coordinates": [ [ 575964.398112599737942, 4196547.70165088493377 ], [ 575430.755267379223369, 4196740.4713130351156 ] ] } },
{ "type": "Feature", "properties": { }, "geometry": { "type": "LineString", "coordinates": [ [ 577866.235389178851619, 4197612.636491787619889 ], [ 577172.73477534588892, 4197774.845109938643873 ] ] } },
{ "type": "Feature", "properties": { }, "geometry": { "type": "LineString", "coordinates": [ [ 577664.06232887506485, 4197582.075447788462043 ], [ 576947.053219657973386, 4197699.617924708873034 ] ] } },
{ "type": "Feature", "properties": { }, "geometry": { "type": "LineString", "coordinates": [ [ 577372.556986111332662, 4197377.551537945866585 ], [ 576761.336106123053469, 4197605.583943172357976 ] ] } },
{ "type": "Feature", "properties": { }, "geometry": { "type": "LineString", "coordinates": [ [ 571310.891451304079965, 4195518.02955305762589 ], [ 570995.877613156219013, 4195619.116083209402859 ] ] } },
{ "type": "Feature", "properties": { }, "geometry": { "type": "LineString", "coordinates": [ [ 582363.410556170041673, 4193318.80980986636132 ], [ 582024.888222638051957, 4193083.724856024608016 ] ] } },
{ "type": "Feature", "properties": { }, "geometry": { "type": "LineString", "coordinates": [ [ 582292.885070017538965, 4193215.372430176008493 ], [ 581973.169532792875543, 4192999.094272641465068 ] ] } },
{ "type": "Feature", "properties": { }, "geometry": { "type": "LineString", "coordinates": [ [ 583473.011538302642293, 4195867.130709509365261 ], [ 583068.665417695068754, 4195768.39502889662981 ] ] } },
{ "type": "Feature", "properties": { }, "geometry": { "type": "LineString", "coordinates": [ [ 583344.890238459222019, 4196309.090422731824219 ], [ 582886.474578467896208, 4196405.475253807380795 ] ] } },
{ "type": "Feature", "properties": { }, "geometry": { "type": "LineString", "coordinates": [ [ 581116.284876040183008, 4196628.805959955789149 ], [ 580554.431836358620785, 4196671.121251647360623 ] ] } }
]
}
