{
"type": "FeatureCollection",
"name": "20210430_082515_04_242d_3B_AnalyticMS",
"crs": { "type": "name", "properties": { "name": "urn:ogc:def:crs:OGC:1.3:CRS84" } },
"features": [
{ "type": "Feature", "geometry": { "type": "LineString", "coordinates": [ [ 0.0, 0.0 ], [ 1.0, 1.0 ] ] } },
{ "type": "Feature", "properties": { }, "geometry": { "type": "LineString", "coordinates": [ [ 294825.027269486628938, 4522887.480228135362267 ], [ 294654.190173479029909, 4523143.735872146673501 ] ] } },
{ "type": "Feature", "properties": { }, "geometry": { "type": "LineString", "coordinates": [ [ 295576.710491920064669, 4523420.491967679001391 ], [ 295532.292846958094742, 4523745.082450093701482 ] ] } },
{ "type": "Feature", "properties": { }, "geometry": { "type": "LineString", "coordinates": [ [ 294589.272076996101532, 4522761.060777089558542 ], [ 294384.267561786982697, 4522901.147195816040039 ] ] } },
{ "type": "Feature", "properties": { }, "geometry": { "type": "LineString", "coordinates": [ [ 294380.850819866813254, 4522542.389294199645519 ], [ 294138.262143536005169, 4522644.891551803797483 ] ] } },
{ "type": "Feature", "properties": { }, "geometry": { "type": "LineString", "coordinates": [ [ 295231.619557984697167, 4523222.320936311036348 ], [ 295071.032687737606466, 4523488.826806082390249 ] ] } },
{ "type": "Feature", "properties": { }, "geometry": { "type": "LineString", "coordinates": [ [ 296389.895068916142918, 4518305.62931321002543 ], [ 296943.407259980798699, 4518903.559149236418307 ] ] } },
{ "type": "Feature", "properties": { }, "geometry": { "type": "LineString", "coordinates": [ [ 296311.310004752653185, 4519252.066825091838837 ], [ 296987.824904942768626, 4519925.164983361959457 ] ] } },
{ "type": "Feature", "properties": { }, "geometry": { "type": "LineString", "coordinates": [ [ 297674.590030893392395, 4520355.674465300515294 ], [ 298361.355156843957957, 4521004.855430128984153 ] ] } },
{ "type": "Feature", "properties": { }, "geometry": { "type": "LineString", "coordinates": [ [ 306988.628505227796268, 4520418.884190822951496 ], [ 306904.91832818405237, 4520258.297320575453341 ] ] } },
{ "type": "Feature", "properties": { }, "geometry": { "type": "LineString", "coordinates": [ [ 306952.75271506619174, 4520548.720383788459003 ], [ 306846.83371554146288, 4520215.588046574033797 ] ] } },
{ "type": "Feature", "properties": { }, "geometry": { "type": "LineString", "coordinates": [ [ 307019.379182509088423, 4521554.95087926927954 ], [ 306670.871506653551478, 4521606.202008071355522 ] ] } },
{ "type": "Feature", "properties": { }, "geometry": { "type": "LineString", "coordinates": [ [ 309824.524298953765538, 4516286.334838394075632 ], [ 309903.109363117313478, 4516206.041403270326555 ] ] } },
{ "type": "Feature", "properties": { }, "geometry": { "type": "LineString", "coordinates": [ [ 309824.524298953765538, 4516361.503160637803376 ], [ 309874.067056795989629, 4516301.710177035070956 ] ] } },
{ "type": "Feature", "properties": { }, "geometry": { "type": "LineString", "coordinates": [ [ 309908.234475997509435, 4516373.461757358163595 ], [ 309983.402798240887932, 4516376.878499277867377 ] ] } },
{ "type": "Feature", "properties": { }, "geometry": { "type": "LineString", "coordinates": [ [ 309959.485604799818248, 4516472.547273042611778 ], [ 310068.821346244658343, 4516388.837095999158919 ] ] } },
{ "type": "Feature", "properties": { }, "geometry": { "type": "LineString", "coordinates": [ [ 310234.533329372119624, 4517977.622088868170977 ], [ 310378.036490018537734, 4517671.823687014169991 ] ] } },
{ "type": "Feature", "properties": { }, "geometry": { "type": "LineString", "coordinates": [ [ 310252.471224452776369, 4517099.946508124470711 ], [ 310521.53965066478122, 4516848.815976993180811 ] ] } },
{ "type": "Feature", "properties": { }, "geometry": { "type": "LineString", "coordinates": [ [ 310193.532426330144517, 4516951.318234597332776 ], [ 310490.788973383430857, 4516787.314622430130839 ] ] } },
{ "type": "Feature", "properties": { }, "geometry": { "type": "LineString", "coordinates": [ [ 310221.720547171426006, 4516774.501840230077505 ], [ 310442.100401021249127, 4516666.874469744972885 ] ] } },
{ "type": "Feature", "properties": { }, "geometry": { "type": "LineString", "coordinates": [ [ 310147.406410408089869, 4516633.561236023902893 ], [ 310278.096788853930775, 4516523.371309098787606 ] ] } },
{ "type": "Feature", "properties": { }, "geometry": { "type": "LineString", "coordinates": [ [ 310283.221901734184939, 4517284.450571812689304 ], [ 310529.227319985104259, 4517025.632371361367404 ] ] } },
{ "type": "Feature", "properties": { }, "geometry": { "type": "LineString", "coordinates": [ [ 309891.15076639666222, 4519255.056474260985851 ], [ 310183.282200569694396, 4519221.743240538984537 ] ] } },
{ "type": "Feature", "properties": { }, "geometry": { "type": "LineString", "coordinates": [ [ 310019.278588402376045, 4519542.062795553356409 ], [ 310237.095885812130291, 4519347.308506105095148 ] ] } },
{ "type": "Feature", "properties": { }, "geometry": { "type": "LineString", "coordinates": [ [ 310032.091370602953248, 4519662.502948239445686 ], [ 310114.093176686612424, 4519544.625351993367076 ] ] } },
{ "type": "Feature", "properties": { }, "geometry": { "type": "LineString", "coordinates": [ [ 305714.183769010414835, 4520646.097528502345085 ], [ 306093.442122147302143, 4519990.08307983353734 ] ] } },
{ "type": "Feature", "properties": { }, "geometry": { "type": "LineString", "coordinates": [ [ 305987.523122622573283, 4520065.251402076333761 ], [ 306175.443928230961319, 4519706.493500460870564 ] ] } },
{ "type": "Feature", "properties": { }, "geometry": { "type": "LineString", "coordinates": [ [ 305088.919997622491792, 4518924.059600745327771 ], [ 304894.165708173823077, 4518801.056891619227827 ] ] } },
{ "type": "Feature", "properties": { }, "geometry": { "type": "LineString", "coordinates": [ [ 305796.185575094074011, 4519583.49079133477062 ], [ 305727.850736690976191, 4519183.731986676342785 ] ] } },
{ "type": "Feature", "properties": { }, "geometry": { "type": "LineString", "coordinates": [ [ 305751.767930132045876, 4519535.656404452398419 ], [ 305628.765221006586216, 4519122.230632114224136 ] ] } },
{ "type": "Feature", "properties": { }, "geometry": { "type": "LineString", "coordinates": [ [ 305628.765221006586216, 4519429.737404927611351 ], [ 305519.429479561687913, 4519029.978600270114839 ] ] } },
{ "type": "Feature", "properties": { }, "geometry": { "type": "LineString", "coordinates": [ [ 305379.343060835439246, 4519197.398954357020557 ], [ 305188.005513306939974, 4519166.648277075961232 ] ] } },
{ "type": "Feature", "properties": { }, "geometry": { "type": "LineString", "coordinates": [ [ 305167.505061786039732, 4519234.983115478418767 ], [ 305051.335836500860751, 4519357.985824604518712 ] ] } },
{ "type": "Feature", "properties": { }, "geometry": { "type": "LineString", "coordinates": [ [ 305034.252126900071744, 4519221.316147798672318 ], [ 304924.91638545517344, 4519347.735598843544722 ] ] } },
{ "type": "Feature", "properties": { }, "geometry": { "type": "LineString", "coordinates": [ [ 305222.17293250845978, 4518442.298990004695952 ], [ 304921.499643535062205, 4518315.879538958892226 ] ] } },
{ "type": "Feature", "properties": { }, "geometry": { "type": "LineString", "coordinates": [ [ 305512.595995721407235, 4518322.713022799231112 ], [ 305164.08831986587029, 4518216.794023274444044 ] ] } },
{ "type": "Feature", "properties": { }, "geometry": { "type": "LineString", "coordinates": [ [ 305621.931737166305538, 4517912.70399238076061 ], [ 305164.08831986587029, 4517830.702186297625303 ] ] } },
{ "type": "Feature", "properties": { }, "geometry": { "type": "LineString", "coordinates": [ [ 305686.849833649175707, 4518613.136086012236774 ], [ 305406.676996196678374, 4518387.631119281984866 ] ] } },
{ "type": "Feature", "properties": { }, "geometry": { "type": "LineString", "coordinates": [ [ 305136.754384504631162, 4521537.867169662378728 ], [ 305461.344866919098422, 4521073.19026852119714 ] ] } },
{ "type": "Feature", "properties": { }, "geometry": { "type": "LineString", "coordinates": [ [ 303944.311454371432774, 4523099.318227171897888 ], [ 304371.404194390459452, 4523020.733163008466363 ] ] } },
{ "type": "Feature", "properties": { }, "geometry": { "type": "LineString", "coordinates": [ [ 304012.646292774472386, 4523030.98338876850903 ], [ 304443.155774713668507, 4522942.148098845034838 ] ] } },
{ "type": "Feature", "properties": { }, "geometry": { "type": "LineString", "coordinates": [ [ 305027.418643059732858, 4523481.993322229012847 ], [ 304661.827257603406906, 4523601.579289434477687 ] ] } },
{ "type": "Feature", "properties": { }, "geometry": { "type": "LineString", "coordinates": [ [ 305061.586062261252664, 4523256.488355498760939 ], [ 304689.161192964646034, 4523447.825903027318418 ] ] } }
]
}
