{
"type": "FeatureCollection",
"name": "20210519_081243_46_106c_3B_AnalyticMS",
"crs": { "type": "name", "properties": { "name": "urn:ogc:def:crs:OGC:1.3:CRS84" } },
"features": [
{ "type": "Feature", "geometry": { "type": "LineString", "coordinates": [ [ 0.0, 0.0 ], [ 1.0, 1.0 ] ] } },
{ "type": "Feature", "properties": { }, "geometry": { "type": "LineString", "coordinates": [ [ 642445.577874954673462, 4534353.432645886205137 ], [ 642950.990848521352746, 4534234.185902930796146 ] ] } },
{ "type": "Feature", "properties": { }, "geometry": { "type": "LineString", "coordinates": [ [ 642923.999891075189225, 4534439.045006665401161 ], [ 643455.891149629023857, 4534351.736743177287281 ] ] } },
{ "type": "Feature", "properties": { }, "geometry": { "type": "LineString", "coordinates": [ [ 644407.108141049044207, 4535159.196041457355022 ], [ 645065.111303630052134, 4535070.800916081294417 ] ] } },
{ "type": "Feature", "properties": { }, "geometry": { "type": "LineString", "coordinates": [ [ 643931.204135539592244, 4535164.232062679715455 ], [ 644535.085632089292631, 4535107.890748626552522 ] ] } },
{ "type": "Feature", "properties": { }, "geometry": { "type": "LineString", "coordinates": [ [ 645983.382783635752276, 4535363.154900960624218 ], [ 646620.439468259457499, 4535128.979914122261107 ] ] } },
{ "type": "Feature", "properties": { }, "geometry": { "type": "LineString", "coordinates": [ [ 650880.913422343553975, 4533726.448003704659641 ], [ 650763.261162163573317, 4533381.493643810972571 ] ] } },
{ "type": "Feature", "properties": { }, "geometry": { "type": "LineString", "coordinates": [ [ 650792.783050952944905, 4533567.813335201703012 ], [ 650612.50893955794163, 4533194.848034869879484 ] ] } },
{ "type": "Feature", "properties": { }, "geometry": { "type": "LineString", "coordinates": [ [ 650556.090053503867239, 4533167.449648027308285 ], [ 650364.24635074287653, 4532785.065207550302148 ] ] } },
{ "type": "Feature", "properties": { }, "geometry": { "type": "LineString", "coordinates": [ [ 650583.788170226616785, 4533250.543998195789754 ], [ 650416.291760928113945, 4532910.093836615793407 ] ] } },
{ "type": "Feature", "properties": { }, "geometry": { "type": "LineString", "coordinates": [ [ 649385.215119314030744, 4532872.842406521551311 ], [ 648998.503000709693879, 4532642.089885315857828 ] ] } },
{ "type": "Feature", "properties": { }, "geometry": { "type": "LineString", "coordinates": [ [ 649697.448435098049231, 4533021.405032579787076 ], [ 649299.60275853460189, 4532862.770364076830447 ] ] } },
{ "type": "Feature", "properties": { }, "geometry": { "type": "LineString", "coordinates": [ [ 650150.690345106995665, 4533059.175191747024655 ], [ 649935.320384044083767, 4532896.93292829208076 ] ] } },
{ "type": "Feature", "properties": { }, "geometry": { "type": "LineString", "coordinates": [ [ 649526.223713539075106, 4532744.423865351825953 ], [ 649227.024227040354162, 4532506.891463454812765 ] ] } },
{ "type": "Feature", "properties": { }, "geometry": { "type": "LineString", "coordinates": [ [ 650017.235782715375535, 4532661.329515184275806 ], [ 649488.453554371604696, 4532404.492432845756412 ] ] } },
{ "type": "Feature", "properties": { }, "geometry": { "type": "LineString", "coordinates": [ [ 649045.283686807379127, 4532311.326040232554078 ], [ 648451.033182573388331, 4531933.624448558315635 ] ] } },
{ "type": "Feature", "properties": { }, "geometry": { "type": "LineString", "coordinates": [ [ 648440.961140128667466, 4531523.188718938268721 ], [ 647568.151555272983387, 4531312.239921615459025 ] ] } },
{ "type": "Feature", "properties": { }, "geometry": { "type": "LineString", "coordinates": [ [ 648725.496339189819992, 4531581.10296299494803 ], [ 647894.55283750675153, 4531294.049753323197365 ] ] } },
{ "type": "Feature", "properties": { }, "geometry": { "type": "LineString", "coordinates": [ [ 648113.619760677684098, 4531588.656994828954339 ], [ 647282.676258994615637, 4531503.044634048826993 ] ] } },
{ "type": "Feature", "properties": { }, "geometry": { "type": "LineString", "coordinates": [ [ 644583.368883830262348, 4532678.95558946300298 ], [ 644221.018501666723751, 4532819.612591899931431 ] ] } },
{ "type": "Feature", "properties": { }, "geometry": { "type": "LineString", "coordinates": [ [ 645270.785780677222647, 4532094.777127673849463 ], [ 644608.741851971601136, 4532101.29619787633419 ] ] } },
{ "type": "Feature", "properties": { }, "geometry": { "type": "LineString", "coordinates": [ [ 644784.809732723166235, 4532527.874952793121338 ], [ 644324.013790880679153, 4532706.653706186451018 ] ] } },
{ "type": "Feature", "properties": { }, "geometry": { "type": "LineString", "coordinates": [ [ 645484.816682625911199, 4532296.217976566404104 ], [ 644804.953817612491548, 4532215.641637009568512 ] ] } },
{ "type": "Feature", "properties": { }, "geometry": { "type": "LineString", "coordinates": [ [ 646154.607505194609985, 4532437.226570791564882 ], [ 645640.933340517804027, 4532351.614210012368858 ] ] } },
{ "type": "Feature", "properties": { }, "geometry": { "type": "LineString", "coordinates": [ [ 644253.509493768331595, 4532565.645111960358918 ], [ 643810.339626204106025, 4532694.063653129152954 ] ] } },
{ "type": "Feature", "properties": { }, "geometry": { "type": "LineString", "coordinates": [ [ 643331.917610083473846, 4532724.279780463315547 ], [ 643015.374610259197652, 4532913.309285811148584 ] ] } },
{ "type": "Feature", "properties": { }, "geometry": { "type": "LineString", "coordinates": [ [ 643765.015435203211382, 4532600.89726051595062 ], [ 643422.166322053410113, 4532795.908001341857016 ] ] } },
{ "type": "Feature", "properties": { }, "geometry": { "type": "LineString", "coordinates": [ [ 642818.243445406667888, 4532621.041345405392349 ], [ 642573.996416124049574, 4532757.013918408192694 ] ] } },
{ "type": "Feature", "properties": { }, "geometry": { "type": "LineString", "coordinates": [ [ 651616.802023455617018, 4534490.034721539355814 ], [ 651770.400670736446045, 4534401.904350148513913 ] ] } },
{ "type": "Feature", "properties": { }, "geometry": { "type": "LineString", "coordinates": [ [ 651964.287487795809284, 4534585.719124763272703 ], [ 652135.512209354783408, 4534575.647082318551838 ] ] } },
{ "type": "Feature", "properties": { }, "geometry": { "type": "LineString", "coordinates": [ [ 652759.559172487468459, 4534875.710013483650982 ], [ 652643.311015938874334, 4534943.27663154900074 ] ] } },
{ "type": "Feature", "properties": { }, "geometry": { "type": "LineString", "coordinates": [ [ 652584.977103446959518, 4535007.905570570379496 ], [ 652391.325343998614699, 4535155.374707631766796 ] ] } },
{ "type": "Feature", "properties": { }, "geometry": { "type": "LineString", "coordinates": [ [ 652492.650047704344615, 4535064.980477756820619 ], [ 652262.258708970039152, 4535261.559308872558177 ] ] } },
{ "type": "Feature", "properties": { }, "geometry": { "type": "LineString", "coordinates": [ [ 652025.978747769258916, 4534965.938727051019669 ], [ 652125.020498474827036, 4534880.326366271823645 ] ] } },
{ "type": "Feature", "properties": { }, "geometry": { "type": "LineString", "coordinates": [ [ 663435.924163809861057, 4540008.67464433517307 ], [ 663136.608766384539194, 4539887.020361197181046 ] ] } },
{ "type": "Feature", "properties": { }, "geometry": { "type": "LineString", "coordinates": [ [ 662908.820609206915833, 4540216.830188191495836 ], [ 662702.897014840738848, 4540150.836750756949186 ] ] } }
]
}
