{
"type": "FeatureCollection",
"name": "20210519_081241_94_106c_3B_AnalyticMS",
"crs": { "type": "name", "properties": { "name": "urn:ogc:def:crs:OGC:1.3:CRS84" } },
"features": [
{ "type": "Feature", "geometry": { "type": "LineString", "coordinates": [ [ 0.0, 0.0 ], [ 1.0, 1.0 ] ] } },
{ "type": "Feature", "properties": { }, "geometry": { "type": "LineString", "coordinates": [ [ 653483.877747980179265, 4527197.462151935324073 ], [ 652482.269082656945102, 4527144.304150144569576 ] ] } },
{ "type": "Feature", "properties": { }, "geometry": { "type": "LineString", "coordinates": [ [ 653962.299764098250307, 4527113.528464896604419 ], [ 652923.818685812409967, 4527075.698665829375386 ] ] } },
{ "type": "Feature", "properties": { }, "geometry": { "type": "LineString", "coordinates": [ [ 654074.211346815922298, 4527001.616882178932428 ], [ 652990.221450531273149, 4526985.965199992991984 ] ] } },
{ "type": "Feature", "properties": { }, "geometry": { "type": "LineString", "coordinates": [ [ 653945.513026690576226, 4526982.032355203293264 ], [ 652876.970339106745087, 4526929.096616025082767 ] ] } },
{ "type": "Feature", "properties": { }, "geometry": { "type": "LineString", "coordinates": [ [ 654731.691895282361656, 4527074.35941094532609 ], [ 653388.752902670181356, 4527116.326254464685917 ] ] } },
{ "type": "Feature", "properties": { }, "geometry": { "type": "LineString", "coordinates": [ [ 654463.104096759925596, 4527110.730675328522921 ], [ 653239.493541086092591, 4527131.296025710180402 ] ] } },
{ "type": "Feature", "properties": { }, "geometry": { "type": "LineString", "coordinates": [ [ 653156.536368530942127, 4527552.781427063979208 ], [ 652255.648127653636038, 4527488.432267000898719 ] ] } },
{ "type": "Feature", "properties": { }, "geometry": { "type": "LineString", "coordinates": [ [ 652443.100028705783188, 4527737.43553854804486 ], [ 651550.605156532255933, 4527698.266484596766531 ] ] } },
{ "type": "Feature", "properties": { }, "geometry": { "type": "LineString", "coordinates": [ [ 651399.524519863305613, 4527219.844468479044735 ], [ 650406.309223243966699, 4527021.201409154571593 ] ] } },
{ "type": "Feature", "properties": { }, "geometry": { "type": "LineString", "coordinates": [ [ 651010.63176991941873, 4526861.727403782308102 ], [ 649927.887207125779241, 4526484.025812109932303 ] ] } },
{ "type": "Feature", "properties": { }, "geometry": { "type": "LineString", "coordinates": [ [ 650558.089307304588147, 4533165.846747752279043 ], [ 650362.244037548545748, 4532783.948471727780998 ] ] } },
{ "type": "Feature", "properties": { }, "geometry": { "type": "LineString", "coordinates": [ [ 650692.383206565747969, 4533370.08538621198386 ], [ 650467.161146346479654, 4533065.126323306001723 ] ] } },
{ "type": "Feature", "properties": { }, "geometry": { "type": "LineString", "coordinates": [ [ 650144.016451249131933, 4533072.120797226205468 ], [ 649934.182233653496951, 4532894.461159661412239 ] ] } },
{ "type": "Feature", "properties": { }, "geometry": { "type": "LineString", "coordinates": [ [ 650779.114683171967044, 4533564.531761183403432 ], [ 650609.84841431141831, 4533192.42574864719063 ] ] } },
{ "type": "Feature", "properties": { }, "geometry": { "type": "LineString", "coordinates": [ [ 650881.234002401819453, 4533662.454396061599255 ], [ 650756.732366628479213, 4533274.960540901869535 ] ] } },
{ "type": "Feature", "properties": { }, "geometry": { "type": "LineString", "coordinates": [ [ 650881.234002401819453, 4533744.98918831627816 ], [ 650762.327945764292963, 4533379.87764969933778 ] ] } },
{ "type": "Feature", "properties": { }, "geometry": { "type": "LineString", "coordinates": [ [ 650611.247309095459059, 4533245.58375043887645 ], [ 650416.800934123457409, 4532908.45010750181973 ] ] } },
{ "type": "Feature", "properties": { }, "geometry": { "type": "LineString", "coordinates": [ [ 648437.364814804284833, 4531527.740955721586943 ], [ 647567.252259174361825, 4531312.311158989556134 ] ] } },
{ "type": "Feature", "properties": { }, "geometry": { "type": "LineString", "coordinates": [ [ 649522.907167165772989, 4532739.183838640339673 ], [ 649226.341472963918932, 4532506.967304500751197 ] ] } },
{ "type": "Feature", "properties": { }, "geometry": { "type": "LineString", "coordinates": [ [ 649378.821004416793585, 4532869.281053549610078 ], [ 648996.922728392761201, 4532639.862308978103101 ] ] } },
{ "type": "Feature", "properties": { }, "geometry": { "type": "LineString", "coordinates": [ [ 644401.087064786697738, 4535169.996674919500947 ], [ 645064.163192389532924, 4535070.675145258195698 ] ] } },
{ "type": "Feature", "properties": { }, "geometry": { "type": "LineString", "coordinates": [ [ 643935.72139998502098, 4535165.799990568310022 ], [ 644536.313560570590198, 4535107.979006163775921 ] ] } },
{ "type": "Feature", "properties": { }, "geometry": { "type": "LineString", "coordinates": [ [ 642939.708313796552829, 4534436.509509856812656 ], [ 643458.231980389100499, 4534350.710629773326218 ] ] } },
{ "type": "Feature", "properties": { }, "geometry": { "type": "LineString", "coordinates": [ [ 642467.814473336446099, 4534354.441015864722431 ], [ 642950.899472068296745, 4534233.203467920422554 ] ] } },
{ "type": "Feature", "properties": { }, "geometry": { "type": "LineString", "coordinates": [ [ 643265.184500200673938, 4532719.599311660043895 ], [ 643015.248632130911574, 4532913.579388370737433 ] ] } },
{ "type": "Feature", "properties": { }, "geometry": { "type": "LineString", "coordinates": [ [ 643753.86507806845475, 4532611.418115032836795 ], [ 643421.860716005670838, 4532796.072226516902447 ] ] } },
{ "type": "Feature", "properties": { }, "geometry": { "type": "LineString", "coordinates": [ [ 652499.755267465021461, 4535061.349180029705167 ], [ 652261.943154189735651, 4535261.857432398945093 ] ] } },
{ "type": "Feature", "properties": { }, "geometry": { "type": "LineString", "coordinates": [ [ 652577.160778844845481, 4535005.393388670869172 ], [ 652391.574070837814361, 4535156.474025339819491 ] ] } },
{ "type": "Feature", "properties": { }, "geometry": { "type": "LineString", "coordinates": [ [ 652529.598356189788319, 4534953.167983402498066 ], [ 652315.101155980606563, 4535144.350270546041429 ] ] } },
{ "type": "Feature", "properties": { }, "geometry": { "type": "LineString", "coordinates": [ [ 652751.556328580132686, 4534874.829875499941409 ], [ 652642.442535430192947, 4534949.437597312033176 ] ] } },
{ "type": "Feature", "properties": { }, "geometry": { "type": "LineString", "coordinates": [ [ 652023.198444389505312, 4534989.072949525900185 ], [ 652074.957551396684721, 4535039.433161748573184 ] ] } },
{ "type": "Feature", "properties": { }, "geometry": { "type": "LineString", "coordinates": [ [ 662898.206495029153302, 4540219.5405468121171 ], [ 662699.563435704330914, 4540149.595807613804936 ] ] } },
{ "type": "Feature", "properties": { }, "geometry": { "type": "LineString", "coordinates": [ [ 663438.179881644318812, 4540001.312960512004793 ], [ 663136.01860830525402, 4539886.603588225319982 ] ] } },
{ "type": "Feature", "properties": { }, "geometry": { "type": "LineString", "coordinates": [ [ 667145.251059183385223, 4525484.981787179596722 ], [ 666770.627188226906583, 4525240.462344758212566 ] ] } },
{ "type": "Feature", "properties": { }, "geometry": { "type": "LineString", "coordinates": [ [ 664963.674643570790067, 4525554.227078986354172 ], [ 664593.095083935419098, 4525393.607459786348045 ] ] } },
{ "type": "Feature", "properties": { }, "geometry": { "type": "LineString", "coordinates": [ [ 665067.192857585148886, 4525522.052498955279589 ], [ 664733.079290639841929, 4525348.142503762617707 ] ] } },
{ "type": "Feature", "properties": { }, "geometry": { "type": "LineString", "coordinates": [ [ 665183.301124655175954, 4525446.512180619873106 ], [ 664860.156429556431249, 4525229.683489103801548 ] ] } },
{ "type": "Feature", "properties": { }, "geometry": { "type": "LineString", "coordinates": [ [ 665012.635961010004394, 4525351.387335309758782 ], [ 664798.605059061432257, 4525271.650332623161376 ] ] } },
{ "type": "Feature", "properties": { }, "geometry": { "type": "LineString", "coordinates": [ [ 662968.850681619136594, 4524853.380792212672532 ], [ 661871.778176662744954, 4524637.752565896138549 ] ] } },
{ "type": "Feature", "properties": { }, "geometry": { "type": "LineString", "coordinates": [ [ 663417.895907275844365, 4524980.680217554792762 ], [ 662374.883808452403173, 4524691.592645398341119 ] ] } },
{ "type": "Feature", "properties": { }, "geometry": { "type": "LineString", "coordinates": [ [ 662205.753576959483325, 4524474.979753147810698 ], [ 661402.787970956531353, 4524323.899116478860378 ] ] } },
{ "type": "Feature", "properties": { }, "geometry": { "type": "LineString", "coordinates": [ [ 662583.455168633372523, 4524508.55322796292603 ], [ 661653.190137288765982, 4524394.543303068727255 ] ] } },
{ "type": "Feature", "properties": { }, "geometry": { "type": "LineString", "coordinates": [ [ 664071.179771393421106, 4524414.127830043435097 ], [ 663678.090337095898576, 4524521.842728409916162 ] ] } },
{ "type": "Feature", "properties": { }, "geometry": { "type": "LineString", "coordinates": [ [ 663957.869293891359121, 4524415.526724827475846 ], [ 663532.605279562296346, 4524509.252675354480743 ] ] } },
{ "type": "Feature", "properties": { }, "geometry": { "type": "LineString", "coordinates": [ [ 662831.758992789546028, 4524854.779686997644603 ], [ 661718.633061634842306, 4524640.74368142336607 ] ] } },
{ "type": "Feature", "properties": { }, "geometry": { "type": "LineString", "coordinates": [ [ 657941.922275396995246, 4523347.470557262189686 ], [ 656700.961985735804774, 4523340.730095113627613 ] ] } },
{ "type": "Feature", "properties": { }, "geometry": { "type": "LineString", "coordinates": [ [ 657909.747695365571417, 4523243.952343247830868 ], [ 656683.015292568597943, 4523258.17530654463917 ] ] } },
{ "type": "Feature", "properties": { }, "geometry": { "type": "LineString", "coordinates": [ [ 657892.96095795778092, 4523505.545667851343751 ], [ 656656.693475923268124, 4523530.965042687021196 ] ] } },
{ "type": "Feature", "properties": { }, "geometry": { "type": "LineString", "coordinates": [ [ 657677.53116122528445, 4523670.615252360701561 ], [ 656484.405221516848542, 4523705.047966405749321 ] ] } },
{ "type": "Feature", "properties": { }, "geometry": { "type": "LineString", "coordinates": [ [ 658074.853770326590165, 4523889.836836298927665 ], [ 656918.715196164790541, 4523956.301670747809112 ] ] } },
{ "type": "Feature", "properties": { }, "geometry": { "type": "LineString", "coordinates": [ [ 658155.953177345567383, 4523870.657206469215453 ], [ 657009.645108212251216, 4523931.176300313323736 ] ] } },
{ "type": "Feature", "properties": { }, "geometry": { "type": "LineString", "coordinates": [ [ 658743.488986616022885, 4524063.704686658456922 ], [ 657825.023201112169772, 4524136.96504863165319 ] ] } },
{ "type": "Feature", "properties": { }, "geometry": { "type": "LineString", "coordinates": [ [ 658591.009455162566155, 4524168.621795456856489 ], [ 657760.564661486423574, 4524235.970972604118288 ] ] } },
{ "type": "Feature", "properties": { }, "geometry": { "type": "LineString", "coordinates": [ [ 658571.424928186926991, 4524452.597436604090035 ], [ 657623.571570310625248, 4524473.166433963924646 ] ] } },
{ "type": "Feature", "properties": { }, "geometry": { "type": "LineString", "coordinates": [ [ 658428.737660221173428, 4524491.766490556299686 ], [ 657418.081933546462096, 4524495.824134085327387 ] ] } },
{ "type": "Feature", "properties": { }, "geometry": { "type": "LineString", "coordinates": [ [ 658884.777359797619283, 4524192.403006784617901 ], [ 657974.096855428419076, 4524146.239478913135827 ] ] } },
{ "type": "Feature", "properties": { }, "geometry": { "type": "LineString", "coordinates": [ [ 659132.381736561655998, 4524701.600708152167499 ], [ 658193.723336512921378, 4524609.273652410134673 ] ] } },
{ "type": "Feature", "properties": { }, "geometry": { "type": "LineString", "coordinates": [ [ 654381.735050174873322, 4522438.18894767574966 ], [ 653182.51279030344449, 4522374.599779613316059 ] ] } },
{ "type": "Feature", "properties": { }, "geometry": { "type": "LineString", "coordinates": [ [ 653420.694333582534455, 4522545.903846043162048 ], [ 652158.354833555757068, 4522493.347066069953144 ] ] } },
{ "type": "Feature", "properties": { }, "geometry": { "type": "LineString", "coordinates": [ [ 653206.663431634078734, 4522411.609946780838072 ], [ 651938.208730704034679, 4522346.184182099066675 ] ] } },
{ "type": "Feature", "properties": { }, "geometry": { "type": "LineString", "coordinates": [ [ 653675.293184266425669, 4522856.458488086238503 ], [ 652490.966880255728029, 4522769.726140846498311 ] ] } },
{ "type": "Feature", "properties": { }, "geometry": { "type": "LineString", "coordinates": [ [ 654171.900832578307018, 4523690.19977933447808 ], [ 652999.627003605477512, 4523617.457250568084419 ] ] } },
{ "type": "Feature", "properties": { }, "geometry": { "type": "LineString", "coordinates": [ [ 653892.121875782846473, 4523680.407515847124159 ], [ 652739.154691184870899, 4523610.304382062517107 ] ] } },
{ "type": "Feature", "properties": { }, "geometry": { "type": "LineString", "coordinates": [ [ 654170.501937794382684, 4523772.734571589156985 ], [ 653051.386110612540506, 4523669.216357574798167 ] ] } },
{ "type": "Feature", "properties": { }, "geometry": { "type": "LineString", "coordinates": [ [ 653009.419267093297094, 4524177.015164159238338 ], [ 651776.992962409276515, 4524102.873740608803928 ] ] } },
{ "type": "Feature", "properties": { }, "geometry": { "type": "LineString", "coordinates": [ [ 654636.333900858648121, 4524406.433908730745316 ], [ 653350.749594383640215, 4524276.336693820543587 ] ] } },
{ "type": "Feature", "properties": { }, "geometry": { "type": "LineString", "coordinates": [ [ 654047.399196804268286, 4524238.56653465423733 ], [ 652922.584850927698426, 4524075.048957208171487 ] ] } },
{ "type": "Feature", "properties": { }, "geometry": { "type": "LineString", "coordinates": [ [ 654108.950567299383692, 4525220.590673007071018 ], [ 652841.551893015857786, 4525182.820513837970793 ] ] } },
{ "type": "Feature", "properties": { }, "geometry": { "type": "LineString", "coordinates": [ [ 654176.097516930196434, 4525413.638153194449842 ], [ 652950.402225337456912, 4525418.658052334561944 ] ] } },
{ "type": "Feature", "properties": { }, "geometry": { "type": "LineString", "coordinates": [ [ 654276.817941376473755, 4525447.211628010496497 ], [ 653045.818810677155852, 4525447.970984507352114 ] ] } },
{ "type": "Feature", "properties": { }, "geometry": { "type": "LineString", "coordinates": [ [ 654071.180408131913282, 4525378.66578359529376 ], [ 652830.36073474411387, 4525363.277940971776843 ] ] } },
{ "type": "Feature", "properties": { }, "geometry": { "type": "LineString", "coordinates": [ [ 653973.257773253484629, 4525360.480151403695345 ], [ 652750.623732057400048, 4525336.698940075933933 ] ] } },
{ "type": "Feature", "properties": { }, "geometry": { "type": "LineString", "coordinates": [ [ 651966.543205638416111, 4521412.09962363075465 ], [ 650487.218588132061996, 4521259.511910821311176 ] ] } },
{ "type": "Feature", "properties": { }, "geometry": { "type": "LineString", "coordinates": [ [ 651619.61729921202641, 4521321.171462672762573 ], [ 650121.106047520996071, 4521138.670843495987356 ] ] } },
{ "type": "Feature", "properties": { }, "geometry": { "type": "LineString", "coordinates": [ [ 651837.844885512487963, 4521452.667572366073728 ], [ 650387.913552606827579, 4521311.557321006432176 ] ] } },
{ "type": "Feature", "properties": { }, "geometry": { "type": "LineString", "coordinates": [ [ 651877.013939463882707, 4521379.925043599680066 ], [ 650381.595415392192081, 4521230.243301713839173 ] ] } },
{ "type": "Feature", "properties": { }, "geometry": { "type": "LineString", "coordinates": [ [ 651738.523355850134976, 4521346.351568783633411 ], [ 650287.86946486576926, 4521203.664300817996264 ] ] } },
{ "type": "Feature", "properties": { }, "geometry": { "type": "LineString", "coordinates": [ [ 651595.836087884497829, 4521372.930569679476321 ], [ 650132.592143844347447, 4521238.636670418083668 ] ] } },
{ "type": "Feature", "properties": { }, "geometry": { "type": "LineString", "coordinates": [ [ 649581.427598956972361, 4524615.568678941577673 ], [ 648101.396917509147897, 4524383.352144801057875 ] ] } },
{ "type": "Feature", "properties": { }, "geometry": { "type": "LineString", "coordinates": [ [ 649844.419818344758824, 4524734.474735579453409 ], [ 648375.580295168678276, 4524465.88693705573678 ] ] } },
{ "type": "Feature", "properties": { }, "geometry": { "type": "LineString", "coordinates": [ [ 649939.544663655222394, 4524769.447105179540813 ], [ 648514.070878782426007, 4524545.62393974326551 ] ] } },
{ "type": "Feature", "properties": { }, "geometry": { "type": "LineString", "coordinates": [ [ 648311.930582497850992, 4524195.200796356424689 ], [ 646936.817009848193265, 4523978.372104840353131 ] ] } },
{ "type": "Feature", "properties": { }, "geometry": { "type": "LineString", "coordinates": [ [ 648606.39793452504091, 4524250.457140325568616 ], [ 647196.311992275994271, 4524037.825133160687983 ] ] } },
{ "type": "Feature", "properties": { }, "geometry": { "type": "LineString", "coordinates": [ [ 651413.280318575212732, 4525538.1397889778018 ], [ 650306.754544449155219, 4525353.485677492804825 ] ] } },
{ "type": "Feature", "properties": { }, "geometry": { "type": "LineString", "coordinates": [ [ 650691.450610043015331, 4526483.792662947438657 ], [ 649555.548045453499071, 4526100.495492137037218 ] ] } },
{ "type": "Feature", "properties": { }, "geometry": { "type": "LineString", "coordinates": [ [ 650084.330273796920665, 4525845.896641452796757 ], [ 648818.330494297551923, 4525465.397260211408138 ] ] } },
{ "type": "Feature", "properties": { }, "geometry": { "type": "LineString", "coordinates": [ [ 649940.244111047592014, 4529716.638508718460798 ], [ 648793.150388186215423, 4529484.421974577941 ] ] } },
{ "type": "Feature", "properties": { }, "geometry": { "type": "LineString", "coordinates": [ [ 650762.794244026183151, 4530108.32904823217541 ], [ 649870.299371848697774, 4529887.303672363981605 ] ] } },
{ "type": "Feature", "properties": { }, "geometry": { "type": "LineString", "coordinates": [ [ 650944.650565943215042, 4529965.641780266538262 ], [ 650021.38000851823017, 4529848.134618411771953 ] ] } },
{ "type": "Feature", "properties": { }, "geometry": { "type": "LineString", "coordinates": [ [ 651087.33783390885219, 4529904.090409771539271 ], [ 650172.460645187762566, 4529706.846245230175555 ] ] } },
{ "type": "Feature", "properties": { }, "geometry": { "type": "LineString", "coordinates": [ [ 650860.017431512591429, 4531414.197329074144363 ], [ 650182.952356067602523, 4531293.892377652227879 ] ] } },
{ "type": "Feature", "properties": { }, "geometry": { "type": "LineString", "coordinates": [ [ 650722.925742682768032, 4530910.595206842757761 ], [ 649858.408766184933484, 4530801.481413692235947 ] ] } },
{ "type": "Feature", "properties": { }, "geometry": { "type": "LineString", "coordinates": [ [ 651283.88255105772987, 4531966.76076874602586 ], [ 650820.848377561196685, 4532045.098876648582518 ] ] } },
{ "type": "Feature", "properties": { }, "geometry": { "type": "LineString", "coordinates": [ [ 651481.12671559851151, 4531996.137559209018946 ], [ 651011.098068182123825, 4532106.65024714358151 ] ] } },
{ "type": "Feature", "properties": { }, "geometry": { "type": "LineString", "coordinates": [ [ 651864.423886408098042, 4532210.168461157009006 ], [ 651441.957661646883935, 4532452.177258785814047 ] ] } },
{ "type": "Feature", "properties": { }, "geometry": { "type": "LineString", "coordinates": [ [ 653696.976053418242373, 4533085.876595926471055 ], [ 653517.917521069059148, 4533446.791450193151832 ] ] } },
{ "type": "Feature", "properties": { }, "geometry": { "type": "LineString", "coordinates": [ [ 653863.444532711524516, 4533203.383757781237364 ], [ 653673.194842090597376, 4533588.07982337474823 ] ] } },
{ "type": "Feature", "properties": { }, "geometry": { "type": "LineString", "coordinates": [ [ 653257.723091249354184, 4532818.687692187726498 ], [ 653007.320924917352386, 4533186.597020373679698 ] ] } },
{ "type": "Feature", "properties": { }, "geometry": { "type": "LineString", "coordinates": [ [ 653534.70425847673323, 4532855.058956570923328 ], [ 653273.110933873103932, 4533160.01801947876811 ] ] } },
{ "type": "Feature", "properties": { }, "geometry": { "type": "LineString", "coordinates": [ [ 652593.248068860149942, 4532524.919787553139031 ], [ 652193.164160642656498, 4532834.075534811243415 ] ] } },
{ "type": "Feature", "properties": { }, "geometry": { "type": "LineString", "coordinates": [ [ 651723.135513226268813, 4531975.154137450270355 ], [ 651184.561021395027637, 4532205.971776805818081 ] ] } },
{ "type": "Feature", "properties": { }, "geometry": { "type": "LineString", "coordinates": [ [ 654867.151540214894339, 4531219.051506709307432 ], [ 653739.642344329156913, 4531925.493372618220747 ] ] } },
{ "type": "Feature", "properties": { }, "geometry": { "type": "LineString", "coordinates": [ [ 654484.553816797211766, 4531099.446002679876983 ], [ 653295.493250416591763, 4531734.544234605506063 ] ] } },
{ "type": "Feature", "properties": { }, "geometry": { "type": "LineString", "coordinates": [ [ 654599.263189083314501, 4531119.030529655516148 ], [ 653450.770571438129991, 4531782.106657261028886 ] ] } },
{ "type": "Feature", "properties": { }, "geometry": { "type": "LineString", "coordinates": [ [ 654600.66208386735525, 4531193.171953205950558 ], [ 653382.224727023160085, 4531819.876816428266466 ] ] } },
{ "type": "Feature", "properties": { }, "geometry": { "type": "LineString", "coordinates": [ [ 655512.741483020596206, 4531242.133270644582808 ], [ 654299.899705312331207, 4531847.854712107218802 ] ] } },
{ "type": "Feature", "properties": { }, "geometry": { "type": "LineString", "coordinates": [ [ 656573.803176667308435, 4531599.550887951627374 ], [ 655587.582353963400237, 4532109.448036713525653 ] ] } },
{ "type": "Feature", "properties": { }, "geometry": { "type": "LineString", "coordinates": [ [ 656887.155608278233558, 4531514.917753523215652 ], [ 655878.552469030488282, 4531977.951927020214498 ] ] } },
{ "type": "Feature", "properties": { }, "geometry": { "type": "LineString", "coordinates": [ [ 656431.115908701438457, 4531838.062448622658849 ], [ 655426.709453805815428, 4532475.958470116369426 ] ] } },
{ "type": "Feature", "properties": { }, "geometry": { "type": "LineString", "coordinates": [ [ 654932.200147670228034, 4527043.350576540455222 ], [ 653586.313386544119567, 4527109.610438132658601 ] ] } },
{ "type": "Feature", "properties": { }, "geometry": { "type": "LineString", "coordinates": [ [ 655126.646522643044591, 4527027.962733916938305 ], [ 653961.367167590069585, 4527041.951681757345796 ] ] } },
{ "type": "Feature", "properties": { }, "geometry": { "type": "LineString", "coordinates": [ [ 655357.464161999290809, 4527100.705262684263289 ], [ 654183.489601685781963, 4527091.813300742767751 ] ] } },
{ "type": "Feature", "properties": { }, "geometry": { "type": "LineString", "coordinates": [ [ 655232.962526225368492, 4527127.284263579174876 ], [ 654106.91704417206347, 4527146.849826456047595 ] ] } },
{ "type": "Feature", "properties": { }, "geometry": { "type": "LineString", "coordinates": [ [ 653869.040111847454682, 4526594.305350884795189 ], [ 652823.317204075749032, 4526530.717416650615633 ] ] } },
{ "type": "Feature", "properties": { }, "geometry": { "type": "LineString", "coordinates": [ [ 656372.362327774986625, 4526315.225841482169926 ], [ 655369.167796938563697, 4526120.298977286554873 ] ] } },
{ "type": "Feature", "properties": { }, "geometry": { "type": "LineString", "coordinates": [ [ 656198.899374561733566, 4526455.115319879725575 ], [ 655238.755159922759049, 4526229.175582501105964 ] ] } },
{ "type": "Feature", "properties": { }, "geometry": { "type": "LineString", "coordinates": [ [ 656092.58337097952608, 4526581.015850437805057 ], [ 654961.179638935253024, 4526468.464824731461704 ] ] } },
{ "type": "Feature", "properties": { }, "geometry": { "type": "LineString", "coordinates": [ [ 655507.845351277035661, 4527017.471023038960993 ], [ 654327.178153600310907, 4527006.279864766635001 ] ] } },
{ "type": "Feature", "properties": { }, "geometry": { "type": "LineString", "coordinates": [ [ 655566.59893220406957, 4526941.930704703554511 ], [ 654402.718471935018897, 4526947.526283839717507 ] ] } },
{ "type": "Feature", "properties": { }, "geometry": { "type": "LineString", "coordinates": [ [ 655650.532619242672808, 4526849.603648961521685 ], [ 654511.832265085307881, 4526802.041226305998862 ] ] } },
{ "type": "Feature", "properties": { }, "geometry": { "type": "LineString", "coordinates": [ [ 656912.335714390152134, 4526183.729731787927449 ], [ 655604.269477430032566, 4526093.977160640992224 ] ] } },
{ "type": "Feature", "properties": { }, "geometry": { "type": "LineString", "coordinates": [ [ 657024.247297108289786, 4526150.156256972812116 ], [ 655762.444201960926875, 4526007.468989007174969 ] ] } },
{ "type": "Feature", "properties": { }, "geometry": { "type": "LineString", "coordinates": [ [ 657284.441726928111166, 4526001.873409871011972 ], [ 655983.469577829237096, 4525864.781721041537821 ] ] } },
{ "type": "Feature", "properties": { }, "geometry": { "type": "LineString", "coordinates": [ [ 657390.757730510318652, 4525926.333091536536813 ], [ 656046.954575556679629, 4525804.437177539803088 ] ] } },
{ "type": "Feature", "properties": { }, "geometry": { "type": "LineString", "coordinates": [ [ 657670.536687305779196, 4525778.050244435667992 ], [ 656451.399883069563657, 4525611.581765143200755 ] ] } },
{ "type": "Feature", "properties": { }, "geometry": { "type": "LineString", "coordinates": [ [ 657743.978663464542478, 4525723.493347860872746 ], [ 656519.945727484533563, 4525562.620447703637183 ] ] } },
{ "type": "Feature", "properties": { }, "geometry": { "type": "LineString", "coordinates": [ [ 659084.119866514927708, 4525112.176327263005078 ], [ 658064.461999123683199, 4524841.297977556474507 ] ] } },
{ "type": "Feature", "properties": { }, "geometry": { "type": "LineString", "coordinates": [ [ 659786.365048071485944, 4524821.206212195567787 ], [ 659052.651791638345458, 4524522.295506519265473 ] ] } },
{ "type": "Feature", "properties": { }, "geometry": { "type": "LineString", "coordinates": [ [ 658572.124375579180196, 4525308.021597020328045 ], [ 657534.436327580013312, 4525073.408542521297932 ] ] } },
{ "type": "Feature", "properties": { }, "geometry": { "type": "LineString", "coordinates": [ [ 660183.651166721014306, 4524751.261472996324301 ], [ 659698.134522550040856, 4524486.103008631616831 ] ] } },
{ "type": "Feature", "properties": { }, "geometry": { "type": "LineString", "coordinates": [ [ 660639.690866297576576, 4524714.89020861312747 ], [ 660041.589363064500503, 4524398.014656322076917 ] ] } },
{ "type": "Feature", "properties": { }, "geometry": { "type": "LineString", "coordinates": [ [ 657900.654879270121455, 4529115.813199006021023 ], [ 656177.216505410266109, 4529205.342465179972351 ] ] } },
{ "type": "Feature", "properties": { }, "geometry": { "type": "LineString", "coordinates": [ [ 658110.48909686668776, 4529608.923610356636345 ], [ 656356.275037759216502, 4529703.349008275195956 ] ] } },
{ "type": "Feature", "properties": { }, "geometry": { "type": "LineString", "coordinates": [ [ 657411.741152270114981, 4528733.914922977797687 ], [ 655577.790090476046316, 4529109.518172475509346 ] ] } },
{ "type": "Feature", "properties": { }, "geometry": { "type": "LineString", "coordinates": [ [ 655420.414427278679796, 4528331.033225192688406 ], [ 653817.281004840740934, 4528987.814326269552112 ] ] } },
{ "type": "Feature", "properties": { }, "geometry": { "type": "LineString", "coordinates": [ [ 655305.005607600556687, 4527743.497415921650827 ], [ 653873.936243591830134, 4528215.624405514448881 ] ] } },
{ "type": "Feature", "properties": { }, "geometry": { "type": "LineString", "coordinates": [ [ 665919.469504723558202, 4531834.215487971901894 ], [ 664825.99081653309986, 4530159.68833084218204 ] ] } },
{ "type": "Feature", "properties": { }, "geometry": { "type": "LineString", "coordinates": [ [ 665324.851790609187447, 4531757.363705777563155 ], [ 664157.124369683442637, 4530134.82061821129173 ] ] } },
{ "type": "Feature", "properties": { }, "geometry": { "type": "LineString", "coordinates": [ [ 665689.176450911443681, 4532453.751015427522361 ], [ 664650.497073807870038, 4530706.881153935566545 ] ] } },
{ "type": "Feature", "properties": { }, "geometry": { "type": "LineString", "coordinates": [ [ 664943.215807355358265, 4531260.843488390557468 ], [ 663759.750820109969936, 4529831.872466556727886 ] ] } },
{ "type": "Feature", "properties": { }, "geometry": { "type": "LineString", "coordinates": [ [ 658304.323455368401483, 4535650.837613285519183 ], [ 658132.783982483088039, 4535984.474019263871014 ] ] } },
{ "type": "Feature", "properties": { }, "geometry": { "type": "LineString", "coordinates": [ [ 658131.210225851158611, 4535636.673803597688675 ], [ 658010.030965189100243, 4535962.441426416859031 ] ] } },
{ "type": "Feature", "properties": { }, "geometry": { "type": "LineString", "coordinates": [ [ 659831.654266700381413, 4536902.761014021933079 ], [ 660151.126862991251983, 4537411.084406149573624 ] ] } },
{ "type": "Feature", "properties": { }, "geometry": { "type": "LineString", "coordinates": [ [ 644580.850873218616471, 4532689.027631909586489 ], [ 644220.77535582263954, 4532819.964183690026402 ] ] } },
{ "type": "Feature", "properties": { }, "geometry": { "type": "LineString", "coordinates": [ [ 645251.900701093138196, 4532091.000111757777631 ], [ 644607.289984635892324, 4532101.072154202498496 ] ] } }
]
}
