{
"type": "FeatureCollection",
"name": "20210519_080717_05_2440_3B_AnalyticMS",
"crs": { "type": "name", "properties": { "name": "urn:ogc:def:crs:OGC:1.3:CRS84" } },
"features": [
{ "type": "Feature", "geometry": { "type": "LineString", "coordinates": [ [ 0.0, 0.0 ], [ 1.0, 1.0 ] ] } },
{ "type": "Feature", "properties": { }, "geometry": { "type": "LineString", "coordinates": [ [ 626439.779403409222141, 4535477.876420454122126 ], [ 627361.771875000093132, 4535050.451846590265632 ] ] } },
{ "type": "Feature", "properties": { }, "geometry": { "type": "LineString", "coordinates": [ [ 626446.32997159101069, 4535582.68551136367023 ], [ 627392.887073863763362, 4535171.637357953935862 ] ] } },
{ "type": "Feature", "properties": { }, "geometry": { "type": "LineString", "coordinates": [ [ 633271.476136363227852, 4540497.522230114787817 ], [ 633582.628124999580905, 4540745.897940341383219 ] ] } },
{ "type": "Feature", "properties": { }, "geometry": { "type": "LineString", "coordinates": [ [ 633274.205539772287011, 4540590.321946023963392 ], [ 633605.828053976758383, 4540848.250568182207644 ] ] } },
{ "type": "Feature", "properties": { }, "geometry": { "type": "LineString", "coordinates": [ [ 633042.206249999580905, 4540041.711860796436667 ], [ 633289.217258522287011, 4540325.569815341383219 ] ] } },
{ "type": "Feature", "properties": { }, "geometry": { "type": "LineString", "coordinates": [ [ 633706.815980113227852, 4540627.168892046436667 ], [ 634032.979687499580905, 4540822.321235796436667 ] ] } },
{ "type": "Feature", "properties": { }, "geometry": { "type": "LineString", "coordinates": [ [ 631600.398899147403426, 4540082.652911933138967 ], [ 631809.198259942815639, 4540478.416406251490116 ] ] } },
{ "type": "Feature", "properties": { }, "geometry": { "type": "LineString", "coordinates": [ [ 631558.093146306462586, 4539955.735653410665691 ], [ 631775.080717329168692, 4540366.51086647901684 ] ] } },
{ "type": "Feature", "properties": { }, "geometry": { "type": "LineString", "coordinates": [ [ 631562.187251420109533, 4539894.324076706543565 ], [ 631751.880788351874799, 4540281.89936079736799 ] ] } },
{ "type": "Feature", "properties": { }, "geometry": { "type": "LineString", "coordinates": [ [ 631566.28135653375648, 4539775.595028410665691 ], [ 631724.586754261050373, 4540086.74701704736799 ] ] } },
{ "type": "Feature", "properties": { }, "geometry": { "type": "LineString", "coordinates": [ [ 631564.916654829168692, 4539697.807031251490116 ], [ 631710.939737215521745, 4540004.864914773963392 ] ] } },
{ "type": "Feature", "properties": { }, "geometry": { "type": "LineString", "coordinates": [ [ 631461.19932528375648, 4539512.207599433138967 ], [ 631584.022478692815639, 4539796.06555397901684 ] ] } },
{ "type": "Feature", "properties": { }, "geometry": { "type": "LineString", "coordinates": [ [ 631353.387890624580905, 4539426.23139204736799 ], [ 631446.18760653375648, 4539723.736363638192415 ] ] } },
{ "type": "Feature", "properties": { }, "geometry": { "type": "LineString", "coordinates": [ [ 631268.776384942699224, 4539261.10248579736799 ], [ 631312.446839488227852, 4539554.513352274894714 ] ] } },
{ "type": "Feature", "properties": { }, "geometry": { "type": "LineString", "coordinates": [ [ 630401.508451704052277, 4539583.172088068909943 ], [ 630393.320241476758383, 4539848.606569603085518 ] ] } },
{ "type": "Feature", "properties": { }, "geometry": { "type": "LineString", "coordinates": [ [ 634124.414701704168692, 4539645.948366478085518 ], [ 634206.296803976874799, 4540004.864914773963392 ] ] } },
{ "type": "Feature", "properties": { }, "geometry": { "type": "LineString", "coordinates": [ [ 634162.626349431462586, 4539098.702982955612242 ], [ 634286.814204545109533, 4539580.442684659734368 ] ] } },
{ "type": "Feature", "properties": { }, "geometry": { "type": "LineString", "coordinates": [ [ 633631.757386363227852, 4539269.290696023963392 ], [ 633710.910085226874799, 4539542.231036933138967 ] ] } },
{ "type": "Feature", "properties": { }, "geometry": { "type": "LineString", "coordinates": [ [ 633702.72187499969732, 4539031.832599433138967 ], [ 633715.004190340521745, 4539259.737784092314541 ] ] } },
{ "type": "Feature", "properties": { }, "geometry": { "type": "LineString", "coordinates": [ [ 633936.085866476874799, 4539570.889772728085518 ], [ 633927.89765624969732, 4539725.101065342314541 ] ] } },
{ "type": "Feature", "properties": { }, "geometry": { "type": "LineString", "coordinates": [ [ 634056.179616476874799, 4539510.842897728085518 ], [ 634170.81455965875648, 4539924.347514205612242 ] ] } },
{ "type": "Feature", "properties": { }, "geometry": { "type": "LineString", "coordinates": [ [ 634136.697017045342363, 4538592.398650569841266 ], [ 634094.391264204401523, 4539311.596448864787817 ] ] } },
{ "type": "Feature", "properties": { }, "geometry": { "type": "LineString", "coordinates": [ [ 634147.614630681695417, 4538461.387286933138967 ], [ 634093.026562499930151, 4539194.232102273963392 ] ] } },
{ "type": "Feature", "properties": { }, "geometry": { "type": "LineString", "coordinates": [ [ 634132.602911931695417, 4538521.434161933138967 ], [ 634079.379545454401523, 4539229.714346592314541 ] ] } },
{ "type": "Feature", "properties": { }, "geometry": { "type": "LineString", "coordinates": [ [ 634158.53224431804847, 4538423.175639205612242 ], [ 634112.132386363577098, 4539116.444105114787817 ] ] } },
{ "type": "Feature", "properties": { }, "geometry": { "type": "LineString", "coordinates": [ [ 634204.932102272636257, 4538414.98742897901684 ], [ 634131.238210227224045, 4539141.008735796436667 ] ] } },
{ "type": "Feature", "properties": { }, "geometry": { "type": "LineString", "coordinates": [ [ 634206.296803977224045, 4538331.740625001490116 ], [ 634140.79112215898931, 4539030.46789772901684 ] ] } },
{ "type": "Feature", "properties": { }, "geometry": { "type": "LineString", "coordinates": [ [ 634247.237855113577098, 4538233.482102273963392 ], [ 634230.86143465898931, 4538874.891903410665691 ] ] } },
{ "type": "Feature", "properties": { }, "geometry": { "type": "LineString", "coordinates": [ [ 632913.469389204401523, 4539235.173153410665691 ], [ 633026.284730113460682, 4539398.937357956543565 ] ] } },
{ "type": "Feature", "properties": { }, "geometry": { "type": "LineString", "coordinates": [ [ 633020.825923295225948, 4539280.66321022901684 ], [ 633120.904048295225948, 4539408.035369319841266 ] ] } },
{ "type": "Feature", "properties": { }, "geometry": { "type": "LineString", "coordinates": [ [ 633077.233593749813735, 4538954.954403410665691 ], [ 633140.919673295225948, 4539102.342187502421439 ] ] } },
{ "type": "Feature", "properties": { }, "geometry": { "type": "LineString", "coordinates": [ [ 633060.857173295225948, 4538916.742755684070289 ], [ 633124.543252840754576, 4539058.671732956543565 ] ] } },
{ "type": "Feature", "properties": { }, "geometry": { "type": "LineString", "coordinates": [ [ 633109.986434658872895, 4538885.80951704736799 ], [ 633159.115696022519842, 4539013.181676138192415 ] ] } },
{ "type": "Feature", "properties": { }, "geometry": { "type": "LineString", "coordinates": [ [ 633206.425355113460682, 4538904.005539774894714 ], [ 633353.813139204401523, 4539005.90326704736799 ] ] } },
{ "type": "Feature", "properties": { }, "geometry": { "type": "LineString", "coordinates": [ [ 633273.750639204401523, 4538793.009801138192415 ], [ 633421.138423295225948, 4538871.25269886571914 ] ] } },
{ "type": "Feature", "properties": { }, "geometry": { "type": "LineString", "coordinates": [ [ 633355.632741476874799, 4538632.884801137261093 ], [ 633462.989275567699224, 4538827.582244318909943 ] ] } },
{ "type": "Feature", "properties": { }, "geometry": { "type": "LineString", "coordinates": [ [ 634150.798934658640064, 4538163.427414773032069 ], [ 634152.618536931346171, 4538758.437357955612242 ] ] } },
{ "type": "Feature", "properties": { }, "geometry": { "type": "LineString", "coordinates": [ [ 633877.858593749580905, 4537448.323721591383219 ], [ 633990.67393465875648, 4537772.212926137261093 ] ] } },
{ "type": "Feature", "properties": { }, "geometry": { "type": "LineString", "coordinates": [ [ 633930.62705965875648, 4537377.359232955612242 ], [ 634014.328764204168692, 4537706.707244318909943 ] ] } },
{ "type": "Feature", "properties": { }, "geometry": { "type": "LineString", "coordinates": [ [ 634098.030468749580905, 4537532.025426137261093 ], [ 634252.696661931462586, 4537788.589346591383219 ] ] } },
{ "type": "Feature", "properties": { }, "geometry": { "type": "LineString", "coordinates": [ [ 634112.587286931462586, 4537692.150426137261093 ], [ 634318.202343749580905, 4537968.729971591383219 ] ] } },
{ "type": "Feature", "properties": { }, "geometry": { "type": "LineString", "coordinates": [ [ 634048.901207385933958, 4538074.266903409734368 ], [ 634103.489275567815639, 4538691.112073863856494 ] ] } },
{ "type": "Feature", "properties": { }, "geometry": { "type": "LineString", "coordinates": [ [ 633399.303196022403426, 4537128.073721591383219 ], [ 633503.020525567815639, 4537550.221448863856494 ] ] } },
{ "type": "Feature", "properties": { }, "geometry": { "type": "LineString", "coordinates": [ [ 633024.465127840521745, 4537115.336505682207644 ], [ 633060.857173295109533, 4537488.354971591383219 ] ] } },
{ "type": "Feature", "properties": { }, "geometry": { "type": "LineString", "coordinates": [ [ 633834.188139204285108, 4539055.032528407871723 ], [ 633881.497798295225948, 4539196.961505680344999 ] ] } },
{ "type": "Feature", "properties": { }, "geometry": { "type": "LineString", "coordinates": [ [ 629500.805326704168692, 4537290.928124994039536 ], [ 629115.049644885933958, 4537647.570170449092984 ] ] } },
{ "type": "Feature", "properties": { }, "geometry": { "type": "LineString", "coordinates": [ [ 628674.705894885933958, 4537873.200852267444134 ], [ 628303.507031249580905, 4538182.533238630741835 ] ] } },
{ "type": "Feature", "properties": { }, "geometry": { "type": "LineString", "coordinates": [ [ 628583.725781249580905, 4537927.788920449092984 ], [ 628194.330894885933958, 4538244.39971590321511 ] ] } },
{ "type": "Feature", "properties": { }, "geometry": { "type": "LineString", "coordinates": [ [ 628507.302485794993117, 4537984.19659090321511 ], [ 628108.809588067699224, 4538304.44659090321511 ] ] } },
{ "type": "Feature", "properties": { }, "geometry": { "type": "LineString", "coordinates": [ [ 628369.012713067699224, 4538240.760511358268559 ], [ 628017.829474431346171, 4538641.073011358268559 ] ] } },
{ "type": "Feature", "properties": { }, "geometry": { "type": "LineString", "coordinates": [ [ 628381.749928976874799, 4538177.074431812390685 ], [ 628026.927485794993117, 4538544.634090904146433 ] ] } },
{ "type": "Feature", "properties": { }, "geometry": { "type": "LineString", "coordinates": [ [ 627748.528338067582808, 4538278.972159086726606 ], [ 627426.458735794876702, 4538571.928124995902181 ] ] } },
{ "type": "Feature", "properties": { }, "geometry": { "type": "LineString", "coordinates": [ [ 627975.978622158523649, 4538246.219318177551031 ], [ 627577.485724431229755, 4538586.484943177551031 ] ] } },
{ "type": "Feature", "properties": { }, "geometry": { "type": "LineString", "coordinates": [ [ 628241.640553976758383, 4538446.375568177551031 ], [ 627772.183167613111436, 4538793.919602268375456 ] ] } },
{ "type": "Feature", "properties": { }, "geometry": { "type": "LineString", "coordinates": [ [ 629739.173224431579001, 4536661.34573863260448 ], [ 629291.551065340638161, 4537143.540340905077755 ] ] } },
{ "type": "Feature", "properties": { }, "geometry": { "type": "LineString", "coordinates": [ [ 629742.812428976991214, 4536621.31448863260448 ], [ 629284.27265624969732, 4537092.591477269306779 ] ] } },
{ "type": "Feature", "properties": { }, "geometry": { "type": "LineString", "coordinates": [ [ 629779.204474431579001, 4536486.663920450955629 ], [ 629313.386292613344267, 4536981.59573863260448 ] ] } },
{ "type": "Feature", "properties": { }, "geometry": { "type": "LineString", "coordinates": [ [ 629664.569531249813735, 4536816.01193181425333 ], [ 629271.535440340638161, 4537307.304545450955629 ] ] } },
{ "type": "Feature", "properties": { }, "geometry": { "type": "LineString", "coordinates": [ [ 631897.221519886283204, 4536124.563068177551031 ], [ 631506.007031249930151, 4536572.185227268375456 ] ] } },
{ "type": "Feature", "properties": { }, "geometry": { "type": "LineString", "coordinates": [ [ 632022.774076704517938, 4536071.794602268375456 ], [ 631666.132031249930151, 4536521.236363631673157 ] ] } },
{ "type": "Feature", "properties": { }, "geometry": { "type": "LineString", "coordinates": [ [ 632131.950213068164885, 4536068.155397722497582 ], [ 631829.896235795342363, 4536472.107102268375456 ] ] } },
{ "type": "Feature", "properties": { }, "geometry": { "type": "LineString", "coordinates": [ [ 632301.173224431811832, 4536100.908238631673157 ], [ 632059.16612215898931, 4536523.055965904146433 ] ] } },
{ "type": "Feature", "properties": { }, "geometry": { "type": "LineString", "coordinates": [ [ 632495.870667613577098, 4536137.300284085795283 ], [ 632330.286860795458779, 4536543.071590904146433 ] ] } },
{ "type": "Feature", "properties": { }, "geometry": { "type": "LineString", "coordinates": [ [ 632111.934588068164885, 4535928.046022722497582 ], [ 631769.849360795342363, 4536421.158238631673157 ] ] } },
{ "type": "Feature", "properties": { }, "geometry": { "type": "LineString", "coordinates": [ [ 632166.522656249930151, 4535769.740624994970858 ], [ 631828.076633522636257, 4536248.296022722497582 ] ] } },
{ "type": "Feature", "properties": { }, "geometry": { "type": "LineString", "coordinates": [ [ 632898.002769886399619, 4535120.142613631673157 ], [ 632588.670383522752672, 4535676.940909085795283 ] ] } },
{ "type": "Feature", "properties": { }, "geometry": { "type": "LineString", "coordinates": [ [ 632746.975781249930151, 4535380.345738631673157 ], [ 632419.447372159105726, 4535915.308806813322008 ] ] } },
{ "type": "Feature", "properties": { }, "geometry": { "type": "LineString", "coordinates": [ [ 631567.873508522636257, 4535842.524715904146433 ], [ 631072.941690340754576, 4536415.699431813322008 ] ] } },
{ "type": "Feature", "properties": { }, "geometry": { "type": "LineString", "coordinates": [ [ 631456.877769886283204, 4535931.685227268375456 ], [ 630996.518394886166789, 4536526.695170450024307 ] ] } },
{ "type": "Feature", "properties": { }, "geometry": { "type": "LineString", "coordinates": [ [ 631766.210156249930151, 4535393.082954540848732 ], [ 631300.391974431695417, 4536044.500568177551031 ] ] } },
{ "type": "Feature", "properties": { }, "geometry": { "type": "LineString", "coordinates": [ [ 631542.399076704401523, 4535653.286079540848732 ], [ 631045.647656249813735, 4536281.048863631673157 ] ] } },
{ "type": "Feature", "properties": { }, "geometry": { "type": "LineString", "coordinates": [ [ 631584.249928977224045, 4534925.445170450955629 ], [ 631036.549644886283204, 4535702.415340905077755 ] ] } },
{ "type": "Feature", "properties": { }, "geometry": { "type": "LineString", "coordinates": [ [ 631522.383451704517938, 4534885.413920450955629 ], [ 630945.569531249930151, 4535615.07443181425333 ] ] } },
{ "type": "Feature", "properties": { }, "geometry": { "type": "LineString", "coordinates": [ [ 632091.918963068164885, 4534878.135511360131204 ], [ 631620.641974431811832, 4535622.352840905077755 ] ] } },
{ "type": "Feature", "properties": { }, "geometry": { "type": "LineString", "coordinates": [ [ 632093.738565340987407, 4534998.229261360131204 ], [ 631627.920383522752672, 4535686.038920450955629 ] ] } },
{ "type": "Feature", "properties": { }, "geometry": { "type": "LineString", "coordinates": [ [ 632030.052485795458779, 4535287.546022723428905 ], [ 631613.363565340870991, 4535955.34005681425333 ] ] } },
{ "type": "Feature", "properties": { }, "geometry": { "type": "LineString", "coordinates": [ [ 631709.802485795458779, 4535247.514772723428905 ], [ 631254.901917613577098, 4536035.40255681425333 ] ] } },
{ "type": "Feature", "properties": { }, "geometry": { "type": "LineString", "coordinates": [ [ 631624.281178977224045, 4535165.632670450955629 ], [ 631147.545383522636257, 4535978.994886360131204 ] ] } },
{ "type": "Feature", "properties": { }, "geometry": { "type": "LineString", "coordinates": [ [ 631549.677485795458779, 4535071.013352269306779 ], [ 630994.698792613577098, 4535889.834374995902181 ] ] } },
{ "type": "Feature", "properties": { }, "geometry": { "type": "LineString", "coordinates": [ [ 632218.536258845007978, 4535620.06558398809284 ], [ 631896.336274638772011, 4536158.983414714224637 ] ] } },
{ "type": "Feature", "properties": { }, "geometry": { "type": "LineString", "coordinates": [ [ 632304.83982604322955, 4535602.804870548658073 ], [ 631955.789843152975664, 4536134.051273079589009 ] ] } },
{ "type": "Feature", "properties": { }, "geometry": { "type": "LineString", "coordinates": [ [ 632435.254105364787392, 4535512.665589253418148 ], [ 632091.957693621166982, 4536036.240563588216901 ] ] } },
{ "type": "Feature", "properties": { }, "geometry": { "type": "LineString", "coordinates": [ [ 632705.671949252253398, 4535286.358457488939166 ], [ 632337.443395873531699, 4535829.112002313137054 ] ] } },
{ "type": "Feature", "properties": { }, "geometry": { "type": "LineString", "coordinates": [ [ 633315.550490785506554, 4535965.279852781444788 ], [ 632945.40408035798464, 4536275.97269469499588 ] ] } },
{ "type": "Feature", "properties": { }, "geometry": { "type": "LineString", "coordinates": [ [ 632717.179091545171104, 4536446.661972042173147 ], [ 632611.696953858598135, 4536799.547669029794633 ] ] } },
{ "type": "Feature", "properties": { }, "geometry": { "type": "LineString", "coordinates": [ [ 633754.739754971582443, 4536893.52266442310065 ], [ 633733.643327434198, 4537234.901219118386507 ] ] } },
{ "type": "Feature", "properties": { }, "geometry": { "type": "LineString", "coordinates": [ [ 632189.768403112189844, 4537031.60837194044143 ], [ 632040.17555330216419, 4537386.411925977095962 ] ] } },
{ "type": "Feature", "properties": { }, "geometry": { "type": "LineString", "coordinates": [ [ 632588.682669272413477, 4537060.376227673143148 ], [ 632519.639815513975918, 4537411.344067611731589 ] ] } },
{ "type": "Feature", "properties": { }, "geometry": { "type": "LineString", "coordinates": [ [ 630997.820247253752314, 4535966.238781305029988 ], [ 630447.395274234586395, 4536533.924467763863504 ] ] } },
{ "type": "Feature", "properties": { }, "geometry": { "type": "LineString", "coordinates": [ [ 632349.909466690849513, 4533687.824607275426388 ], [ 631906.884488407173194, 4534397.431715348735452 ] ] } },
{ "type": "Feature", "properties": { }, "geometry": { "type": "LineString", "coordinates": [ [ 631933.734487090958282, 4534222.906723903492093 ], [ 631245.223806554800831, 4534961.281687709502876 ] ] } },
{ "type": "Feature", "properties": { }, "geometry": { "type": "LineString", "coordinates": [ [ 632037.298767728731036, 4534092.492444581352174 ], [ 631415.913083902210928, 4534844.292407729662955 ] ] } },
{ "type": "Feature", "properties": { }, "geometry": { "type": "LineString", "coordinates": [ [ 631764.963066792464815, 4534332.224575687199831 ], [ 631120.563098379760049, 4535099.367395226843655 ] ] } },
{ "type": "Feature", "properties": { }, "geometry": { "type": "LineString", "coordinates": [ [ 632543.613028624327853, 4532957.121071664616466 ], [ 632336.484467348782346, 4533474.942474853247404 ] ] } },
{ "type": "Feature", "properties": { }, "geometry": { "type": "LineString", "coordinates": [ [ 632733.480876460205764, 4532598.481803529895842 ], [ 632520.598744038143195, 4533327.267482091672719 ] ] } },
{ "type": "Feature", "properties": { }, "geometry": { "type": "LineString", "coordinates": [ [ 633021.159433787222952, 4531735.446131548844278 ], [ 632737.316590557922609, 4532414.367526840418577 ] ] } },
{ "type": "Feature", "properties": { }, "geometry": { "type": "LineString", "coordinates": [ [ 632890.745154465665109, 4532381.763957009650767 ], [ 632557.038027966278605, 4533202.606773916631937 ] ] } },
{ "type": "Feature", "properties": { }, "geometry": { "type": "LineString", "coordinates": [ [ 632921.430867247167043, 4532262.856819981709123 ], [ 632597.313025992014445, 4533053.013924106955528 ] ] } },
{ "type": "Feature", "properties": { }, "geometry": { "type": "LineString", "coordinates": [ [ 632990.473721005721018, 4531984.767547898925841 ], [ 632677.863022043602541, 4532784.513937268406153 ] ] } },
{ "type": "Feature", "properties": { }, "geometry": { "type": "LineString", "coordinates": [ [ 633477.609411413315684, 4530460.071194062940776 ], [ 633166.916569500113837, 4531123.649732964113355 ] ] } },
{ "type": "Feature", "properties": { }, "geometry": { "type": "LineString", "coordinates": [ [ 634425.03079354390502, 4528262.207016084343195 ], [ 634033.787955579115078, 4528296.728442964144051 ] ] } },
{ "type": "Feature", "properties": { }, "geometry": { "type": "LineString", "coordinates": [ [ 634200.641518828691915, 4528758.931991736404598 ], [ 633928.305817892425694, 4528684.135566830635071 ] ] } },
{ "type": "Feature", "properties": { }, "geometry": { "type": "LineString", "coordinates": [ [ 634215.984375219559297, 4528670.710567489266396 ], [ 633937.8951031366596, 4528584.407000291161239 ] ] } },
{ "type": "Feature", "properties": { }, "geometry": { "type": "LineString", "coordinates": [ [ 634075.980810653651133, 4529282.506966071203351 ], [ 633828.577251352369785, 4529088.80340413749218 ] ] } },
{ "type": "Feature", "properties": { }, "geometry": { "type": "LineString", "coordinates": [ [ 633976.252244113595225, 4529524.156954226084054 ], [ 633738.437970056547783, 4529468.539099809713662 ] ] } },
{ "type": "Feature", "properties": { }, "geometry": { "type": "LineString", "coordinates": [ [ 633868.852249378222041, 4529763.88908533193171 ], [ 633700.080829079612158, 4529635.392663058824837 ] ] } },
{ "type": "Feature", "properties": { }, "geometry": { "type": "LineString", "coordinates": [ [ 637630.728850692161359, 4530664.32296977005899 ], [ 636955.643169497838244, 4530411.165839321911335 ] ] } },
{ "type": "Feature", "properties": { }, "geometry": { "type": "LineString", "coordinates": [ [ 637584.700281519792043, 4530445.687266200780869 ], [ 636997.836024572490714, 4530269.244417707435787 ] ] } },
{ "type": "Feature", "properties": { }, "geometry": { "type": "LineString", "coordinates": [ [ 637807.171699186088517, 4529057.158762835897505 ], [ 637438.943145807366818, 4528516.323075060732663 ] ] } },
{ "type": "Feature", "properties": { }, "geometry": { "type": "LineString", "coordinates": [ [ 639939.828737504314631, 4528125.080237096175551 ], [ 638566.643090529716574, 4527994.665957774966955 ] ] } },
{ "type": "Feature", "properties": { }, "geometry": { "type": "LineString", "coordinates": [ [ 639813.250172280357219, 4528102.06595251057297 ], [ 638447.735953501076438, 4528013.844528263434768 ] ] } },
{ "type": "Feature", "properties": { }, "geometry": { "type": "LineString", "coordinates": [ [ 640446.142998400027864, 4527833.565965672023594 ], [ 638965.557356689940207, 4527676.301687666215003 ] ] } },
{ "type": "Feature", "properties": { }, "geometry": { "type": "LineString", "coordinates": [ [ 640584.228705917019397, 4527733.83739913161844 ], [ 639103.64306420693174, 4527572.737407028675079 ] ] } },
{ "type": "Feature", "properties": { }, "geometry": { "type": "LineString", "coordinates": [ [ 639640.643037884146906, 4528512.487360963597894 ], [ 638278.96453320258297, 4528485.637362279929221 ] ] } },
{ "type": "Feature", "properties": { }, "geometry": { "type": "LineString", "coordinates": [ [ 640365.593002348439768, 4527534.380266051739454 ], [ 639007.750211764476262, 4527354.101703459396958 ] ] } },
{ "type": "Feature", "properties": { }, "geometry": { "type": "LineString", "coordinates": [ [ 640330.112646944704466, 4533923.721024287864566 ], [ 640552.58406461100094, 4533823.992457748390734 ] ] } },
{ "type": "Feature", "properties": { }, "geometry": { "type": "LineString", "coordinates": [ [ 639873.662669319077395, 4533474.942474857904017 ], [ 640084.626944692339748, 4533425.07819158770144 ] ] } },
{ "type": "Feature", "properties": { }, "geometry": { "type": "LineString", "coordinates": [ [ 639367.348408423364162, 4533026.163925427943468 ], [ 639539.955542819690891, 4533110.549635577015579 ] ] } },
{ "type": "Feature", "properties": { }, "geometry": { "type": "LineString", "coordinates": [ [ 638761.305580987711437, 4532531.356806824915111 ], [ 638709.52344066882506, 4532593.687160911969841 ] ] } },
{ "type": "Feature", "properties": { }, "geometry": { "type": "LineString", "coordinates": [ [ 638995.284140946809202, 4532698.210370074026287 ], [ 638981.859141604974866, 4532780.678223174065351 ] ] } },
{ "type": "Feature", "properties": { }, "geometry": { "type": "LineString", "coordinates": [ [ 638113.06989847717341, 4531915.724694143980742 ], [ 637813.884198857005686, 4532057.646115759387612 ] ] } },
{ "type": "Feature", "properties": { }, "geometry": { "type": "LineString", "coordinates": [ [ 638201.291322724078782, 4531988.603262000717223 ], [ 637879.091338517726399, 4532103.674684931524098 ] ] } },
{ "type": "Feature", "properties": { }, "geometry": { "type": "LineString", "coordinates": [ [ 638504.312736441963352, 4532253.267534741200507 ], [ 638289.512746971100569, 4532372.174671770073473 ] ] } },
{ "type": "Feature", "properties": { }, "geometry": { "type": "LineString", "coordinates": [ [ 640663.819773443974555, 4533898.788882652297616 ], [ 640801.905480960966088, 4533749.196032842621207 ] ] } },
{ "type": "Feature", "properties": { }, "geometry": { "type": "LineString", "coordinates": [ [ 640905.469761598855257, 4533887.281740359961987 ], [ 640970.676901259692386, 4533726.181748257018626 ] ] } },
{ "type": "Feature", "properties": { }, "geometry": { "type": "LineString", "coordinates": [ [ 641315.891170052229427, 4533937.146023630164564 ], [ 641461.648305764654651, 4533683.988893182016909 ] ] } },
{ "type": "Feature", "properties": { }, "geometry": { "type": "LineString", "coordinates": [ [ 637301.816366814891808, 4534598.806705485098064 ], [ 637750.594916245085187, 4534848.128121835179627 ] ] } },
{ "type": "Feature", "properties": { }, "geometry": { "type": "LineString", "coordinates": [ [ 636830.023532798397355, 4534506.74956713989377 ], [ 636872.216387873049825, 4534679.356701536104083 ] ] } },
{ "type": "Feature", "properties": { }, "geometry": { "type": "LineString", "coordinates": [ [ 635978.495003110263497, 4533904.542453802190721 ], [ 636039.86642867338378, 4534326.471004548482597 ] ] } },
{ "type": "Feature", "properties": { }, "geometry": { "type": "LineString", "coordinates": [ [ 637071.673520953161642, 4535411.978094195947051 ], [ 637090.852091441629454, 4535262.385244386270642 ] ] } },
{ "type": "Feature", "properties": { }, "geometry": { "type": "LineString", "coordinates": [ [ 637612.509208728093654, 4535373.620953219011426 ], [ 637857.994910980574787, 4535331.428098144941032 ] ] } },
{ "type": "Feature", "properties": { }, "geometry": { "type": "LineString", "coordinates": [ [ 635426.152173042180948, 4533095.206779189407825 ], [ 635303.409321915940382, 4533451.928190274164081 ] ] } },
{ "type": "Feature", "properties": { }, "geometry": { "type": "LineString", "coordinates": [ [ 634678.187923991819844, 4532546.699663219042122 ], [ 634394.345080762403086, 4533045.342495919205248 ] ] } },
{ "type": "Feature", "properties": { }, "geometry": { "type": "LineString", "coordinates": [ [ 625522.098640664014965, 4530364.178341631777585 ], [ 626304.224718397133984, 4529912.882604824379086 ] ] } },
{ "type": "Feature", "properties": { }, "geometry": { "type": "LineString", "coordinates": [ [ 625264.086934561375529, 4530715.685578867793083 ], [ 625972.495381979388185, 4530291.359706809744239 ] ] } },
{ "type": "Feature", "properties": { }, "geometry": { "type": "LineString", "coordinates": [ [ 625131.035601797630079, 4530665.341831334866583 ], [ 625904.171724614105187, 4530255.39988714363426 ] ] } },
{ "type": "Feature", "properties": { }, "geometry": { "type": "LineString", "coordinates": [ [ 625008.772214933647774, 4530219.440067478455603 ], [ 625846.63601314870175, 4529856.245888852514327 ] ] } },
{ "type": "Feature", "properties": { }, "geometry": { "type": "LineString", "coordinates": [ [ 625397.138267325237393, 4530568.250318237580359 ], [ 626141.506534409010783, 4530097.176680614240468 ] ] } },
{ "type": "Feature", "properties": { }, "geometry": { "type": "LineString", "coordinates": [ [ 624908.084719869191758, 4530816.373073931783438 ], [ 625745.948518084245734, 4530431.603003506548703 ] ] } },
{ "type": "Feature", "properties": { }, "geometry": { "type": "LineString", "coordinates": [ [ 625037.540070666349493, 4530909.868605063296854 ], [ 625781.908337750122882, 4530543.07844447158277 ] ] } },
{ "type": "Feature", "properties": { }, "geometry": { "type": "LineString", "coordinates": [ [ 624868.528918236726895, 4531161.587342724204063 ], [ 625677.624860719079152, 4530830.757001798599958 ] ] } },
{ "type": "Feature", "properties": { }, "geometry": { "type": "LineString", "coordinates": [ [ 624250.020019983523525, 4531283.850729588419199 ], [ 625033.944088699761778, 4530985.38422636128962 ] ] } },
{ "type": "Feature", "properties": { }, "geometry": { "type": "LineString", "coordinates": [ [ 624426.223136346437968, 4531237.102964022196829 ], [ 625235.319078828790225, 4530895.484677196480334 ] ] } },
{ "type": "Feature", "properties": { }, "geometry": { "type": "LineString", "coordinates": [ [ 624501.73875764477998, 4531298.234657454304397 ], [ 625325.218627993483096, 4530881.100749329663813 ] ] } },
{ "type": "Feature", "properties": { }, "geometry": { "type": "LineString", "coordinates": [ [ 620707.97778289380949, 4531438.477954151108861 ], [ 621571.013454875093885, 4531301.830639421008527 ] ] } },
{ "type": "Feature", "properties": { }, "geometry": { "type": "LineString", "coordinates": [ [ 621042.404105786583386, 4531449.265900051221251 ], [ 621980.955399066209793, 4531258.678855821490288 ] ] } },
{ "type": "Feature", "properties": { }, "geometry": { "type": "LineString", "coordinates": [ [ 621315.698735247249715, 4531449.265900051221251 ], [ 622290.20984819275327, 4531327.002513187006116 ] ] } },
{ "type": "Feature", "properties": { }, "geometry": { "type": "LineString", "coordinates": [ [ 621146.687582817627117, 4531524.781521349214017 ], [ 622110.410749863367528, 4531348.578404986299574 ] ] } },
{ "type": "Feature", "properties": { }, "geometry": { "type": "LineString", "coordinates": [ [ 621121.515709051513113, 4531848.419898342341185 ], [ 622049.279056431376375, 4531650.640890180133283 ] ] } },
{ "type": "Feature", "properties": { }, "geometry": { "type": "LineString", "coordinates": [ [ 621376.830428679357283, 4531758.520349177531898 ], [ 622196.714317061472684, 4531683.004727879539132 ] ] } },
{ "type": "Feature", "properties": { }, "geometry": { "type": "LineString", "coordinates": [ [ 621157.475528717390262, 4532110.926581903360784 ], [ 621973.763435133034363, 4531974.279267172329128 ] ] } },
{ "type": "Feature", "properties": { }, "geometry": { "type": "LineString", "coordinates": [ [ 621711.256751572014764, 4531485.225719716399908 ], [ 622520.352694054483436, 4531395.326170551590621 ] ] } },
{ "type": "Feature", "properties": { }, "geometry": { "type": "LineString", "coordinates": [ [ 621545.841581108979881, 4532114.522563870064914 ], [ 622200.310299028060399, 4532074.966762237250805 ] ] } },
{ "type": "Feature", "properties": { }, "geometry": { "type": "LineString", "coordinates": [ [ 621883.863885968225077, 4532175.654257302172482 ], [ 622549.120549787185155, 4532010.239086838439107 ] ] } },
{ "type": "Feature", "properties": { }, "geometry": { "type": "LineString", "coordinates": [ [ 621171.859456583741121, 4532387.817193330265582 ], [ 621937.8036154670408, 4532247.573896633461118 ] ] } },
{ "type": "Feature", "properties": { }, "geometry": { "type": "LineString", "coordinates": [ [ 621017.232232020469382, 4532632.343967058695853 ], [ 621797.56031877011992, 4532420.181031029671431 ] ] } },
{ "type": "Feature", "properties": { }, "geometry": { "type": "LineString", "coordinates": [ [ 621466.729977844050154, 4532617.960039191879332 ], [ 622175.138425261946395, 4532524.464508060365915 ] ] } },
{ "type": "Feature", "properties": { }, "geometry": { "type": "LineString", "coordinates": [ [ 621736.428625338128768, 4532668.303786723874509 ], [ 622401.685289156972431, 4532524.464508060365915 ] ] } },
{ "type": "Feature", "properties": { }, "geometry": { "type": "LineString", "coordinates": [ [ 621793.964336803532206, 4532632.343967058695853 ], [ 622477.200910455314443, 4532477.716742495074868 ] ] } },
{ "type": "Feature", "properties": { }, "geometry": { "type": "LineString", "coordinates": [ [ 622286.613866226165555, 4532308.705590065568686 ], [ 623002.214277577237226, 4532154.078365501947701 ] ] } },
{ "type": "Feature", "properties": { }, "geometry": { "type": "LineString", "coordinates": [ [ 622236.270118693937548, 4532416.5850490629673 ], [ 622984.234367744298652, 4532251.169878600165248 ] ] } },
{ "type": "Feature", "properties": { }, "geometry": { "type": "LineString", "coordinates": [ [ 622826.011161214439198, 4532589.192183459177613 ], [ 623631.51112173020374, 4532312.301572032272816 ] ] } },
{ "type": "Feature", "properties": { }, "geometry": { "type": "LineString", "coordinates": [ [ 622552.71653175377287, 4532614.364057225175202 ], [ 623343.832564403186552, 4532362.645319564267993 ] ] } },
{ "type": "Feature", "properties": { }, "geometry": { "type": "LineString", "coordinates": [ [ 622843.991071047377773, 4532718.647534256801009 ], [ 623569.480432806536555, 4532485.807701920159161 ] ] } },
{ "type": "Feature", "properties": { }, "geometry": { "type": "LineString", "coordinates": [ [ 622922.203678820515051, 4532567.616291659884155 ], [ 623691.74381967051886, 4532269.149788432754576 ] ] } },
{ "type": "Feature", "properties": { }, "geometry": { "type": "LineString", "coordinates": [ [ 622744.202571474364959, 4532121.714527802541852 ], [ 623479.580883641727269, 4531907.753600790165365 ] ] } },
{ "type": "Feature", "properties": { }, "geometry": { "type": "LineString", "coordinates": [ [ 622826.9101567058824, 4532067.774798303842545 ], [ 623562.288468873361126, 4531825.046015558764338 ] ] } },
{ "type": "Feature", "properties": { }, "geometry": { "type": "LineString", "coordinates": [ [ 623190.104335331358016, 4531929.329492589458823 ], [ 623934.47260241524782, 4531620.075043463148177 ] ] } },
{ "type": "Feature", "properties": { }, "geometry": { "type": "LineString", "coordinates": [ [ 623526.328649207483977, 4531596.701160680502653 ], [ 624306.65673595725093, 4531307.2246123701334 ] ] } },
{ "type": "Feature", "properties": { }, "geometry": { "type": "LineString", "coordinates": [ [ 623864.350954066845588, 4531546.357413148507476 ], [ 624619.507167050498538, 4531255.082873854786158 ] ] } },
{ "type": "Feature", "properties": { }, "geometry": { "type": "LineString", "coordinates": [ [ 622429.554149397881702, 4531154.39537878986448 ], [ 623175.720407465123571, 4530963.808334561064839 ] ] } },
{ "type": "Feature", "properties": { }, "geometry": { "type": "LineString", "coordinates": [ [ 622310.886744500487112, 4531168.779306656681001 ], [ 623058.850993550964631, 4531021.344046026468277 ] ] } },
{ "type": "Feature", "properties": { }, "geometry": { "type": "LineString", "coordinates": [ [ 622434.948122347821482, 4531021.344046026468277 ], [ 623202.690272214473225, 4530841.544947696849704 ] ] } },
{ "type": "Feature", "properties": { }, "geometry": { "type": "LineString", "coordinates": [ [ 622596.76731084426865, 4531048.313910775817931 ], [ 623364.509460711036809, 4530855.928875562734902 ] ] } },
{ "type": "Feature", "properties": { }, "geometry": { "type": "LineString", "coordinates": [ [ 622846.688057522289455, 4530839.746956713497639 ], [ 623641.400072138407268, 4530672.533795266412199 ] ] } },
{ "type": "Feature", "properties": { }, "geometry": { "type": "LineString", "coordinates": [ [ 623024.689164868439548, 4530685.119732149876654 ], [ 623903.906755699426867, 4530523.300543652847409 ] ] } },
{ "type": "Feature", "properties": { }, "geometry": { "type": "LineString", "coordinates": [ [ 623186.508353365003131, 4530571.846300202421844 ], [ 624089.09982697875239, 4530372.269301056861877 ] ] } },
{ "type": "Feature", "properties": { }, "geometry": { "type": "LineString", "coordinates": [ [ 623110.992732066544704, 4530480.148760054260492 ], [ 624076.513890095753595, 4530327.319526473991573 ] ] } },
{ "type": "Feature", "properties": { }, "geometry": { "type": "LineString", "coordinates": [ [ 622895.233814071281813, 4530794.797182130627334 ], [ 623734.895603269804269, 4530604.210137901827693 ] ] } },
{ "type": "Feature", "properties": { }, "geometry": { "type": "LineString", "coordinates": [ [ 625299.147758736042306, 4539047.575795453041792 ], [ 624691.426806382485665, 4539394.588055228814483 ] ] } },
{ "type": "Feature", "properties": { }, "geometry": { "type": "LineString", "coordinates": [ [ 626172.971376617206261, 4538864.180715156719089 ], [ 625638.968054578755982, 4539225.5769027993083 ] ] } },
{ "type": "Feature", "properties": { }, "geometry": { "type": "LineString", "coordinates": [ [ 625227.228119404288009, 4539166.243200350552797 ], [ 624570.96141050173901, 4539531.235369959846139 ] ] } },
{ "type": "Feature", "properties": { }, "geometry": { "type": "LineString", "coordinates": [ [ 625022.257147308671847, 4539373.012163429521024 ], [ 624357.000483489711769, 4539664.286702723242342 ] ] } },
{ "type": "Feature", "properties": { }, "geometry": { "type": "LineString", "coordinates": [ [ 624202.3732589262072, 4540854.556733663193882 ], [ 623751.077522119274363, 4541318.438407353125513 ] ] } },
{ "type": "Feature", "properties": { }, "geometry": { "type": "LineString", "coordinates": [ [ 624315.646690873778425, 4540710.717454999685287 ], [ 623873.340908983373083, 4541126.053372140973806 ] ] } },
{ "type": "Feature", "properties": { }, "geometry": { "type": "LineString", "coordinates": [ [ 624754.356490797712468, 4540320.55341162532568 ], [ 624267.100934324902482, 4540707.121473032981157 ] ] } },
{ "type": "Feature", "properties": { }, "geometry": { "type": "LineString", "coordinates": [ [ 625284.239416832220741, 4538892.049575392156839 ], [ 625011.544117699260823, 4538903.73651678301394 ] ] } },
{ "type": "Feature", "properties": { }, "geometry": { "type": "LineString", "coordinates": [ [ 625159.578708657179959, 4539082.936284785158932 ], [ 624886.883409524220042, 4539012.814636436291039 ] ] } },
{ "type": "Feature", "properties": { }, "geometry": { "type": "LineString", "coordinates": [ [ 627535.923458244535141, 4533149.865705076605082 ], [ 628416.339709731051698, 4532678.492402289994061 ] ] } },
{ "type": "Feature", "properties": { }, "geometry": { "type": "LineString", "coordinates": [ [ 627013.906742761377245, 4534478.281376567669213 ], [ 627925.488171291653998, 4533983.534190997481346 ] ] } },
{ "type": "Feature", "properties": { }, "geometry": { "type": "LineString", "coordinates": [ [ 626815.228739107376896, 4534875.637383875437081 ], [ 627750.184050420415588, 4534443.220552393235266 ] ] } },
{ "type": "Feature", "properties": { }, "geometry": { "type": "LineString", "coordinates": [ [ 630085.624505137908272, 4535796.957930233329535 ], [ 629649.312026525149122, 4536311.183351455256343 ] ] } },
{ "type": "Feature", "properties": { }, "geometry": { "type": "LineString", "coordinates": [ [ 630136.267917834105901, 4535703.462399101816118 ], [ 629711.642380612669513, 4536206.000878932885826 ] ] } },
{ "type": "Feature", "properties": { }, "geometry": { "type": "LineString", "coordinates": [ [ 631460.787942194379866, 4533397.239297862164676 ], [ 631207.570878713740967, 4533876.403894910588861 ] ] } },
{ "type": "Feature", "properties": { }, "geometry": { "type": "LineString", "coordinates": [ [ 637813.746759834350087, 4531110.72688858769834 ], [ 637385.385890179197304, 4531303.104524659924209 ] ] } }
]
}
