{
"type": "FeatureCollection",
"name": "20210519_081240_43_106c_3B_AnalyticMS",
"crs": { "type": "name", "properties": { "name": "urn:ogc:def:crs:OGC:1.3:CRS84" } },
"features": [
{ "type": "Feature", "geometry": { "type": "LineString", "coordinates": [ [ 0.0, 0.0 ], [ 1.0, 1.0 ] ] } },
{ "type": "Feature", "properties": { }, "geometry": { "type": "LineString", "coordinates": [ [ 662957.730059276451357, 4524853.640032237395644 ], [ 661872.637609192519449, 4524638.194139973260462 ] ] } },
{ "type": "Feature", "properties": { }, "geometry": { "type": "LineString", "coordinates": [ [ 662830.349641222972423, 4524852.06743448227644 ], [ 661715.377833818085492, 4524639.766737726517022 ] ] } },
{ "type": "Feature", "properties": { }, "geometry": { "type": "LineString", "coordinates": [ [ 663413.783407862298191, 4524974.730059274472296 ], [ 662374.296292637009174, 4524691.662463600747287 ] ] } },
{ "type": "Feature", "properties": { }, "geometry": { "type": "LineString", "coordinates": [ [ 662217.036517262458801, 4524432.183834233321249 ], [ 661462.18959546496626, 4524300.085622918792069 ] ] } },
{ "type": "Feature", "properties": { }, "geometry": { "type": "LineString", "coordinates": [ [ 656918.954684896511026, 4526177.767340888269246 ], [ 655602.690365012269467, 4526094.419659939594567 ] ] } },
{ "type": "Feature", "properties": { }, "geometry": { "type": "LineString", "coordinates": [ [ 656528.950441967928782, 4526324.018931986764073 ], [ 655415.551232316647656, 4526136.879799290560186 ] ] } },
{ "type": "Feature", "properties": { }, "geometry": { "type": "LineString", "coordinates": [ [ 656299.351169921108522, 4526375.914657860063016 ], [ 655234.702490636031143, 4526229.663066761568189 ] ] } },
{ "type": "Feature", "properties": { }, "geometry": { "type": "LineString", "coordinates": [ [ 654009.648840468376875, 4527082.797348167747259 ], [ 652923.77009150700178, 4527074.934359398670495 ] ] } },
{ "type": "Feature", "properties": { }, "geometry": { "type": "LineString", "coordinates": [ [ 654092.210222540423274, 4527007.312655988149345 ], [ 652989.819197164382786, 4526985.296287435106933 ] ] } },
{ "type": "Feature", "properties": { }, "geometry": { "type": "LineString", "coordinates": [ [ 654488.504856484476477, 4527114.249303242191672 ], [ 653235.144446748774499, 4527131.547878533601761 ] ] } },
{ "type": "Feature", "properties": { }, "geometry": { "type": "LineString", "coordinates": [ [ 654736.975301576429047, 4527092.232934690080583 ], [ 653386.113831108435988, 4527118.967096503823996 ] ] } },
{ "type": "Feature", "properties": { }, "geometry": { "type": "LineString", "coordinates": [ [ 654942.985607317183167, 4527038.764611062593758 ], [ 653585.833745834184811, 4527109.531509981490672 ] ] } },
{ "type": "Feature", "properties": { }, "geometry": { "type": "LineString", "coordinates": [ [ 654740.120497083873488, 4527284.089860646985471 ], [ 653527.647628945531324, 4527317.114413475617766 ] ] } },
{ "type": "Feature", "properties": { }, "geometry": { "type": "LineString", "coordinates": [ [ 653648.737655984004959, 4527115.821900996379554 ], [ 652527.475457562948577, 4527101.66852121334523 ] ] } },
{ "type": "Feature", "properties": { }, "geometry": { "type": "LineString", "coordinates": [ [ 653890.917710060952231, 4526953.84433236066252 ], [ 652876.592158894636668, 4526930.255366054363549 ] ] } },
{ "type": "Feature", "properties": { }, "geometry": { "type": "LineString", "coordinates": [ [ 653873.619134769658558, 4526582.711262476630509 ], [ 652821.551237513427623, 4526532.388134356588125 ] ] } },
{ "type": "Feature", "properties": { }, "geometry": { "type": "LineString", "coordinates": [ [ 655367.587000828818418, 4527090.660336936824024 ], [ 654178.703098996658809, 4527092.232934690080583 ] ] } },
{ "type": "Feature", "properties": { }, "geometry": { "type": "LineString", "coordinates": [ [ 655241.77918052917812, 4527128.40268302615732 ], [ 654103.218406816828065, 4527150.419051579199731 ] ] } },
{ "type": "Feature", "properties": { }, "geometry": { "type": "LineString", "coordinates": [ [ 656076.82858776836656, 4526587.429055738262832 ], [ 654957.138987101032399, 4526469.484224206767976 ] ] } },
{ "type": "Feature", "properties": { }, "geometry": { "type": "LineString", "coordinates": [ [ 655553.153535770950839, 4526979.005896421149373 ], [ 654378.423013722407632, 4526974.28810315951705 ] ] } },
{ "type": "Feature", "properties": { }, "geometry": { "type": "LineString", "coordinates": [ [ 655773.31722129532136, 4526752.551819881424308 ], [ 654696.087759979185648, 4526661.341150163672864 ] ] } },
{ "type": "Feature", "properties": { }, "geometry": { "type": "LineString", "coordinates": [ [ 655691.542138100601733, 4526828.036512061022222 ], [ 654600.159297000733204, 4526736.825842344202101 ] ] } },
{ "type": "Feature", "properties": { }, "geometry": { "type": "LineString", "coordinates": [ [ 656153.570083385217004, 4527095.506765682250261 ], [ 654630.173663634806871, 4526966.458721861243248 ] ] } },
{ "type": "Feature", "properties": { }, "geometry": { "type": "LineString", "coordinates": [ [ 656238.552941511850804, 4526922.393536165356636 ], [ 654812.729432943742722, 4526716.231417376548052 ] ] } },
{ "type": "Feature", "properties": { }, "geometry": { "type": "LineString", "coordinates": [ [ 656133.111247169552371, 4527317.406450791284442 ], [ 654513.715672868769616, 4527193.079676864668727 ] ] } },
{ "type": "Feature", "properties": { }, "geometry": { "type": "LineString", "coordinates": [ [ 656002.489446715801023, 4527567.633755275048316 ], [ 654425.585301478160545, 4527504.683489996008575 ] ] } },
{ "type": "Feature", "properties": { }, "geometry": { "type": "LineString", "coordinates": [ [ 655985.178123763995245, 4527614.84645423386246 ], [ 654412.99524842237588, 4527556.617458851076663 ] ] } },
{ "type": "Feature", "properties": { }, "geometry": { "type": "LineString", "coordinates": [ [ 656057.570928834844381, 4527740.746984791941941 ], [ 654400.405195366591215, 4527682.517989409156144 ] ] } },
{ "type": "Feature", "properties": { }, "geometry": { "type": "LineString", "coordinates": [ [ 656172.455162968952209, 4527551.896188954822719 ], [ 654496.404349917080253, 4527492.093436939641833 ] ] } },
{ "type": "Feature", "properties": { }, "geometry": { "type": "LineString", "coordinates": [ [ 659092.560593595961109, 4525102.343991288915277 ], [ 658063.323756285244599, 4524841.10039038117975 ] ] } },
{ "type": "Feature", "properties": { }, "geometry": { "type": "LineString", "coordinates": [ [ 658916.299850814975798, 4525190.474362678825855 ], [ 657770.605022738222033, 4525007.918593370355666 ] ] } },
{ "type": "Feature", "properties": { }, "geometry": { "type": "LineString", "coordinates": [ [ 658409.550215319497511, 4525360.440078932791948 ], [ 657531.394014678196982, 4525074.016371913254261 ] ] } },
{ "type": "Feature", "properties": { }, "geometry": { "type": "LineString", "coordinates": [ [ 658034.996136909816414, 4525542.995848241262138 ], [ 657263.855387242743745, 4525174.736796359531581 ] ] } },
{ "type": "Feature", "properties": { }, "geometry": { "type": "LineString", "coordinates": [ [ 657267.002900506719016, 4526011.975324569270015 ], [ 655875.802037841989659, 4525904.959873595274985 ] ] } },
{ "type": "Feature", "properties": { }, "geometry": { "type": "LineString", "coordinates": [ [ 657396.050944328540936, 4525923.844953178428113 ], [ 656045.767754095140845, 4525804.239449148997664 ] ] } },
{ "type": "Feature", "properties": { }, "geometry": { "type": "LineString", "coordinates": [ [ 657756.44121305050794, 4525714.535321126691997 ], [ 656787.007127754739486, 4525423.390344211831689 ] ] } },
{ "type": "Feature", "properties": { }, "geometry": { "type": "LineString", "coordinates": [ [ 657855.587880864855833, 4525657.880082375369966 ], [ 656901.891361888847314, 4525362.013835564255714 ] ] } },
{ "type": "Feature", "properties": { }, "geometry": { "type": "LineString", "coordinates": [ [ 657665.163328396040015, 4525780.633099669590592 ], [ 656624.910194661468267, 4525516.241985497996211 ] ] } },
{ "type": "Feature", "properties": { }, "geometry": { "type": "LineString", "coordinates": [ [ 658738.071912238607183, 4524066.025249142199755 ], [ 657823.719309066538699, 4524138.418054211884737 ] ] } },
{ "type": "Feature", "properties": { }, "geometry": { "type": "LineString", "coordinates": [ [ 658435.910638901172206, 4524481.49699998088181 ], [ 657417.690098019316792, 4524495.660809668712318 ] ] } },
{ "type": "Feature", "properties": { }, "geometry": { "type": "LineString", "coordinates": [ [ 659200.756362036569044, 4524738.019330991432071 ], [ 658270.666192544740625, 4524635.725149913690984 ] ] } },
{ "type": "Feature", "properties": { }, "geometry": { "type": "LineString", "coordinates": [ [ 658154.208201779401861, 4523869.305670147761703 ], [ 657006.939617076306604, 4523932.255935426801443 ] ] } },
{ "type": "Feature", "properties": { }, "geometry": { "type": "LineString", "coordinates": [ [ 658091.257936500711367, 4523883.46947983559221 ], [ 656920.383002318209037, 4523959.00979817006737 ] ] } },
{ "type": "Feature", "properties": { }, "geometry": { "type": "LineString", "coordinates": [ [ 658089.684179868781939, 4524026.681333344429731 ], [ 656972.316971173044294, 4524089.631598623469472 ] ] } },
{ "type": "Feature", "properties": { }, "geometry": { "type": "LineString", "coordinates": [ [ 658001.553808478754945, 4524039.271386400796473 ], [ 656862.15400693542324, 4524089.631598623469472 ] ] } },
{ "type": "Feature", "properties": { }, "geometry": { "type": "LineString", "coordinates": [ [ 658593.286302097840235, 4524171.466943485662341 ], [ 657760.76904378796462, 4524235.990965396165848 ] ] } },
{ "type": "Feature", "properties": { }, "geometry": { "type": "LineString", "coordinates": [ [ 657937.029786568018608, 4523345.244711701758206 ], [ 656700.057073842850514, 4523343.67095507029444 ] ] } },
{ "type": "Feature", "properties": { }, "geometry": { "type": "LineString", "coordinates": [ [ 657916.57095035247039, 4523246.098043888807297 ], [ 656681.171994259348139, 4523257.114340311847627 ] ] } },
{ "type": "Feature", "properties": { }, "geometry": { "type": "LineString", "coordinates": [ [ 658075.520370181067847, 4523200.459101561456919 ], [ 656844.842683983733878, 4523191.016561769880354 ] ] } },
{ "type": "Feature", "properties": { }, "geometry": { "type": "LineString", "coordinates": [ [ 658206.142170634237118, 4523178.426508713513613 ], [ 656975.464484436903149, 4523150.09888933878392 ] ] } },
{ "type": "Feature", "properties": { }, "geometry": { "type": "LineString", "coordinates": [ [ 657988.96375542297028, 4523197.311588297598064 ], [ 656739.400989642017521, 4523197.311588297598064 ] ] } },
{ "type": "Feature", "properties": { }, "geometry": { "type": "LineString", "coordinates": [ [ 657896.112114136922173, 4523513.636671322397888 ], [ 656657.565644779824652, 4523530.94799427408725 ] ] } },
{ "type": "Feature", "properties": { }, "geometry": { "type": "LineString", "coordinates": [ [ 658097.552963028545491, 4523447.538892780430615 ], [ 656857.432737039518543, 4523428.653813196346164 ] ] } },
{ "type": "Feature", "properties": { }, "geometry": { "type": "LineString", "coordinates": [ [ 657960.636136047542095, 4523483.735295315273106 ], [ 656726.810936586349271, 4523510.489158058539033 ] ] } },
{ "type": "Feature", "properties": { }, "geometry": { "type": "LineString", "coordinates": [ [ 657674.212429029750638, 4523675.73360441531986 ], [ 656481.304901999654248, 4523705.634980422444642 ] ] } },
{ "type": "Feature", "properties": { }, "geometry": { "type": "LineString", "coordinates": [ [ 657691.523751981323585, 4523601.767042712308466 ], [ 656482.878658631583676, 4523625.373392191715539 ] ] } },
{ "type": "Feature", "properties": { }, "geometry": { "type": "LineString", "coordinates": [ [ 658886.005035643465817, 4524185.630753172561526 ], [ 657976.373702367185615, 4524144.713080741465092 ] ] } },
{ "type": "Feature", "properties": { }, "geometry": { "type": "LineString", "coordinates": [ [ 658901.742601963109337, 4524335.137633209116757 ], [ 658004.7013217426138, 4524313.105040361173451 ] ] } },
{ "type": "Feature", "properties": { }, "geometry": { "type": "LineString", "coordinates": [ [ 658505.155930707696825, 4524343.006416368298233 ], [ 657499.525442881509662, 4524369.760279112495482 ] ] } },
{ "type": "Feature", "properties": { }, "geometry": { "type": "LineString", "coordinates": [ [ 658583.84376230603084, 4524456.316893870010972 ], [ 657620.704703542869538, 4524472.054460190236568 ] ] } },
{ "type": "Feature", "properties": { }, "geometry": { "type": "LineString", "coordinates": [ [ 659753.144939856603742, 4524834.018485541455448 ], [ 658963.119110609753989, 4524492.513296404853463 ] ] } },
{ "type": "Feature", "properties": { }, "geometry": { "type": "LineString", "coordinates": [ [ 659833.406528086867183, 4524826.149702381342649 ], [ 659052.82323863171041, 4524522.414672411978245 ] ] } },
{ "type": "Feature", "properties": { }, "geometry": { "type": "LineString", "coordinates": [ [ 661547.227500297827646, 4524536.57848209887743 ], [ 660955.495006678625941, 4524316.252553624100983 ] ] } },
{ "type": "Feature", "properties": { }, "geometry": { "type": "LineString", "coordinates": [ [ 661437.064536060206592, 4524555.463561682961881 ], [ 660864.217122024623677, 4524319.400066887959838 ] ] } },
{ "type": "Feature", "properties": { }, "geometry": { "type": "LineString", "coordinates": [ [ 660626.579870597808622, 4524717.560494775883853 ], [ 660041.142403506557457, 4524398.087898486293852 ] ] } },
{ "type": "Feature", "properties": { }, "geometry": { "type": "LineString", "coordinates": [ [ 660517.990662992116995, 4524723.855521303601563 ], [ 659956.159545380272903, 4524394.940385222434998 ] ] } },
{ "type": "Feature", "properties": { }, "geometry": { "type": "LineString", "coordinates": [ [ 660218.976902918540873, 4524763.199437102302909 ], [ 659698.06345773790963, 4524486.218269876204431 ] ] } },
{ "type": "Feature", "properties": { }, "geometry": { "type": "LineString", "coordinates": [ [ 660163.895420799730346, 4524753.756897310726345 ], [ 659606.785573083907366, 4524489.365783140994608 ] ] } },
{ "type": "Feature", "properties": { }, "geometry": { "type": "LineString", "coordinates": [ [ 664978.803836299339309, 4525558.733414562419057 ], [ 664591.659704835736193, 4525393.48896820563823 ] ] } },
{ "type": "Feature", "properties": { }, "geometry": { "type": "LineString", "coordinates": [ [ 665076.376747481175698, 4525495.783149283379316 ], [ 664731.88284442841541, 4525346.646945998072624 ] ] } },
{ "type": "Feature", "properties": { }, "geometry": { "type": "LineString", "coordinates": [ [ 664086.483825974515639, 4524422.48112628236413 ], [ 663664.717048607650213, 4524520.054037463851273 ] ] } },
{ "type": "Feature", "properties": { }, "geometry": { "type": "LineString", "coordinates": [ [ 663922.813136250013486, 4524419.333613018505275 ], [ 663535.669004786410369, 4524515.33276756759733 ] ] } },
{ "type": "Feature", "properties": { }, "geometry": { "type": "LineString", "coordinates": [ [ 667150.587988411774859, 4525484.766852858476341 ], [ 666768.16512684407644, 4525240.834574903361499 ] ] } },
{ "type": "Feature", "properties": { }, "geometry": { "type": "LineString", "coordinates": [ [ 664673.495049697579816, 4524313.891918675974011 ], [ 664449.820650149486028, 4524477.42877359688282 ] ] } },
{ "type": "Feature", "properties": { }, "geometry": { "type": "LineString", "coordinates": [ [ 664499.594941865187138, 4521148.280453477054834 ], [ 663933.329776370082982, 4521219.05707330070436 ] ] } },
{ "type": "Feature", "properties": { }, "geometry": { "type": "LineString", "coordinates": [ [ 664601.88912294304464, 4521148.280453477054834 ], [ 663929.895041093579493, 4521294.63982024975121 ] ] } },
{ "type": "Feature", "properties": { }, "geometry": { "type": "LineString", "coordinates": [ [ 664498.021185233257711, 4521074.313891774974763 ], [ 663995.992819636128843, 4521149.854210109449923 ] ] } },
{ "type": "Feature", "properties": { }, "geometry": { "type": "LineString", "coordinates": [ [ 663695.405302930506878, 4521436.277917127124965 ], [ 662940.002119586919434, 4521612.538659906946123 ] ] } },
{ "type": "Feature", "properties": { }, "geometry": { "type": "LineString", "coordinates": [ [ 663523.472390888258815, 4521451.622044288553298 ], [ 662646.88994688319508, 4521657.784163076430559 ] ] } },
{ "type": "Feature", "properties": { }, "geometry": { "type": "LineString", "coordinates": [ [ 663699.733133668429218, 4520765.464152751490474 ], [ 663001.896400992176495, 4521178.976125227287412 ] ] } },
{ "type": "Feature", "properties": { }, "geometry": { "type": "LineString", "coordinates": [ [ 663740.650806099525653, 4520622.25229924172163 ], [ 662855.331740126595832, 4520829.015608467161655 ] ] } },
{ "type": "Feature", "properties": { }, "geometry": { "type": "LineString", "coordinates": [ [ 652947.040945761254989, 4511088.828061953186989 ], [ 653139.077620479278266, 4511088.672595865093172 ] ] } },
{ "type": "Feature", "properties": { }, "geometry": { "type": "LineString", "coordinates": [ [ 652938.77872344350908, 4510958.99313981551677 ], [ 653161.927775963791646, 4510951.571662957780063 ] ] } },
{ "type": "Feature", "properties": { }, "geometry": { "type": "LineString", "coordinates": [ [ 653875.950797779252753, 4511486.59505068231374 ], [ 653854.705083247623406, 4511896.16521415207535 ] ] } },
{ "type": "Feature", "properties": { }, "geometry": { "type": "LineString", "coordinates": [ [ 653802.771114392788149, 4511493.676955526694655 ], [ 653802.333449410041794, 4511864.976562456227839 ] ] } },
{ "type": "Feature", "properties": { }, "geometry": { "type": "LineString", "coordinates": [ [ 654025.851116974023171, 4511555.053464173339307 ], [ 654031.752704343874939, 4512013.016644075512886 ] ] } },
{ "type": "Feature", "properties": { }, "geometry": { "type": "LineString", "coordinates": [ [ 653527.757142956834286, 4511407.513779926113784 ], [ 653553.387018605484627, 4511605.206373790279031 ] ] } },
{ "type": "Feature", "properties": { }, "geometry": { "type": "LineString", "coordinates": [ [ 653608.018731186981313, 4511453.546161411330104 ], [ 653648.395559830358252, 4511715.849231925792992 ] ] } },
{ "type": "Feature", "properties": { }, "geometry": { "type": "LineString", "coordinates": [ [ 655667.672723272349685, 4510923.583615596406162 ], [ 655705.442882439587265, 4511454.726478884927928 ] ] } },
{ "type": "Feature", "properties": { }, "geometry": { "type": "LineString", "coordinates": [ [ 656111.472093486692756, 4511034.53345814999193 ], [ 656024.128600412630476, 4511553.87314669881016 ] ] } },
{ "type": "Feature", "properties": { }, "geometry": { "type": "LineString", "coordinates": [ [ 656057.177489683846943, 4511192.695999662391841 ], [ 655943.867012182367034, 4511742.723942534998059 ] ] } },
{ "type": "Feature", "properties": { }, "geometry": { "type": "LineString", "coordinates": [ [ 656496.255590002401732, 4511388.628700342960656 ], [ 656172.848602133453824, 4511912.68965878803283 ] ] } },
{ "type": "Feature", "properties": { }, "geometry": { "type": "LineString", "coordinates": [ [ 656559.99273359705694, 4511303.645842216908932 ], [ 656262.55273015552666, 4511825.346165713854134 ] ] } },
{ "type": "Feature", "properties": { }, "geometry": { "type": "LineString", "coordinates": [ [ 656220.061301092384383, 4511249.351238413713872 ], [ 656130.357173070311546, 4511860.755689932964742 ] ] } },
{ "type": "Feature", "properties": { }, "geometry": { "type": "LineString", "coordinates": [ [ 655247.479702537530102, 4510814.994407991878688 ], [ 655332.462560663698241, 4511339.05536643601954 ] ] } },
{ "type": "Feature", "properties": { }, "geometry": { "type": "LineString", "coordinates": [ [ 654619.55080638313666, 4511955.18108785059303 ], [ 654721.058109144913033, 4512141.671248738653958 ] ] } },
{ "type": "Feature", "properties": { }, "geometry": { "type": "LineString", "coordinates": [ [ 654548.731757944799028, 4512047.24585082102567 ], [ 654675.025727660045959, 4512204.228074859827757 ] ] } },
{ "type": "Feature", "properties": { }, "geometry": { "type": "LineString", "coordinates": [ [ 652546.323163347085938, 4512720.616969721391797 ], [ 652373.996812146855518, 4512544.749666099436581 ] ] } },
{ "type": "Feature", "properties": { }, "geometry": { "type": "LineString", "coordinates": [ [ 652561.667290508747101, 4512613.208079589530826 ], [ 652449.537130481214263, 4512501.077919562347233 ] ] } },
{ "type": "Feature", "properties": { }, "geometry": { "type": "LineString", "coordinates": [ [ 652313.800620974157937, 4512627.371889277361333 ], [ 652281.93204917688854, 4512397.209981852211058 ] ] } },
{ "type": "Feature", "properties": { }, "geometry": { "type": "LineString", "coordinates": [ [ 653118.777138224686496, 4513058.187767278403044 ], [ 652599.437449675984681, 4513125.465863294899464 ] ] } },
{ "type": "Feature", "properties": { }, "geometry": { "type": "LineString", "coordinates": [ [ 653302.906664164736867, 4512861.074749124236405 ], [ 652803.632372673484497, 4513104.220148763619363 ] ] } },
{ "type": "Feature", "properties": { }, "geometry": { "type": "LineString", "coordinates": [ [ 653200.219043928897008, 4512988.549036313779652 ], [ 652765.862213506363332, 4513078.25316433608532 ] ] } },
{ "type": "Feature", "properties": { }, "geometry": { "type": "LineString", "coordinates": [ [ 652927.565707440837286, 4512994.45062368363142 ], [ 652613.601259363698773, 4513025.138878006488085 ] ] } },
{ "type": "Feature", "properties": { }, "geometry": { "type": "LineString", "coordinates": [ [ 651537.151723098941147, 4513104.220148763619363 ], [ 651135.843781947623938, 4512596.683634954504669 ] ] } },
{ "type": "Feature", "properties": { }, "geometry": { "type": "LineString", "coordinates": [ [ 651597.347914271638729, 4513143.17062540538609 ], [ 651171.253306166850962, 4512640.355381491594017 ] ] } },
{ "type": "Feature", "properties": { }, "geometry": { "type": "LineString", "coordinates": [ [ 651644.560613230569288, 4513146.711577827110887 ], [ 651220.826640073792078, 4512672.223953288979828 ] ] } },
{ "type": "Feature", "properties": { }, "geometry": { "type": "LineString", "coordinates": [ [ 651691.773312189616263, 4513138.449355509132147 ], [ 651272.76060892874375, 4512673.404270763508976 ] ] } },
{ "type": "Feature", "properties": { }, "geometry": { "type": "LineString", "coordinates": [ [ 651744.88759851839859, 4513137.269038035534322 ], [ 651348.300927263102494, 4512661.601096023805439 ] ] } },
{ "type": "Feature", "properties": { }, "geometry": { "type": "LineString", "coordinates": [ [ 651835.772044014418498, 4512960.221416939049959 ], [ 651553.676167734549381, 4512497.536967140622437 ] ] } },
{ "type": "Feature", "properties": { }, "geometry": { "type": "LineString", "coordinates": [ [ 651980.951093313284218, 4512767.829668681137264 ], [ 651611.511723959352821, 4512420.816331332549453 ] ] } },
{ "type": "Feature", "properties": { }, "geometry": { "type": "LineString", "coordinates": [ [ 651259.777116715209559, 4513499.626502545550466 ], [ 650813.617111552855931, 4512925.992210193537176 ] ] } },
{ "type": "Feature", "properties": { }, "geometry": { "type": "LineString", "coordinates": [ [ 651131.122512051952071, 4513506.708407389000058 ], [ 650649.552982670487836, 4512933.074115037918091 ] ] } },
{ "type": "Feature", "properties": { }, "geometry": { "type": "LineString", "coordinates": [ [ 651121.679972260259092, 4513545.658884029835463 ], [ 650631.848220560816117, 4512979.106496522203088 ] ] } },
{ "type": "Feature", "properties": { }, "geometry": { "type": "LineString", "coordinates": [ [ 650970.599335591541603, 4513492.54459770116955 ], [ 650428.833615037263371, 4512924.811892719939351 ] ] } },
{ "type": "Feature", "properties": { }, "geometry": { "type": "LineString", "coordinates": [ [ 650156.770437286351807, 4514930.761439736932516 ], [ 649318.745030764606781, 4514431.487148245796561 ] ] } },
{ "type": "Feature", "properties": { }, "geometry": { "type": "LineString", "coordinates": [ [ 650287.785676897503436, 4514857.581756350584328 ], [ 649407.268841312616132, 4514366.569687177427113 ] ] } },
{ "type": "Feature", "properties": { }, "geometry": { "type": "LineString", "coordinates": [ [ 650429.423773774411529, 4514746.63191379699856 ], [ 649559.529795455280691, 4514289.849051369354129 ] ] } },
{ "type": "Feature", "properties": { }, "geometry": { "type": "LineString", "coordinates": [ [ 650468.37425041559618, 4514659.288420722819865 ], [ 649577.234557564952411, 4514222.570955351926386 ] ] } },
{ "type": "Feature", "properties": { }, "geometry": { "type": "LineString", "coordinates": [ [ 650640.700601615826599, 4514537.715720904059708 ], [ 649813.298052359838039, 4514080.932858476415277 ] ] } },
{ "type": "Feature", "properties": { }, "geometry": { "type": "LineString", "coordinates": [ [ 650166.212977078161202, 4514452.732862778007984 ], [ 649429.694873318192549, 4513881.459205374121666 ] ] } },
{ "type": "Feature", "properties": { }, "geometry": { "type": "LineString", "coordinates": [ [ 650737.48663448181469, 4514488.142386997118592 ], [ 649918.346307543572038, 4514031.359524569474161 ] ] } },
{ "type": "Feature", "properties": { }, "geometry": { "type": "LineString", "coordinates": [ [ 650758.732349013327621, 4514436.208418142981827 ], [ 649956.116466710693203, 4513958.179841183125973 ] ] } },
{ "type": "Feature", "properties": { }, "geometry": { "type": "LineString", "coordinates": [ [ 650788.240285862702876, 4514355.946829912252724 ], [ 650013.952022935496643, 4513888.541110218502581 ] ] } },
{ "type": "Feature", "properties": { }, "geometry": { "type": "LineString", "coordinates": [ [ 650853.157746931305155, 4514291.029368843883276 ], [ 650080.049801478045993, 4513818.902379253879189 ] ] } },
{ "type": "Feature", "properties": { }, "geometry": { "type": "LineString", "coordinates": [ [ 649982.083451138227247, 4515432.39636617526412 ], [ 648879.666930446168408, 4515058.235726925544441 ] ] } },
{ "type": "Feature", "properties": { }, "geometry": { "type": "LineString", "coordinates": [ [ 649967.919641450513154, 4515668.459860970266163 ], [ 648831.273914013174362, 4515372.200175002217293 ] ] } },
{ "type": "Feature", "properties": { }, "geometry": { "type": "LineString", "coordinates": [ [ 650008.050435565644875, 4515650.755098860710859 ], [ 648859.601533388602547, 4515348.593825522810221 ] ] } },
{ "type": "Feature", "properties": { }, "geometry": { "type": "LineString", "coordinates": [ [ 650048.181229680776596, 4515814.819227742962539 ], [ 648870.224390654359013, 4515577.575415474362671 ] ] } },
{ "type": "Feature", "properties": { }, "geometry": { "type": "LineString", "coordinates": [ [ 647898.232950836536475, 4515057.645568186417222 ], [ 647126.305322857340798, 4514505.256990366615355 ] ] } },
{ "type": "Feature", "properties": { }, "geometry": { "type": "LineString", "coordinates": [ [ 647201.845641191466711, 4514998.629694486968219 ], [ 646536.14658586983569, 4514356.536988644860685 ] ] } },
{ "type": "Feature", "properties": { }, "geometry": { "type": "LineString", "coordinates": [ [ 647433.187866090214811, 4517286.084959049709141 ], [ 646426.377060790080577, 4516868.252573261968791 ] ] } },
{ "type": "Feature", "properties": { }, "geometry": { "type": "LineString", "coordinates": [ [ 647456.794215569738299, 4517479.657024780288339 ], [ 646428.737695738207549, 4517042.93955940939486 ] ] } },
{ "type": "Feature", "properties": { }, "geometry": { "type": "LineString", "coordinates": [ [ 647554.760565909557045, 4516930.809399381279945 ], [ 646622.899920206866227, 4516524.780188334174454 ] ] } },
{ "type": "Feature", "properties": { }, "geometry": { "type": "LineString", "coordinates": [ [ 647610.53056655509863, 4516879.170509894378483 ], [ 646706.40738149068784, 4516453.075901789590716 ] ] } },
{ "type": "Feature", "properties": { }, "geometry": { "type": "LineString", "coordinates": [ [ 647353.221357228583656, 4517609.787026284262538 ], [ 646301.558487917413004, 4517188.413688074797392 ] ] } },
{ "type": "Feature", "properties": { }, "geometry": { "type": "LineString", "coordinates": [ [ 647480.695644417894073, 4517986.308300482109189 ], [ 646407.787060575094074, 4517600.344486492685974 ] ] } },
{ "type": "Feature", "properties": { }, "geometry": { "type": "LineString", "coordinates": [ [ 647276.500721420277841, 4518181.060683688148856 ], [ 646200.051185155636631, 4517798.637822120450437 ] ] } },
{ "type": "Feature", "properties": { }, "geometry": { "type": "LineString", "coordinates": [ [ 647233.419133620336652, 4518880.398787017911673 ], [ 646166.412137147504836, 4518549.909894305281341 ] ] } },
{ "type": "Feature", "properties": { }, "geometry": { "type": "LineString", "coordinates": [ [ 648335.835654312395491, 4518944.135930612683296 ], [ 647023.322623252868652, 4518896.923231653869152 ] ] } },
{ "type": "Feature", "properties": { }, "geometry": { "type": "LineString", "coordinates": [ [ 648470.391846345388331, 4519206.166409835219383 ], [ 647025.683258200762793, 4519203.805774887092412 ] ] } },
{ "type": "Feature", "properties": { }, "geometry": { "type": "LineString", "coordinates": [ [ 648411.375972646754235, 4519132.986726448871195 ], [ 647023.322623252868652, 4519104.65910707321018 ] ] } },
{ "type": "Feature", "properties": { }, "geometry": { "type": "LineString", "coordinates": [ [ 648305.147399989073165, 4518590.040688420645893 ], [ 647138.993735702359118, 4518488.533385658636689 ] ] } },
{ "type": "Feature", "properties": { }, "geometry": { "type": "LineString", "coordinates": [ [ 648692.291531452676281, 4518561.713069044984877 ], [ 647363.254055757424794, 4518476.730210918933153 ] ] } },
{ "type": "Feature", "properties": { }, "geometry": { "type": "LineString", "coordinates": [ [ 648759.569627469172701, 4518738.760690140537918 ], [ 647388.040722710895352, 4518704.531483395025134 ] ] } },
{ "type": "Feature", "properties": { }, "geometry": { "type": "LineString", "coordinates": [ [ 649147.303917670040391, 4519237.444822892546654 ], [ 647681.349614993901923, 4519362.558475133962929 ] ] } },
{ "type": "Feature", "properties": { }, "geometry": { "type": "LineString", "coordinates": [ [ 649198.057569050928578, 4519235.477627103216946 ], [ 647889.085490413242951, 4519368.066623347811401 ] ] } },
{ "type": "Feature", "properties": { }, "geometry": { "type": "LineString", "coordinates": [ [ 649065.468572807731107, 4519252.788950055837631 ], [ 647614.464958135271445, 4519377.115723980590701 ] ] } },
{ "type": "Feature", "properties": { }, "geometry": { "type": "LineString", "coordinates": [ [ 648997.79703763325233, 4518816.858363002538681 ], [ 647649.087604038533755, 4518859.349792066030204 ] ] } },
{ "type": "Feature", "properties": { }, "geometry": { "type": "LineString", "coordinates": [ [ 649163.041483989683911, 4518513.123333032242954 ], [ 647812.758293762919493, 4518465.91063407342881 ] ] } },
{ "type": "Feature", "properties": { }, "geometry": { "type": "LineString", "coordinates": [ [ 648969.469418257824145, 4518506.828306504525244 ], [ 647623.90749792708084, 4518520.992116192355752 ] ] } },
{ "type": "Feature", "properties": { }, "geometry": { "type": "LineString", "coordinates": [ [ 648967.895661625894718, 4518250.305975493974984 ], [ 647623.90749792708084, 4518333.715076988562942 ] ] } },
{ "type": "Feature", "properties": { }, "geometry": { "type": "LineString", "coordinates": [ [ 648964.748148361919448, 4518332.141320356167853 ], [ 647611.317444871296175, 4518412.402908586896956 ] ] } },
{ "type": "Feature", "properties": { }, "geometry": { "type": "LineString", "coordinates": [ [ 649063.894816175801679, 4518514.697089664638042 ], [ 647715.185382581083104, 4518544.598465671762824 ] ] } },
{ "type": "Feature", "properties": { }, "geometry": { "type": "LineString", "coordinates": [ [ 649691.823712330078706, 4517979.619834798388183 ], [ 648572.358161458163522, 4517718.376233892515302 ] ] } },
{ "type": "Feature", "properties": { }, "geometry": { "type": "LineString", "coordinates": [ [ 649757.396905329311267, 4517920.866253873333335 ], [ 648681.646816455642693, 4517648.081770998425782 ] ] } },
{ "type": "Feature", "properties": { }, "geometry": { "type": "LineString", "coordinates": [ [ 651983.912815867108293, 4520653.082628816366196 ], [ 650374.484366908436641, 4520543.968835666775703 ] ] } },
{ "type": "Feature", "properties": { }, "geometry": { "type": "LineString", "coordinates": [ [ 652093.0266090168152, 4520705.541183215565979 ], [ 650473.106449178420007, 4520596.427390065975487 ] ] } },
{ "type": "Feature", "properties": { }, "geometry": { "type": "LineString", "coordinates": [ [ 651748.898492159903981, 4520430.658358165062964 ], [ 650072.323093570652418, 4520344.626328950747848 ] ] } },
{ "type": "Feature", "properties": { }, "geometry": { "type": "LineString", "coordinates": [ [ 651660.768120769760571, 4520443.248411221429706 ], [ 650024.061223523691297, 4520374.003119414672256 ] ] } },
{ "type": "Feature", "properties": { }, "geometry": { "type": "LineString", "coordinates": [ [ 651742.603465632069856, 4520491.510281268507242 ], [ 650078.618120098602958, 4520426.461673813872039 ] ] } },
{ "type": "Feature", "properties": { }, "geometry": { "type": "LineString", "coordinates": [ [ 651635.588014658307657, 4520382.396488117985427 ], [ 649956.914273893111385, 4520308.954511960037053 ] ] } },
{ "type": "Feature", "properties": { }, "geometry": { "type": "LineString", "coordinates": [ [ 650194.02693977614399, 4516859.279974686913192 ], [ 648931.874120938358828, 4516770.100432208739221 ] ] } },
{ "type": "Feature", "properties": { }, "geometry": { "type": "LineString", "coordinates": [ [ 650184.584399984334596, 4516784.788827440701425 ], [ 648917.185725706629455, 4516699.805969314649701 ] ] } },
{ "type": "Feature", "properties": { }, "geometry": { "type": "LineString", "coordinates": [ [ 649951.143832908943295, 4517097.966397200711071 ], [ 648679.548474279232323, 4517079.081317617557943 ] ] } },
{ "type": "Feature", "properties": { }, "geometry": { "type": "LineString", "coordinates": [ [ 650018.290782539523207, 4517053.901211505755782 ], [ 648721.515317798475735, 4516997.245972755365074 ] ] } },
{ "type": "Feature", "properties": { }, "geometry": { "type": "LineString", "coordinates": [ [ 650049.765915178926662, 4516978.360893171280622 ], [ 648765.58050349354744, 4516881.837153077125549 ] ] } },
{ "type": "Feature", "properties": { }, "geometry": { "type": "LineString", "coordinates": [ [ 650104.322811753721908, 4516917.508970068767667 ], [ 648855.809217059635557, 4516846.165336086414754 ] ] } },
{ "type": "Feature", "properties": { }, "geometry": { "type": "LineString", "coordinates": [ [ 649953.242175084771588, 4516363.546635617502034 ], [ 648706.826922566629946, 4516162.105786725878716 ] ] } },
{ "type": "Feature", "properties": { }, "geometry": { "type": "LineString", "coordinates": [ [ 650119.011206985451281, 4516250.236158115789294 ], [ 648862.104243587469682, 4516044.598624872043729 ] ] } },
{ "type": "Feature", "properties": { }, "geometry": { "type": "LineString", "coordinates": [ [ 650112.716180457500741, 4516180.990866309963167 ], [ 648889.382691874867305, 4515969.058306537568569 ] ] } },
{ "type": "Feature", "properties": { }, "geometry": { "type": "LineString", "coordinates": [ [ 650110.617838281556033, 4516472.660428767092526 ], [ 648860.005901411524974, 4516327.874818626791239 ] ] } },
{ "type": "Feature", "properties": { }, "geometry": { "type": "LineString", "coordinates": [ [ 649940.652122029103339, 4516556.59411580581218 ], [ 648757.187134789652191, 4516390.825083904899657 ] ] } },
{ "type": "Feature", "properties": { }, "geometry": { "type": "LineString", "coordinates": [ [ 650131.601260041119531, 4516583.872564093209803 ], [ 648920.85782451427076, 4516460.070375711657107 ] ] } },
{ "type": "Feature", "properties": { }, "geometry": { "type": "LineString", "coordinates": [ [ 649892.390251982142217, 4516130.630654086358845 ], [ 648721.51531779835932, 4515920.796436491422355 ] ] } },
{ "type": "Feature", "properties": { }, "geometry": { "type": "LineString", "coordinates": [ [ 650135.797944393008947, 4516126.433969734236598 ], [ 648889.382691874867305, 4515813.780985517427325 ] ] } },
{ "type": "Feature", "properties": { }, "geometry": { "type": "LineString", "coordinates": [ [ 650008.848242747597396, 4517203.932677086442709 ], [ 648712.072778006433509, 4517185.04759750328958 ] ] } },
{ "type": "Feature", "properties": { }, "geometry": { "type": "LineString", "coordinates": [ [ 649859.865948254591785, 4517348.718287227675319 ], [ 648569.385510041378438, 4517325.636523292399943 ] ] } },
{ "type": "Feature", "properties": { }, "geometry": { "type": "LineString", "coordinates": [ [ 649817.899104735464789, 4518097.826444043777883 ], [ 648594.565616152831353, 4517921.565701263956726 ] ] } },
{ "type": "Feature", "properties": { }, "geometry": { "type": "LineString", "coordinates": [ [ 649870.357659134431742, 4518255.202107240445912 ], [ 648336.46952851023525, 4518223.726974600926042 ] ] } },
{ "type": "Feature", "properties": { }, "geometry": { "type": "LineString", "coordinates": [ [ 649935.406266589066945, 4518125.104892331175506 ], [ 648439.288295132108033, 4518234.218685480765998 ] ] } },
{ "type": "Feature", "properties": { }, "geometry": { "type": "LineString", "coordinates": [ [ 650042.421717562829144, 4518093.629759691655636 ], [ 648558.893799161538482, 4518227.923658953048289 ] ] } },
{ "type": "Feature", "properties": { }, "geometry": { "type": "LineString", "coordinates": [ [ 650044.520059738773853, 4518005.499388301745057 ], [ 648537.385791857959703, 4518153.432511705905199 ] ] } },
{ "type": "Feature", "properties": { }, "geometry": { "type": "LineString", "coordinates": [ [ 649976.323939019930549, 4518351.201261789537966 ], [ 648442.435808395734057, 4518353.299603965133429 ] ] } },
{ "type": "Feature", "properties": { }, "geometry": { "type": "LineString", "coordinates": [ [ 650922.676260376465507, 4519484.306036805734038 ], [ 649357.31299711286556, 4519608.108225187286735 ] ] } },
{ "type": "Feature", "properties": { }, "geometry": { "type": "LineString", "coordinates": [ [ 650719.13706930866465, 4519312.241978377103806 ], [ 649082.430172062595375, 4519442.339193286374211 ] ] } },
{ "type": "Feature", "properties": { }, "geometry": { "type": "LineString", "coordinates": [ [ 650530.286273472593166, 4519196.833158699795604 ], [ 648918.759482337976806, 4519291.258556617423892 ] ] } },
{ "type": "Feature", "properties": { }, "geometry": { "type": "LineString", "coordinates": [ [ 650345.632161988411099, 4518949.228781936690211 ], [ 648750.89210826146882, 4519100.309418605640531 ] ] } },
{ "type": "Feature", "properties": { }, "geometry": { "type": "LineString", "coordinates": [ [ 650186.158156615681946, 4518739.394564340822399 ], [ 648725.712002150015905, 4519041.555837678723037 ] ] } },
{ "type": "Feature", "properties": { }, "geometry": { "type": "LineString", "coordinates": [ [ 650087.536074345814995, 4518523.265320217236876 ], [ 648740.400397381628864, 4518865.295094897970557 ] ] } },
{ "type": "Feature", "properties": { }, "geometry": { "type": "LineString", "coordinates": [ [ 657494.68395547196269, 4518007.073144932277501 ], [ 656021.647747950511985, 4518241.038297551684082 ] ] } },
{ "type": "Feature", "properties": { }, "geometry": { "type": "LineString", "coordinates": [ [ 657952.122549830470234, 4517652.453317194245756 ], [ 656485.381368836853653, 4517952.516248355619609 ] ] } },
{ "type": "Feature", "properties": { }, "geometry": { "type": "LineString", "coordinates": [ [ 657857.697151912376285, 4517505.569364877417684 ], [ 656390.955970918759704, 4517849.697481733746827 ] ] } },
{ "type": "Feature", "properties": { }, "geometry": { "type": "LineString", "coordinates": [ [ 655826.501925586489961, 4517826.615717797540128 ], [ 654105.861341302050278, 4517990.286407522857189 ] ] } },
{ "type": "Feature", "properties": { }, "geometry": { "type": "LineString", "coordinates": [ [ 655926.173178944620304, 4519340.569597750902176 ], [ 654390.186706144479103, 4519367.848046038299799 ] ] } },
{ "type": "Feature", "properties": { }, "geometry": { "type": "LineString", "coordinates": [ [ 655808.666017091018148, 4519705.681136366911232 ], [ 654306.253019106108695, 4519596.56734321732074 ] ] } },
{ "type": "Feature", "properties": { }, "geometry": { "type": "LineString", "coordinates": [ [ 656028.991945566376671, 4518939.786242143251002 ], [ 654444.74360271927435, 4518914.606136031448841 ] ] } },
{ "type": "Feature", "properties": { }, "geometry": { "type": "LineString", "coordinates": [ [ 655961.84499593579676, 4518845.360844225622714 ], [ 654358.711573505075648, 4518843.262502049095929 ] ] } },
{ "type": "Feature", "properties": { }, "geometry": { "type": "LineString", "coordinates": [ [ 656234.629478810122237, 4519315.389491639100015 ], [ 654740.609849529108033, 4519244.045857656747103 ] ] } },
{ "type": "Feature", "properties": { }, "geometry": { "type": "LineString", "coordinates": [ [ 654240.155240563442931, 4520940.555506917648017 ], [ 652779.70908609777689, 4520858.720162055455148 ] ] } },
{ "type": "Feature", "properties": { }, "geometry": { "type": "LineString", "coordinates": [ [ 654366.055771120940335, 4520969.932297380641103 ], [ 652916.10132753488142, 4520879.703583815135062 ] ] } },
{ "type": "Feature", "properties": { }, "geometry": { "type": "LineString", "coordinates": [ [ 654466.776195566751994, 4520695.04947233106941 ], [ 652997.936672397190705, 4520588.03402135707438 ] ] } },
{ "type": "Feature", "properties": { }, "geometry": { "type": "LineString", "coordinates": [ [ 654303.10550584201701, 4517060.720823575742543 ], [ 652712.562136466964148, 4517337.701990801841021 ] ] } },
{ "type": "Feature", "properties": { }, "geometry": { "type": "LineString", "coordinates": [ [ 654454.186142510967329, 4517190.818038484081626 ], [ 652777.610743921715766, 4517402.750598256476223 ] ] } },
{ "type": "Feature", "properties": { }, "geometry": { "type": "LineString", "coordinates": [ [ 654584.283357420237735, 4517304.128515985794365 ], [ 652880.429510543588549, 4517499.274338349699974 ] ] } },
{ "type": "Feature", "properties": { }, "geometry": { "type": "LineString", "coordinates": [ [ 654695.495492745889351, 4517425.832362191751599 ], [ 652987.444961517350748, 4517612.584815851412714 ] ] } },
{ "type": "Feature", "properties": { }, "geometry": { "type": "LineString", "coordinates": [ [ 654833.986076359055005, 4517633.568237611092627 ], [ 653159.50901994574815, 4517822.419033447280526 ] ] } },
{ "type": "Feature", "properties": { }, "geometry": { "type": "LineString", "coordinates": [ [ 655077.39376877003815, 4517910.549404837191105 ], [ 653354.654842309653759, 4518000.778118403628469 ] ] } },
{ "type": "Feature", "properties": { }, "geometry": { "type": "LineString", "coordinates": [ [ 654542.316513901110739, 4517285.243436402641237 ], [ 652827.970956144621596, 4517474.094232238829136 ] ] } },
{ "type": "Feature", "properties": { }, "geometry": { "type": "LineString", "coordinates": [ [ 653728.159749630140141, 4516613.773940097540617 ], [ 652011.71584969770629, 4516901.246818203479052 ] ] } },
{ "type": "Feature", "properties": { }, "geometry": { "type": "LineString", "coordinates": [ [ 653816.29012102028355, 4516676.724205376580358 ], [ 652104.042905439739116, 4516928.525266490876675 ] ] } },
{ "type": "Feature", "properties": { }, "geometry": { "type": "LineString", "coordinates": [ [ 653661.012799999560229, 4515988.467971661128104 ], [ 652074.666114976396784, 4516271.744165414944291 ] ] } },
{ "type": "Feature", "properties": { }, "geometry": { "type": "LineString", "coordinates": [ [ 653648.422746943775564, 4516061.909947819076478 ], [ 652062.076061920612119, 4516330.497746341861784 ] ] } },
{ "type": "Feature", "properties": { }, "geometry": { "type": "LineString", "coordinates": [ [ 653025.215120684821159, 4515967.484549900516868 ], [ 651705.357892008149065, 4516181.515451848506927 ] ] } },
{ "type": "Feature", "properties": { }, "geometry": { "type": "LineString", "coordinates": [ [ 653457.473608931875788, 4515793.322149296291173 ], [ 652015.912534049712121, 4516074.500000874511898 ] ] } },
{ "type": "Feature", "properties": { }, "geometry": { "type": "LineString", "coordinates": [ [ 653726.061407454195432, 4515761.847016658633947 ], [ 652097.747878911904991, 4516141.646950506605208 ] ] } },
{ "type": "Feature", "properties": { }, "geometry": { "type": "LineString", "coordinates": [ [ 654076.484550838940777, 4515455.489058968611062 ], [ 652693.677056883578189, 4515866.764125456102192 ] ] } },
{ "type": "Feature", "properties": { }, "geometry": { "type": "LineString", "coordinates": [ [ 654042.911076023709029, 4515285.523342716507614 ], [ 652664.300266420235857, 4515667.421618740074337 ] ] } },
{ "type": "Feature", "properties": { }, "geometry": { "type": "LineString", "coordinates": [ [ 654217.073476628051139, 4515023.230570721440017 ], [ 652823.77427179296501, 4515403.030504569411278 ] ] } },
{ "type": "Feature", "properties": { }, "geometry": { "type": "LineString", "coordinates": [ [ 655840.141149730538018, 4514145.07437008433044 ], [ 654671.364557722699828, 4514801.855471159331501 ] ] } },
{ "type": "Feature", "properties": { }, "geometry": { "type": "LineString", "coordinates": [ [ 653949.534849193296395, 4512560.826027238741517 ], [ 653645.275233679567464, 4512921.740881502628326 ] ] } },
{ "type": "Feature", "properties": { }, "geometry": { "type": "LineString", "coordinates": [ [ 657158.949207318946719, 4511886.20901766885072 ], [ 656724.74807189789135, 4512573.932702356018126 ] ] } },
{ "type": "Feature", "properties": { }, "geometry": { "type": "LineString", "coordinates": [ [ 658092.711475619580597, 4511938.667572068050504 ], [ 657443.92664977745153, 4512596.782857840880752 ] ] } },
{ "type": "Feature", "properties": { }, "geometry": { "type": "LineString", "coordinates": [ [ 658046.547947748564184, 4511879.91399114113301 ], [ 657375.078451442415826, 4512547.186803095042706 ] ] } },
{ "type": "Feature", "properties": { }, "geometry": { "type": "LineString", "coordinates": [ [ 657908.057364135398529, 4511900.897412900812924 ], [ 657226.09615694952663, 4512610.137068374082446 ] ] } },
{ "type": "Feature", "properties": { }, "geometry": { "type": "LineString", "coordinates": [ [ 657626.879512557177804, 4512026.797943457961082 ], [ 656980.590122362598777, 4512704.562466291710734 ] ] } },
{ "type": "Feature", "properties": { }, "geometry": { "type": "LineString", "coordinates": [ [ 657324.718239219509996, 4511890.405702020972967 ], [ 656833.706170045654289, 4512629.022147957235575 ] ] } },
{ "type": "Feature", "properties": { }, "geometry": { "type": "LineString", "coordinates": [ [ 656732.985745599726215, 4511464.442240301519632 ], [ 656377.185180581524037, 4512029.136890014633536 ] ] } },
{ "type": "Feature", "properties": { }, "geometry": { "type": "LineString", "coordinates": [ [ 658630.936243752599694, 4511878.864820051938295 ], [ 658060.187171892379411, 4512688.824899971485138 ] ] } },
{ "type": "Feature", "properties": { }, "geometry": { "type": "LineString", "coordinates": [ [ 658664.509718567947857, 4512036.240483249537647 ], [ 657986.745195733965375, 4512839.905536640435457 ] ] } },
{ "type": "Feature", "properties": { }, "geometry": { "type": "LineString", "coordinates": [ [ 661323.109255504794419, 4512248.173043020069599 ], [ 660487.969069474027492, 4513116.886703866533935 ] ] } },
{ "type": "Feature", "properties": { }, "geometry": { "type": "LineString", "coordinates": [ [ 661999.82460725074634, 4513449.473938756622374 ], [ 661079.506651332834736, 4514120.527436725795269 ] ] } },
{ "type": "Feature", "properties": { }, "geometry": { "type": "LineString", "coordinates": [ [ 662418.29040267970413, 4513049.536066297441721 ], [ 661474.036423499230295, 4513758.775721770711243 ] ] } },
{ "type": "Feature", "properties": { }, "geometry": { "type": "LineString", "coordinates": [ [ 658507.134055371046998, 4516430.168999704532325 ], [ 657309.832316277432255, 4516895.618688327260315 ] ] } },
{ "type": "Feature", "properties": { }, "geometry": { "type": "LineString", "coordinates": [ [ 658549.100898890290409, 4516420.726459912955761 ], [ 657364.5867405628087, 4516903.345160382799804 ] ] } },
{ "type": "Feature", "properties": { }, "geometry": { "type": "LineString", "coordinates": [ [ 658543.855043450370431, 4516658.888296884484589 ], [ 657348.316788672353141, 4517042.340739333070815 ] ] } },
{ "type": "Feature", "properties": { }, "geometry": { "type": "LineString", "coordinates": [ [ 659042.211310239857994, 4516146.89280595164746 ], [ 658097.95733105938416, 4516457.447447992861271 ] ] } },
{ "type": "Feature", "properties": { }, "geometry": { "type": "LineString", "coordinates": [ [ 659205.881999964476563, 4515884.600033956579864 ], [ 658183.989360273582861, 4516327.350233083590865 ] ] } },
{ "type": "Feature", "properties": { }, "geometry": { "type": "LineString", "coordinates": [ [ 660032.628817291231826, 4515433.456466126255691 ], [ 658868.048909635399468, 4515951.746983587741852 ] ] } },
{ "type": "Feature", "properties": { }, "geometry": { "type": "LineString", "coordinates": [ [ 660017.940422059502453, 4515599.225498026236892 ], [ 658935.195859265979379, 4516096.532593728043139 ] ] } },
{ "type": "Feature", "properties": { }, "geometry": { "type": "LineString", "coordinates": [ [ 659298.209055706509389, 4515771.289556454867125 ], [ 658301.496522127068602, 4516188.859649470075965 ] ] } },
{ "type": "Feature", "properties": { }, "geometry": { "type": "LineString", "coordinates": [ [ 660112.365819977596402, 4515217.327222002670169 ], [ 658926.180156862479635, 4515754.313553866930306 ] ] } },
{ "type": "Feature", "properties": { }, "geometry": { "type": "LineString", "coordinates": [ [ 659189.095262556918897, 4516744.920326097868383 ], [ 658139.653752292273566, 4517119.309684122912586 ] ] } },
{ "type": "Feature", "properties": { }, "geometry": { "type": "LineString", "coordinates": [ [ 659256.242212187498808, 4516726.035246514715254 ], [ 658192.382728977478109, 4517091.146785130724311 ] ] } },
{ "type": "Feature", "properties": { }, "geometry": { "type": "LineString", "coordinates": [ [ 658777.820196069427766, 4516788.985511793754995 ], [ 657854.54963864851743, 4517189.768867401406169 ] ] } },
{ "type": "Feature", "properties": { }, "geometry": { "type": "LineString", "coordinates": [ [ 658700.181535559007898, 4516791.083853969350457 ], [ 657741.239161146921106, 4517179.277156521566212 ] ] } },
{ "type": "Feature", "properties": { }, "geometry": { "type": "LineString", "coordinates": [ [ 660965.341914504184388, 4519813.74575843475759 ], [ 659809.155375552130863, 4520124.300400475971401 ] ] } },
{ "type": "Feature", "properties": { }, "geometry": { "type": "LineString", "coordinates": [ [ 662016.611344658420421, 4519589.223145607858896 ], [ 661063.963996774051338, 4519824.237469314597547 ] ] } },
{ "type": "Feature", "properties": { }, "geometry": { "type": "LineString", "coordinates": [ [ 662767.81784365081694, 4519215.718238287605345 ], [ 661785.793705303105526, 4519425.552455882541835 ] ] } },
{ "type": "Feature", "properties": { }, "geometry": { "type": "LineString", "coordinates": [ [ 662346.051066283485852, 4519429.749140234664083 ], [ 661370.321954463724978, 4519626.993304775096476 ] ] } },
{ "type": "Feature", "properties": { }, "geometry": { "type": "LineString", "coordinates": [ [ 665122.157765074283816, 4519429.74914023373276 ], [ 664399.278885457199067, 4519653.222581973299384 ] ] } },
{ "type": "Feature", "properties": { }, "geometry": { "type": "LineString", "coordinates": [ [ 665041.371591299888678, 4519550.403815351426601 ], [ 664309.050171891110949, 4519787.516481234692037 ] ] } },
{ "type": "Feature", "properties": { }, "geometry": { "type": "LineString", "coordinates": [ [ 664851.471624375903048, 4519257.685081804171205 ], [ 664054.101597512373701, 4519476.961839191615582 ] ] } },
{ "type": "Feature", "properties": { }, "geometry": { "type": "LineString", "coordinates": [ [ 665657.235019943211228, 4518836.967475524172187 ], [ 664922.815258358372375, 4519006.933191777206957 ] ] } },
{ "type": "Feature", "properties": { }, "geometry": { "type": "LineString", "coordinates": [ [ 665729.627825013711117, 4518844.311673140153289 ], [ 665038.224078036029823, 4519032.113297888077796 ] ] } },
{ "type": "Feature", "properties": { }, "geometry": { "type": "LineString", "coordinates": [ [ 665841.889131427393295, 4518540.052057626657188 ], [ 665149.436213361681439, 4518795.00063200481236 ] ] } },
{ "type": "Feature", "properties": { }, "geometry": { "type": "LineString", "coordinates": [ [ 665798.873116820235737, 4518855.852555108256638 ], [ 665156.780410977546126, 4519057.293403999879956 ] ] } },
{ "type": "Feature", "properties": { }, "geometry": { "type": "LineString", "coordinates": [ [ 665834.544933811528608, 4518860.049239459447563 ], [ 665218.681505168322474, 4519061.490088352002203 ] ] } },
{ "type": "Feature", "properties": { }, "geometry": { "type": "LineString", "coordinates": [ [ 665864.970895362901501, 4518876.835976867005229 ], [ 665286.877625886816531, 4519075.129312495701015 ] ] } },
{ "type": "Feature", "properties": { }, "geometry": { "type": "LineString", "coordinates": [ [ 665491.46598804264795, 4518748.837104134261608 ], [ 664928.061113798292354, 4518904.114425155334175 ] ] } },
{ "type": "Feature", "properties": { }, "geometry": { "type": "LineString", "coordinates": [ [ 665341.434522461728193, 4518805.492342884652317 ], [ 664754.94788428186439, 4518955.523808466270566 ] ] } },
{ "type": "Feature", "properties": { }, "geometry": { "type": "LineString", "coordinates": [ [ 665249.107466719695367, 4518806.541513972915709 ], [ 664666.81751289172098, 4518961.818834993988276 ] ] } },
{ "type": "Feature", "properties": { }, "geometry": { "type": "LineString", "coordinates": [ [ 664868.258361783577129, 4518823.328251380473375 ], [ 663955.47951524250675, 4519003.785678513348103 ] ] } },
{ "type": "Feature", "properties": { }, "geometry": { "type": "LineString", "coordinates": [ [ 664761.24291080981493, 4518833.819962260313332 ], [ 663821.185615981230512, 4519018.474073744378984 ] ] } },
{ "type": "Feature", "properties": { }, "geometry": { "type": "LineString", "coordinates": [ [ 664310.099342979025096, 4518886.278516660444438 ], [ 663342.763599863043055, 4519106.604445136152208 ] ] } },
{ "type": "Feature", "properties": { }, "geometry": { "type": "LineString", "coordinates": [ [ 664444.917827784200199, 4518878.40973350033164 ], [ 663464.992031612433493, 4519082.998095653951168 ] ] } },
{ "type": "Feature", "properties": { }, "geometry": { "type": "LineString", "coordinates": [ [ 662021.857200098107569, 4520948.948875622823834 ], [ 660974.784454295760952, 4521104.226196643896401 ] ] } },
{ "type": "Feature", "properties": { }, "geometry": { "type": "LineString", "coordinates": [ [ 661952.611908291582949, 4520955.243902150541544 ], [ 660869.867345497943461, 4521112.619565347209573 ] ] } },
{ "type": "Feature", "properties": { }, "geometry": { "type": "LineString", "coordinates": [ [ 661767.957796807400882, 4520665.672681869007647 ], [ 660624.361310911015607, 4520858.720162056386471 ] ] } },
{ "type": "Feature", "properties": { }, "geometry": { "type": "LineString", "coordinates": [ [ 661904.350038244505413, 4520646.787602284923196 ], [ 660720.885051005054265, 4520856.621819880791008 ] ] } },
{ "type": "Feature", "properties": { }, "geometry": { "type": "LineString", "coordinates": [ [ 662093.200834080693312, 4520627.902522701770067 ], [ 660981.079480823711492, 4520802.064923305995762 ] ] } },
{ "type": "Feature", "properties": { }, "geometry": { "type": "LineString", "coordinates": [ [ 661482.583260877290741, 4520818.851660713553429 ], [ 660313.806668869452551, 4521007.702456549741328 ] ] } },
{ "type": "Feature", "properties": { }, "geometry": { "type": "LineString", "coordinates": [ [ 661862.383194725378416, 4520760.098079786635935 ], [ 660716.688366653164849, 4520953.145559974946082 ] ] } },
{ "type": "Feature", "properties": { }, "geometry": { "type": "LineString", "coordinates": [ [ 661788.941218567080796, 4522478.640321893617511 ], [ 660943.309321656706743, 4522617.130905507132411 ] ] } },
{ "type": "Feature", "properties": { }, "geometry": { "type": "LineString", "coordinates": [ [ 661948.415223939809948, 4522365.329844391904771 ], [ 661083.89824744570069, 4522537.393902820535004 ] ] } },
{ "type": "Feature", "properties": { }, "geometry": { "type": "LineString", "coordinates": [ [ 667339.056273972033523, 4522940.800186148844659 ], [ 666908.896127900923602, 4523263.944881246425211 ] ] } },
{ "type": "Feature", "properties": { }, "geometry": { "type": "LineString", "coordinates": [ [ 667848.953422729391605, 4522850.571472583338618 ], [ 667469.153488881303929, 4523175.814509856514633 ] ] } },
{ "type": "Feature", "properties": { }, "geometry": { "type": "LineString", "coordinates": [ [ 666692.76688377733808, 4521935.694283866323531 ], [ 666153.492944556521252, 4522223.167161972261965 ] ] } },
{ "type": "Feature", "properties": { }, "geometry": { "type": "LineString", "coordinates": [ [ 666143.00123367679771, 4521996.546206968836486 ], [ 665551.523276944993995, 4522277.911970168352127 ] ] } },
{ "type": "Feature", "properties": { }, "geometry": { "type": "LineString", "coordinates": [ [ 654178.254146372899413, 4525416.843953779898584 ], [ 652950.723973438260145, 4525418.942295956425369 ] ] } },
{ "type": "Feature", "properties": { }, "geometry": { "type": "LineString", "coordinates": [ [ 654276.876228642766364, 4525444.12240206822753 ], [ 653045.149371356354095, 4525448.319086419418454 ] ] } },
{ "type": "Feature", "properties": { }, "geometry": { "type": "LineString", "coordinates": [ [ 653003.182527837110683, 4524180.920412139967084 ], [ 651779.006606742506847, 4524102.941109499894083 ] ] } },
{ "type": "Feature", "properties": { }, "geometry": { "type": "LineString", "coordinates": [ [ 654136.287302853656001, 4523698.301711670123041 ], [ 652999.979965214151889, 4523616.884836223907769 ] ] } },
{ "type": "Feature", "properties": { }, "geometry": { "type": "LineString", "coordinates": [ [ 653882.387899562949315, 4523677.318289910443127 ], [ 652738.79141366656404, 4523610.171340280212462 ] ] } },
{ "type": "Feature", "properties": { }, "geometry": { "type": "LineString", "coordinates": [ [ 654398.580074848141521, 4523650.039841623045504 ], [ 653244.49187807214912, 4523557.712785881012678 ] ] } },
{ "type": "Feature", "properties": { }, "geometry": { "type": "LineString", "coordinates": [ [ 654637.79108290723525, 4524401.246340615674853 ], [ 653353.605671221856028, 4524277.444152234122157 ] ] } },
{ "type": "Feature", "properties": { }, "geometry": { "type": "LineString", "coordinates": [ [ 654048.156931463512592, 4524241.77233524248004 ], [ 652921.347182974801399, 4524076.003303342498839 ] ] } },
{ "type": "Feature", "properties": { }, "geometry": { "type": "LineString", "coordinates": [ [ 649554.557161652715877, 4524622.621440180577338 ], [ 648101.729176792665385, 4524383.358190236613154 ] ] } },
{ "type": "Feature", "properties": { }, "geometry": { "type": "LineString", "coordinates": [ [ 649835.735013230820186, 4524733.833575505763292 ], [ 648376.463138029328547, 4524465.912978809326887 ] ] } },
{ "type": "Feature", "properties": { }, "geometry": { "type": "LineString", "coordinates": [ [ 651961.355637474684045, 4521416.35459532123059 ], [ 650486.994254528079182, 4521259.437132883816957 ] ] } },
{ "type": "Feature", "properties": { }, "geometry": { "type": "LineString", "coordinates": [ [ 651623.52254714560695, 4521321.929197402670979 ], [ 650121.479937016381882, 4521139.792511768639088 ] ] } },
{ "type": "Feature", "properties": { }, "geometry": { "type": "LineString", "coordinates": [ [ 651680.17778589646332, 4521479.304860600270331 ], [ 650253.305106246029027, 4521317.732513051480055 ] ] } },
{ "type": "Feature", "properties": { }, "geometry": { "type": "LineString", "coordinates": [ [ 651841.75013344513718, 4521456.223096664063632 ], [ 650385.29632657894399, 4521310.884319963864982 ] ] } },
{ "type": "Feature", "properties": { }, "geometry": { "type": "LineString", "coordinates": [ [ 653188.885810409206897, 4522406.772102372720838 ], [ 651938.273873539175838, 4522345.920179270207882 ] ] } },
{ "type": "Feature", "properties": { }, "geometry": { "type": "LineString", "coordinates": [ [ 653415.506765412515961, 4522534.770975106395781 ], [ 652156.501459838589653, 4522494.902473762631416 ] ] } },
{ "type": "Feature", "properties": { }, "geometry": { "type": "LineString", "coordinates": [ [ 653681.996221759007312, 4522847.423959323205054 ], [ 652488.039523639716208, 4522769.785298813134432 ] ] } },
{ "type": "Feature", "properties": { }, "geometry": { "type": "LineString", "coordinates": [ [ 654384.94085070444271, 4522421.460497604683042 ], [ 653182.590783881372772, 4522375.296969733200967 ] ] } },
{ "type": "Feature", "properties": { }, "geometry": { "type": "LineString", "coordinates": [ [ 654764.740784552530386, 4523183.158707475289702 ], [ 653661.012799999443814, 4523134.896837428212166 ] ] } },
{ "type": "Feature", "properties": { }, "geometry": { "type": "LineString", "coordinates": [ [ 665599.530610104440711, 4520543.444250122644007 ], [ 664917.406785038532689, 4520742.871481264941394 ] ] } },
{ "type": "Feature", "properties": { }, "geometry": { "type": "LineString", "coordinates": [ [ 665641.497453623567708, 4520593.804462345317006 ], [ 664970.02795731741935, 4520784.753600357100368 ] ] } },
{ "type": "Feature", "properties": { }, "geometry": { "type": "LineString", "coordinates": [ [ 665649.890822327346541, 4520020.957048309035599 ], [ 664907.077692038728856, 4520255.97137201577425 ] ] } },
{ "type": "Feature", "properties": { }, "geometry": { "type": "LineString", "coordinates": [ [ 666342.343740393058397, 4519391.454395521432161 ], [ 665775.79135288472753, 4519590.796902237460017 ] ] } },
{ "type": "Feature", "properties": { }, "geometry": { "type": "LineString", "coordinates": [ [ 666430.474111783201806, 4519425.027870336547494 ], [ 665882.806803858489729, 4519611.780323997139931 ] ] } },
{ "type": "Feature", "properties": { }, "geometry": { "type": "LineString", "coordinates": [ [ 668187.835684146732092, 4519018.99865928851068 ], [ 667715.708694556495175, 4519243.521272116340697 ] ] } },
{ "type": "Feature", "properties": { }, "geometry": { "type": "LineString", "coordinates": [ [ 668343.113005167571828, 4518647.592094143852592 ], [ 667843.707567289820872, 4518863.721338267438114 ] ] } },
{ "type": "Feature", "properties": { }, "geometry": { "type": "LineString", "coordinates": [ [ 669289.46532652399037, 4518041.171205292455852 ], [ 668773.273151238681749, 4518074.744680108502507 ] ] } },
{ "type": "Feature", "properties": { }, "geometry": { "type": "LineString", "coordinates": [ [ 669025.074212353443727, 4518112.514839275740087 ], [ 668538.258827531593852, 4518200.645210665650666 ] ] } },
{ "type": "Feature", "properties": { }, "geometry": { "type": "LineString", "coordinates": [ [ 658049.69546101312153, 4521452.026412314735353 ], [ 656837.378268854110502, 4521763.630225445143878 ] ] } },
{ "type": "Feature", "properties": { }, "geometry": { "type": "LineString", "coordinates": [ [ 656584.528036651201546, 4521973.989028584212065 ], [ 655224.80230663146358, 4522250.970195811241865 ] ] } },
{ "type": "Feature", "properties": { }, "geometry": { "type": "LineString", "coordinates": [ [ 654499.82508483924903, 4514716.872613040730357 ], [ 653108.624222180107608, 4515186.901260455138981 ] ] } },
{ "type": "Feature", "properties": { }, "geometry": { "type": "LineString", "coordinates": [ [ 654388.612949513480999, 4514842.773143598809838 ], [ 653010.002139910124242, 4515258.244894437491894 ] ] } }
]
}
