{
"type": "FeatureCollection",
"name": "20210519_081237_40_106c_3B_AnalyticMS",
"crs": { "type": "name", "properties": { "name": "urn:ogc:def:crs:OGC:1.3:CRS84" } },
"features": [
{ "type": "Feature", "geometry": { "type": "LineString", "coordinates": [ [ 0.0, 0.0 ], [ 1.0, 1.0 ] ] } },
{ "type": "Feature", "properties": { }, "geometry": { "type": "LineString", "coordinates": [ [ 655076.416285357787274, 4499417.293209236115217 ], [ 655346.04347351915203, 4499003.211546060629189 ] ] } },
{ "type": "Feature", "properties": { }, "geometry": { "type": "LineString", "coordinates": [ [ 655573.728759359451942, 4500140.8710742527619 ], [ 655892.952031388296746, 4499678.965077384375036 ] ] } },
{ "type": "Feature", "properties": { }, "geometry": { "type": "LineString", "coordinates": [ [ 655576.085690515814349, 4500041.879965684376657 ], [ 655900.492907735868357, 4499613.177432009018958 ] ] } },
{ "type": "Feature", "properties": { }, "geometry": { "type": "LineString", "coordinates": [ [ 655566.657965890131891, 4500338.853291391395032 ], [ 655905.823527223197743, 4499975.009481586515903 ] ] } },
{ "type": "Feature", "properties": { }, "geometry": { "type": "LineString", "coordinates": [ [ 654930.286553660524078, 4498884.626767888665199 ], [ 655154.195013519143686, 4498420.311330076307058 ] ] } },
{ "type": "Feature", "properties": { }, "geometry": { "type": "LineString", "coordinates": [ [ 654850.150894342805259, 4498931.765391016378999 ], [ 655102.342528078239411, 4498528.730163271538913 ] ] } },
{ "type": "Feature", "properties": { }, "geometry": { "type": "LineString", "coordinates": [ [ 654508.39587666396983, 4498212.901388313621283 ], [ 654720.519680740428157, 4497908.85726913716644 ] ] } },
{ "type": "Feature", "properties": { }, "geometry": { "type": "LineString", "coordinates": [ [ 654317.484452995005995, 4497677.878015809692442 ], [ 654675.737988768727519, 4497404.474001666530967 ] ] } },
{ "type": "Feature", "properties": { }, "geometry": { "type": "LineString", "coordinates": [ [ 654425.903286189772189, 4497435.114106699824333 ], [ 654845.43703202996403, 4497197.064059902913868 ] ] } },
{ "type": "Feature", "properties": { }, "geometry": { "type": "LineString", "coordinates": [ [ 654531.965188227943145, 4497293.698237315751612 ], [ 655017.493006447679363, 4497091.002157864160836 ] ] } },
{ "type": "Feature", "properties": { }, "geometry": { "type": "LineString", "coordinates": [ [ 654440.044873128179461, 4497286.627443846315145 ], [ 654913.788035565754399, 4497079.217502082698047 ] ] } },
{ "type": "Feature", "properties": { }, "geometry": { "type": "LineString", "coordinates": [ [ 654112.431442387402058, 4495886.610336940735579 ], [ 654647.454814891563728, 4495361.014689061790705 ] ] } },
{ "type": "Feature", "properties": { }, "geometry": { "type": "LineString", "coordinates": [ [ 653829.599703618674539, 4495518.929076541215181 ], [ 654340.303468503174372, 4494998.234240778721869 ] ] } },
{ "type": "Feature", "properties": { }, "geometry": { "type": "LineString", "coordinates": [ [ 653468.989236688590609, 4495386.940931782126427 ], [ 653921.520018718554638, 4494792.994280368089676 ] ] } },
{ "type": "Feature", "properties": { }, "geometry": { "type": "LineString", "coordinates": [ [ 653141.375805948162451, 4495049.899776415899396 ], [ 653509.057066347566433, 4494465.380849627777934 ] ] } },
{ "type": "Feature", "properties": { }, "geometry": { "type": "LineString", "coordinates": [ [ 652710.057404325692914, 4494201.404560109600425 ], [ 653362.927334650186822, 4493977.496100251562893 ] ] } },
{ "type": "Feature", "properties": { }, "geometry": { "type": "LineString", "coordinates": [ [ 653004.673798876465298, 4494470.094711939804256 ], [ 653872.024464433896355, 4494217.90307820495218 ] ] } },
{ "type": "Feature", "properties": { }, "geometry": { "type": "LineString", "coordinates": [ [ 652910.396552620222792, 4494246.186252081766725 ], [ 653478.514567505917512, 4494000.782699033617973 ] ] } },
{ "type": "Feature", "properties": { }, "geometry": { "type": "LineString", "coordinates": [ [ 652917.467346089426428, 4494295.681806365959346 ], [ 653430.197702462202869, 4494066.155921244993806 ] ] } },
{ "type": "Feature", "properties": { }, "geometry": { "type": "LineString", "coordinates": [ [ 652514.432118344004266, 4493998.708480658009648 ], [ 653089.523320507025346, 4493720.590604201890528 ] ] } },
{ "type": "Feature", "properties": { }, "geometry": { "type": "LineString", "coordinates": [ [ 651654.152246255776845, 4493803.083194676786661 ], [ 652132.609271006193012, 4493550.891560941003263 ] ] } },
{ "type": "Feature", "properties": { }, "geometry": { "type": "LineString", "coordinates": [ [ 651684.792351289070211, 4494818.920523087494075 ], [ 651936.983985024504364, 4494220.26000936049968 ] ] } },
{ "type": "Feature", "properties": { }, "geometry": { "type": "LineString", "coordinates": [ [ 651781.42652870179154, 4494967.407185941003263 ], [ 652045.402818219270557, 4494413.528364185243845 ] ] } },
{ "type": "Feature", "properties": { }, "geometry": { "type": "LineString", "coordinates": [ [ 651795.568115640198812, 4495075.826019136235118 ], [ 652083.11371672176756, 4494512.519472754560411 ] ] } },
{ "type": "Feature", "properties": { }, "geometry": { "type": "LineString", "coordinates": [ [ 652021.833506655180827, 4495474.147384568117559 ], [ 652384.800904741627164, 4494920.268562813289464 ] ] } },
{ "type": "Feature", "properties": { }, "geometry": { "type": "LineString", "coordinates": [ [ 651504.487117824144661, 4494281.540219427086413 ], [ 651726.038646526285447, 4493701.735154950991273 ] ] } },
{ "type": "Feature", "properties": { }, "geometry": { "type": "LineString", "coordinates": [ [ 652098.433769238530658, 4495888.967268096283078 ], [ 652515.610583922360092, 4495434.079554909840226 ] ] } },
{ "type": "Feature", "properties": { }, "geometry": { "type": "LineString", "coordinates": [ [ 652383.622439163620584, 4496259.005459651350975 ], [ 652895.076500103692524, 4495792.333090683445334 ] ] } },
{ "type": "Feature", "properties": { }, "geometry": { "type": "LineString", "coordinates": [ [ 652444.902649230207317, 4496233.079216931015253 ], [ 652923.359673980623484, 4495731.052880616858602 ] ] } },
{ "type": "Feature", "properties": { }, "geometry": { "type": "LineString", "coordinates": [ [ 652911.575018198695034, 4497017.937292015179992 ], [ 653441.159601304098032, 4496521.158099258318543 ] ] } },
{ "type": "Feature", "properties": { }, "geometry": { "type": "LineString", "coordinates": [ [ 652824.368565411656164, 4496650.256031615659595 ], [ 653368.819662541500293, 4496134.08810836263001 ] ] } },
{ "type": "Feature", "properties": { }, "geometry": { "type": "LineString", "coordinates": [ [ 652713.592801060643978, 4496480.556988354772329 ], [ 653229.760724313557148, 4496044.524724419228733 ] ] } },
{ "type": "Feature", "properties": { }, "geometry": { "type": "LineString", "coordinates": [ [ 653076.560199147090316, 4497694.376533903181553 ], [ 653567.631799014168791, 4497077.882797888480127 ] ] } },
{ "type": "Feature", "properties": { }, "geometry": { "type": "LineString", "coordinates": [ [ 653182.622101185377687, 4497585.957700708881021 ], [ 653698.790024438290857, 4496975.512531199492514 ] ] } },
{ "type": "Feature", "properties": { }, "geometry": { "type": "LineString", "coordinates": [ [ 653126.055753431632183, 4497387.975483570247889 ], [ 653636.799837237107567, 4496829.553938853554428 ] ] } },
{ "type": "Feature", "properties": { }, "geometry": { "type": "LineString", "coordinates": [ [ 653067.132474521524273, 4497277.199719219468534 ], [ 653582.713551709195599, 4496735.683029836975038 ] ] } },
{ "type": "Feature", "properties": { }, "geometry": { "type": "LineString", "coordinates": [ [ 653173.194376559811644, 4498212.90138831268996 ], [ 653646.160925117204897, 4497444.005346078425646 ] ] } },
{ "type": "Feature", "properties": { }, "geometry": { "type": "LineString", "coordinates": [ [ 653217.976068531512283, 4498116.267210899852216 ], [ 653682.045095323352143, 4497374.83730785548687 ] ] } },
{ "type": "Feature", "properties": { }, "geometry": { "type": "LineString", "coordinates": [ [ 653192.049825811060145, 4498587.653442181646824 ], [ 653678.924732696614228, 4497773.203603186644614 ] ] } },
{ "type": "Feature", "properties": { }, "geometry": { "type": "LineString", "coordinates": [ [ 654349.303023606422357, 4498276.538529535755515 ], [ 654608.565450811060145, 4497963.066685733385384 ] ] } },
{ "type": "Feature", "properties": { }, "geometry": { "type": "LineString", "coordinates": [ [ 654625.063968905829825, 4498429.739054702222347 ], [ 654839.54470413888339, 4498090.340968179516494 ] ] } },
{ "type": "Feature", "properties": { }, "geometry": { "type": "LineString", "coordinates": [ [ 653210.905275062075816, 4498653.647514560259879 ], [ 653689.362299812491983, 4497871.146370633505285 ] ] } },
{ "type": "Feature", "properties": { }, "geometry": { "type": "LineString", "coordinates": [ [ 653175.551307716057636, 4499049.61194883659482 ], [ 653652.401650370447896, 4498029.593399005942047 ] ] } },
{ "type": "Feature", "properties": { }, "geometry": { "type": "LineString", "coordinates": [ [ 653175.551307716057636, 4498964.762427206151187 ], [ 653665.792988248402253, 4498005.491446549072862 ] ] } },
{ "type": "Feature", "properties": { }, "geometry": { "type": "LineString", "coordinates": [ [ 653206.191412749234587, 4499099.107503120787442 ], [ 653722.089749031350948, 4498097.461286134086549 ] ] } },
{ "type": "Feature", "properties": { }, "geometry": { "type": "LineString", "coordinates": [ [ 654797.119943323312327, 4499264.092684069648385 ], [ 654999.816022774204612, 4498806.848039726726711 ] ] } },
{ "type": "Feature", "properties": { }, "geometry": { "type": "LineString", "coordinates": [ [ 654973.889780053752474, 4499165.101575500331819 ], [ 655244.936863040435128, 4498790.349521632306278 ] ] } },
{ "type": "Feature", "properties": { }, "geometry": { "type": "LineString", "coordinates": [ [ 655313.287866576458327, 4499544.567491682246327 ], [ 655541.910188747802749, 4499167.458506657741964 ] ] } },
{ "type": "Feature", "properties": { }, "geometry": { "type": "LineString", "coordinates": [ [ 655499.485427932464518, 4499817.971505825407803 ], [ 655779.960235544829629, 4499424.364002705551684 ] ] } },
{ "type": "Feature", "properties": { }, "geometry": { "type": "LineString", "coordinates": [ [ 653189.692894654581323, 4499636.487806782126427 ], [ 653621.011296276934445, 4498726.712380409240723 ] ] } },
{ "type": "Feature", "properties": { }, "geometry": { "type": "LineString", "coordinates": [ [ 653177.908238872536458, 4499577.564527872018516 ], [ 653595.085053556482308, 4498653.647514561191201 ] ] } },
{ "type": "Feature", "properties": { }, "geometry": { "type": "LineString", "coordinates": [ [ 653213.262206218671054, 4499398.437759985215962 ], [ 653609.22664049488958, 4498549.942543678916991 ] ] } },
{ "type": "Feature", "properties": { }, "geometry": { "type": "LineString", "coordinates": [ [ 653123.698822275269777, 4500150.298798878677189 ], [ 653434.813734920811839, 4499596.419977122917771 ] ] } },
{ "type": "Feature", "properties": { }, "geometry": { "type": "LineString", "coordinates": [ [ 653060.061681052320637, 4499971.172030991874635 ], [ 653377.273426904575899, 4499415.261931655928493 ] ] } },
{ "type": "Feature", "properties": { }, "geometry": { "type": "LineString", "coordinates": [ [ 653118.984959962428547, 4499865.110128953121603 ], [ 653418.04941560223233, 4499292.917713676579297 ] ] } },
{ "type": "Feature", "properties": { }, "geometry": { "type": "LineString", "coordinates": [ [ 655490.057703306665644, 4502262.109115018509328 ], [ 655600.466790812788531, 4501989.886136375367641 ] ] } },
{ "type": "Feature", "properties": { }, "geometry": { "type": "LineString", "coordinates": [ [ 655433.49135555292014, 4502054.69917325489223 ], [ 655595.266186435008422, 4501799.023955713957548 ] ] } },
{ "type": "Feature", "properties": { }, "geometry": { "type": "LineString", "coordinates": [ [ 655150.659616784192622, 4501993.418963188305497 ], [ 655244.48542115977034, 4501645.086066135205328 ] ] } },
{ "type": "Feature", "properties": { }, "geometry": { "type": "LineString", "coordinates": [ [ 655624.402779221883975, 4501837.861506865359843 ], [ 655718.680025478126481, 4501536.174318845383823 ] ] } },
{ "type": "Feature", "properties": { }, "geometry": { "type": "LineString", "coordinates": [ [ 655645.615159629494883, 4502014.631343595683575 ], [ 655721.036956634488888, 4501684.660981698893011 ] ] } },
{ "type": "Feature", "properties": { }, "geometry": { "type": "LineString", "coordinates": [ [ 655490.057703306665644, 4501175.563851915299892 ], [ 655697.467645070399158, 4500859.735076956450939 ] ] } },
{ "type": "Feature", "properties": { }, "geometry": { "type": "LineString", "coordinates": [ [ 655520.69780833995901, 4501347.61982633266598 ], [ 655735.17854357289616, 4501045.93263831268996 ] ] } },
{ "type": "Feature", "properties": { }, "geometry": { "type": "LineString", "coordinates": [ [ 655544.267119904048741, 4501500.820351499132812 ], [ 655723.393887790851295, 4501269.841098171658814 ] ] } },
{ "type": "Feature", "properties": { }, "geometry": { "type": "LineString", "coordinates": [ [ 655574.907224937342107, 4501679.947119385935366 ], [ 655706.895369696081616, 4501439.540141432546079 ] ] } },
{ "type": "Feature", "properties": { }, "geometry": { "type": "LineString", "coordinates": [ [ 654240.884190411656164, 4503659.769290766678751 ], [ 654474.405927932821214, 4502993.927819042466581 ] ] } },
{ "type": "Feature", "properties": { }, "geometry": { "type": "LineString", "coordinates": [ [ 654224.385672316886485, 4503723.406431989744306 ], [ 654475.446048808400519, 4503055.294950698502362 ] ] } },
{ "type": "Feature", "properties": { }, "geometry": { "type": "LineString", "coordinates": [ [ 654238.527259255293757, 4503824.754471714608371 ], [ 654486.887378439307213, 4503161.387280003167689 ] ] } },
{ "type": "Feature", "properties": { }, "geometry": { "type": "LineString", "coordinates": [ [ 654207.88715422200039, 4503919.031717970967293 ], [ 654511.931273398338817, 4503233.164751457050443 ] ] } },
{ "type": "Feature", "properties": { }, "geometry": { "type": "LineString", "coordinates": [ [ 654097.111389870988205, 4504545.975405574776232 ], [ 654427.080428095650859, 4503995.044161749072373 ] ] } },
{ "type": "Feature", "properties": { }, "geometry": { "type": "LineString", "coordinates": [ [ 654115.966839122236706, 4504442.270434693433344 ], [ 654457.721856801072136, 4503805.899022463709116 ] ] } },
{ "type": "Feature", "properties": { }, "geometry": { "type": "LineString", "coordinates": [ [ 654078.255940619739704, 4504659.108101082034409 ], [ 654346.991120679304004, 4504185.906342409551144 ] ] } },
{ "type": "Feature", "properties": { }, "geometry": { "type": "LineString", "coordinates": [ [ 654092.397527558146976, 4504748.671485025435686 ], [ 654291.34465383796487, 4504321.642116667702794 ] ] } },
{ "type": "Feature", "properties": { }, "geometry": { "type": "LineString", "coordinates": [ [ 654226.742603473248892, 4503492.427178661338985 ], [ 654428.640609409078024, 4502810.866544947959483 ] ] } },
{ "type": "Feature", "properties": { }, "geometry": { "type": "LineString", "coordinates": [ [ 654245.598052724497393, 4503386.365276622585952 ], [ 654431.795614080619998, 4502731.138415141962469 ] ] } },
{ "type": "Feature", "properties": { }, "geometry": { "type": "LineString", "coordinates": [ [ 654240.884190411656164, 4503299.158823835663497 ], [ 654401.155509047326632, 4502625.076513104140759 ] ] } },
{ "type": "Feature", "properties": { }, "geometry": { "type": "LineString", "coordinates": [ [ 654226.742603473248892, 4503195.45385295432061 ], [ 654394.084715578122996, 4502535.513129160739481 ] ] } },
{ "type": "Feature", "properties": { }, "geometry": { "type": "LineString", "coordinates": [ [ 654167.819324563140981, 4503068.179570508189499 ], [ 654333.989609735202976, 4502361.534326716326177 ] ] } },
{ "type": "Feature", "properties": { }, "geometry": { "type": "LineString", "coordinates": [ [ 654092.397527558146976, 4502752.350795549340546 ], [ 654273.881226601428352, 4502031.129861689172685 ] ] } },
{ "type": "Feature", "properties": { }, "geometry": { "type": "LineString", "coordinates": [ [ 654139.536150686210021, 4502903.194389559328556 ], [ 654306.878262791084126, 4502167.831868761219084 ] ] } },
{ "type": "Feature", "properties": { }, "geometry": { "type": "LineString", "coordinates": [ [ 654052.329697899171151, 4502632.147306572645903 ], [ 654236.170328098814934, 4501873.215474209748209 ] ] } },
{ "type": "Feature", "properties": { }, "geometry": { "type": "LineString", "coordinates": [ [ 654040.545042117126286, 4502502.516092970967293 ], [ 654229.099534629611298, 4501745.941191764548421 ] ] } },
{ "type": "Feature", "properties": { }, "geometry": { "type": "LineString", "coordinates": [ [ 654049.972766742808744, 4502377.598741681315005 ], [ 654233.813396942452528, 4501625.737702787853777 ] ] } },
{ "type": "Feature", "properties": { }, "geometry": { "type": "LineString", "coordinates": [ [ 654049.972766742808744, 4502222.04128535836935 ], [ 654215.415829924168065, 4501487.832791268825531 ] ] } },
{ "type": "Feature", "properties": { }, "geometry": { "type": "LineString", "coordinates": [ [ 654068.828215994057246, 4502104.194727538153529 ], [ 654228.937401306233369, 4501333.894901690073311 ] ] } },
{ "type": "Feature", "properties": { }, "geometry": { "type": "LineString", "coordinates": [ [ 654064.114353681216016, 4502009.917481281794608 ], [ 654262.096570819267072, 4501269.841098169796169 ] ] } },
{ "type": "Feature", "properties": { }, "geometry": { "type": "LineString", "coordinates": [ [ 653962.766313955769874, 4501880.286267679184675 ], [ 654151.320806468254887, 4501114.283641847781837 ] ] } },
{ "type": "Feature", "properties": { }, "geometry": { "type": "LineString", "coordinates": [ [ 653920.341553140431643, 4501821.362988769076765 ], [ 654115.966839122120291, 4501057.717294094152749 ] ] } },
{ "type": "Feature", "properties": { }, "geometry": { "type": "LineString", "coordinates": [ [ 653809.565788789303042, 4501588.026804285123944 ], [ 653991.049487832584418, 4500819.667247296310961 ] ] } },
{ "type": "Feature", "properties": { }, "geometry": { "type": "LineString", "coordinates": [ [ 653856.704411917482503, 4501672.876325915567577 ], [ 654042.901973273605108, 4500906.873700083233416 ] ] } },
{ "type": "Feature", "properties": { }, "geometry": { "type": "LineString", "coordinates": [ [ 653724.716267158742994, 4501510.248076123185456 ], [ 653929.769277766114101, 4500730.103863352909684 ] ] } },
{ "type": "Feature", "properties": { }, "geometry": { "type": "LineString", "coordinates": [ [ 653691.719230969087221, 4501448.967866056598723 ], [ 653894.415310419979505, 4500645.254341722466052 ] ] } },
{ "type": "Feature", "properties": { }, "geometry": { "type": "LineString", "coordinates": [ [ 653661.079125935793854, 4501404.186174085363746 ], [ 653871.135820120805874, 4500545.483278029598296 ] ] } },
{ "type": "Feature", "properties": { }, "geometry": { "type": "LineString", "coordinates": [ [ 653644.58060784090776, 4501302.838134359568357 ], [ 653828.421238040551543, 4500454.342918053269386 ] ] } },
{ "type": "Feature", "properties": { }, "geometry": { "type": "LineString", "coordinates": [ [ 653519.663256551604718, 4500921.015287023037672 ], [ 653719.489446844090708, 4500124.65687255654484 ] ] } },
{ "type": "Feature", "properties": { }, "geometry": { "type": "LineString", "coordinates": [ [ 653555.017223897739314, 4501010.578670966438949 ], [ 653754.642282060696743, 4500230.326652744784951 ] ] } },
{ "type": "Feature", "properties": { }, "geometry": { "type": "LineString", "coordinates": [ [ 653335.822626351960935, 4500621.685030159540474 ], [ 653623.368227433413267, 4499926.390339019708335 ] ] } },
{ "type": "Feature", "properties": { }, "geometry": { "type": "LineString", "coordinates": [ [ 653265.114691659808159, 4500461.413711523637176 ], [ 653524.377118864445947, 4499761.405158070847392 ] ] } },
{ "type": "Feature", "properties": { }, "geometry": { "type": "LineString", "coordinates": [ [ 656197.170368601218797, 4503426.986485091969371 ], [ 656152.388676629518159, 4503087.58839857019484 ] ] } },
{ "type": "Feature", "properties": { }, "geometry": { "type": "LineString", "coordinates": [ [ 656162.823203757754527, 4503497.484367124736309 ], [ 656132.183098724461161, 4503158.086280602030456 ] ] } },
{ "type": "Feature", "properties": { }, "geometry": { "type": "LineString", "coordinates": [ [ 656338.552919612731785, 4503721.049500832334161 ], [ 656300.842021110234782, 4503369.866758527234197 ] ] } },
{ "type": "Feature", "properties": { }, "geometry": { "type": "LineString", "coordinates": [ [ 656051.007318531163037, 4503320.371204243041575 ], [ 656038.747724741813727, 4503023.571263992227614 ] ] } },
{ "type": "Feature", "properties": { }, "geometry": { "type": "LineString", "coordinates": [ [ 655987.370177308213897, 4503270.875649958848953 ], [ 655989.727108464576304, 4502980.973117720335722 ] ] } },
{ "type": "Feature", "properties": { }, "geometry": { "type": "LineString", "coordinates": [ [ 655944.945416492875665, 4503219.023164517246187 ], [ 655964.37908214086201, 4502946.082258764654398 ] ] } },
{ "type": "Feature", "properties": { }, "geometry": { "type": "LineString", "coordinates": [ [ 655666.827540036989376, 4502759.311491477303207 ], [ 655709.252300852327608, 4502445.839647674933076 ] ] } },
{ "type": "Feature", "properties": { }, "geometry": { "type": "LineString", "coordinates": [ [ 657017.349092657561414, 4505613.665219425223768 ], [ 656985.745278133195825, 4505357.407486016862094 ] ] } },
{ "type": "Feature", "properties": { }, "geometry": { "type": "LineString", "coordinates": [ [ 658207.599326642579399, 4505806.933574250899255 ], [ 658118.035942699178122, 4505559.455802828073502 ] ] } },
{ "type": "Feature", "properties": { }, "geometry": { "type": "LineString", "coordinates": [ [ 665160.546238039969467, 4500878.590526206418872 ], [ 665379.74083558563143, 4501050.646500623784959 ] ] } },
{ "type": "Feature", "properties": { }, "geometry": { "type": "LineString", "coordinates": [ [ 665195.900205385987647, 4500732.460794509388506 ], [ 665398.596284836879931, 4500906.873700083233416 ] ] } },
{ "type": "Feature", "properties": { }, "geometry": { "type": "LineString", "coordinates": [ [ 665219.469516950077377, 4500532.121646214276552 ], [ 665405.667078306199983, 4500678.25137791223824 ] ] } },
{ "type": "Feature", "properties": { }, "geometry": { "type": "LineString", "coordinates": [ [ 664726.870905261253938, 4500310.570117512717843 ], [ 665028.558093281229958, 4500459.056780366227031 ] ] } },
{ "type": "Feature", "properties": { }, "geometry": { "type": "LineString", "coordinates": [ [ 664722.157042948412709, 4500058.378483776934445 ], [ 665037.985817906796001, 4500211.579008943401277 ] ] } },
{ "type": "Feature", "properties": { }, "geometry": { "type": "LineString", "coordinates": [ [ 664670.304557507508434, 4499874.537853577174246 ], [ 664960.207089745439589, 4500032.452241056598723 ] ] } },
{ "type": "Feature", "properties": { }, "geometry": { "type": "LineString", "coordinates": [ [ 664458.180753430933692, 4499584.635321339592338 ], [ 664724.513974104775116, 4499730.765053036622703 ] ] } },
{ "type": "Feature", "properties": { }, "geometry": { "type": "LineString", "coordinates": [ [ 663463.555805427604355, 4500176.225041597150266 ], [ 663824.166272357688285, 4500329.425566763617098 ] ] } },
{ "type": "Feature", "properties": { }, "geometry": { "type": "LineString", "coordinates": [ [ 663491.838979304535314, 4500579.260269342921674 ], [ 663791.169236168032512, 4500789.027142263017595 ] ] } },
{ "type": "Feature", "properties": { }, "geometry": { "type": "LineString", "coordinates": [ [ 663560.189982840209268, 4500364.779534109868109 ], [ 663899.58806936268229, 4500565.118682404048741 ] ] } },
{ "type": "Feature", "properties": { }, "geometry": { "type": "LineString", "coordinates": [ [ 663711.033576850197278, 4500506.19540349394083 ], [ 664017.434627183014527, 4500723.033069883473217 ] ] } },
{ "type": "Feature", "properties": { }, "geometry": { "type": "LineString", "coordinates": [ [ 663069.948302307864651, 4499398.437759982421994 ], [ 663673.322678347816691, 4499589.349183651618659 ] ] } },
{ "type": "Feature", "properties": { }, "geometry": { "type": "LineString", "coordinates": [ [ 662386.438266950077377, 4498787.992590473033488 ], [ 663084.089889246271923, 4499059.039673459716141 ] ] } },
{ "type": "Feature", "properties": { }, "geometry": { "type": "LineString", "coordinates": [ [ 663001.597298772074282, 4499165.101575498469174 ], [ 663633.254848688840866, 4499450.290245423093438 ] ] } },
{ "type": "Feature", "properties": { }, "geometry": { "type": "LineString", "coordinates": [ [ 661705.285162748768926, 4498691.358413061127067 ], [ 662560.851172524155118, 4499028.399568427354097 ] ] } },
{ "type": "Feature", "properties": { }, "geometry": { "type": "LineString", "coordinates": [ [ 663456.485011958400719, 4499577.564527869224548 ], [ 663897.231138206319883, 4499853.325473168864846 ] ] } },
{ "type": "Feature", "properties": { }, "geometry": { "type": "LineString", "coordinates": [ [ 664208.346050851861946, 4500426.059744174592197 ], [ 664597.239691658876836, 4500718.319207568652928 ] ] } },
{ "type": "Feature", "properties": { }, "geometry": { "type": "LineString", "coordinates": [ [ 664512.390170028316788, 4500013.596791803836823 ], [ 664844.717463081586175, 4500209.22207778505981 ] ] } },
{ "type": "Feature", "properties": { }, "geometry": { "type": "LineString", "coordinates": [ [ 673944.828657964942977, 4504100.515417009592056 ], [ 674189.949498231173493, 4503742.261881235986948 ] ] } },
{ "type": "Feature", "properties": { }, "geometry": { "type": "LineString", "coordinates": [ [ 673739.77564735757187, 4504175.937214015051723 ], [ 673892.731339249061421, 4503805.486195131205022 ] ] } },
{ "type": "Feature", "properties": { }, "geometry": { "type": "LineString", "coordinates": [ [ 673183.539894445799291, 4504524.763025162741542 ], [ 673204.752274853410199, 4504145.297108981758356 ] ] } },
{ "type": "Feature", "properties": { }, "geometry": { "type": "LineString", "coordinates": [ [ 672129.991667532362044, 4505988.417273290455341 ], [ 671936.723312707035802, 4505717.370190303772688 ] ] } },
{ "type": "Feature", "properties": { }, "geometry": { "type": "LineString", "coordinates": [ [ 672591.950174187892117, 4505168.205230861902237 ], [ 672507.100652557215653, 4504892.444285562261939 ] ] } },
{ "type": "Feature", "properties": { }, "geometry": { "type": "LineString", "coordinates": [ [ 672707.439800851745531, 4505026.789361476898193 ], [ 672601.37789881345816, 4504748.671485020779073 ] ] } },
{ "type": "Feature", "properties": { }, "geometry": { "type": "LineString", "coordinates": [ [ 672759.292286292766221, 4504859.44724937248975 ], [ 672669.728902349248528, 4504595.470959855243564 ] ] } },
{ "type": "Feature", "properties": { }, "geometry": { "type": "LineString", "coordinates": [ [ 673428.660734712146223, 4505062.143328823149204 ], [ 673117.54582206660416, 4504762.813071959652007 ] ] } },
{ "type": "Feature", "properties": { }, "geometry": { "type": "LineString", "coordinates": [ [ 672302.047641950077377, 4505568.8835274502635 ], [ 672198.813233992783353, 4505254.065788869746029 ] ] } },
{ "type": "Feature", "properties": { }, "geometry": { "type": "LineString", "coordinates": [ [ 672162.988703722134233, 4506723.779794089496136 ], [ 671717.528715161373839, 4506693.139689056202769 ] ] } },
{ "type": "Feature", "properties": { }, "geometry": { "type": "LineString", "coordinates": [ [ 672672.085833505843766, 4506719.065931776538491 ], [ 672125.27780521963723, 4506700.210482524707913 ] ] } },
{ "type": "Feature", "properties": { }, "geometry": { "type": "LineString", "coordinates": [ [ 672735.722974728792906, 4506721.422862933017313 ], [ 672160.631772565771826, 4506690.782757899723947 ] ] } },
{ "type": "Feature", "properties": { }, "geometry": { "type": "LineString", "coordinates": [ [ 672627.304141534143128, 4506676.641170960851014 ], [ 672026.297588000656106, 4506609.981473138555884 ] ] } },
{ "type": "Feature", "properties": { }, "geometry": { "type": "LineString", "coordinates": [ [ 672834.714083297876641, 4506575.293131235986948 ], [ 672203.056533381110057, 4506544.653026202693582 ] ] } },
{ "type": "Feature", "properties": { }, "geometry": { "type": "LineString", "coordinates": [ [ 673195.324550227960572, 4506542.296095046214759 ], [ 672633.194928639335558, 4506408.978509653359652 ] ] } },
{ "type": "Feature", "properties": { }, "geometry": { "type": "LineString", "coordinates": [ [ 671969.720348896807991, 4506184.042559272609651 ], [ 671790.593581010005437, 4505931.850925536826253 ] ] } },
{ "type": "Feature", "properties": { }, "geometry": { "type": "LineString", "coordinates": [ [ 671901.369345361134037, 4506499.871334230527282 ], [ 671632.679193530813791, 4506285.390598997473717 ] ] } },
{ "type": "Feature", "properties": { }, "geometry": { "type": "LineString", "coordinates": [ [ 671778.808925228076987, 4508189.790973373688757 ], [ 671404.056871359585784, 4507942.313201951794326 ] ] } },
{ "type": "Feature", "properties": { }, "geometry": { "type": "LineString", "coordinates": [ [ 671785.879718697280623, 4508041.30431052017957 ], [ 671415.841527141514234, 4507796.183470253832638 ] ] } },
{ "type": "Feature", "properties": { }, "geometry": { "type": "LineString", "coordinates": [ [ 666574.704931883956306, 4506332.529222124256194 ], [ 666345.264850740553811, 4506630.336666900664568 ] ] } },
{ "type": "Feature", "properties": { }, "geometry": { "type": "LineString", "coordinates": [ [ 666633.628210794180632, 4506219.396526616998017 ], [ 666387.357242422411218, 4506546.151883536018431 ] ] } },
{ "type": "Feature", "properties": { }, "geometry": { "type": "LineString", "coordinates": [ [ 666859.893601809162647, 4506033.198965260758996 ], [ 666648.330070850555785, 4506283.375095465220511 ] ] } },
{ "type": "Feature", "properties": { }, "geometry": { "type": "LineString", "coordinates": [ [ 666838.681221401435323, 4505983.703410975635052 ], [ 666614.77276154293213, 4506214.682664304040372 ] ] } },
{ "type": "Feature", "properties": { }, "geometry": { "type": "LineString", "coordinates": [ [ 666998.952540036989376, 4505748.010295335203409 ], [ 666810.987098707119003, 4505943.629362602718174 ] ] } },
{ "type": "Feature", "properties": { }, "geometry": { "type": "LineString", "coordinates": [ [ 667300.639728056965396, 4505314.334962556138635 ], [ 667270.996807802352123, 4505481.214373981580138 ] ] } },
{ "type": "Feature", "properties": { }, "geometry": { "type": "LineString", "coordinates": [ [ 667185.150101393111981, 4505486.390936973504722 ], [ 667159.223858672543429, 4505634.877599827945232 ] ] } },
{ "type": "Feature", "properties": { }, "geometry": { "type": "LineString", "coordinates": [ [ 667173.365445611067116, 4505038.574017257429659 ], [ 667137.038840587832965, 4505218.271501402370632 ] ] } },
{ "type": "Feature", "properties": { }, "geometry": { "type": "LineString", "coordinates": [ [ 667965.294314163504168, 4504977.293807190842927 ], [ 668078.427009670995176, 4505024.432430318556726 ] ] } },
{ "type": "Feature", "properties": { }, "geometry": { "type": "LineString", "coordinates": [ [ 667736.671991992159747, 4504784.025452365167439 ], [ 667842.733894030447118, 4504854.733387057669461 ] ] } },
{ "type": "Feature", "properties": { }, "geometry": { "type": "LineString", "coordinates": [ [ 667404.34469893889036, 4504812.308626241981983 ], [ 667415.614239223650657, 4504929.80404295027256 ] ] } },
{ "type": "Feature", "properties": { }, "geometry": { "type": "LineString", "coordinates": [ [ 667086.158992824144661, 4505064.500259977765381 ], [ 667018.291554130380973, 4505264.633792084641755 ] ] } },
{ "type": "Feature", "properties": { }, "geometry": { "type": "LineString", "coordinates": [ [ 667107.37137323175557, 4505125.780470044352114 ], [ 667008.121761335525662, 4505330.139222145080566 ] ] } },
{ "type": "Feature", "properties": { }, "geometry": { "type": "LineString", "coordinates": [ [ 667404.34469893889036, 4505125.780470044352114 ], [ 667370.51524813612923, 4505288.190692127682269 ] ] } },
{ "type": "Feature", "properties": { }, "geometry": { "type": "LineString", "coordinates": [ [ 667538.689774853992276, 4504826.450213180854917 ], [ 667529.263696764945053, 4504958.667397245764732 ] ] } },
{ "type": "Feature", "properties": { }, "geometry": { "type": "LineString", "coordinates": [ [ 668132.636426268378273, 4503968.527272248640656 ], [ 668196.273567491327412, 4504008.595101907849312 ] ] } },
{ "type": "Feature", "properties": { }, "geometry": { "type": "LineString", "coordinates": [ [ 668580.453345985501073, 4503824.754471708089113 ], [ 668736.010802308330312, 4503749.332674702629447 ] ] } },
{ "type": "Feature", "properties": { }, "geometry": { "type": "LineString", "coordinates": [ [ 669327.600522566237487, 4503327.441997705958784 ], [ 669622.216917116893455, 4503160.099885601550341 ] ] } },
{ "type": "Feature", "properties": { }, "geometry": { "type": "LineString", "coordinates": [ [ 669254.535656717605889, 4503372.223689678125083 ], [ 669523.332114141434431, 4503207.288448447361588 ] ] } },
{ "type": "Feature", "properties": { }, "geometry": { "type": "LineString", "coordinates": [ [ 669136.689098897273652, 4503405.22072586696595 ], [ 669406.080385442590341, 4503258.735635529272258 ] ] } },
{ "type": "Feature", "properties": { }, "geometry": { "type": "LineString", "coordinates": [ [ 668983.488573730923235, 4503541.922732939012349 ], [ 669192.514736740966327, 4503447.175913794897497 ] ] } },
{ "type": "Feature", "properties": { }, "geometry": { "type": "LineString", "coordinates": [ [ 669959.258072483004071, 4503596.132149536162615 ], [ 670209.092775062075816, 4503442.931624369695783 ] ] } },
{ "type": "Feature", "properties": { }, "geometry": { "type": "LineString", "coordinates": [ [ 669480.801047732587904, 4504001.524308438412845 ], [ 669659.927815619390458, 4503989.739652656018734 ] ] } },
{ "type": "Feature", "properties": { }, "geometry": { "type": "LineString", "coordinates": [ [ 669575.07829398883041, 4503556.064319876953959 ], [ 669925.824083169223741, 4503330.293159039691091 ] ] } }
]
}
