{
"type": "FeatureCollection",
"name": "20210519_081345_38_2251_3B_AnalyticMS_clip",
"crs": { "type": "name", "properties": { "name": "urn:ogc:def:crs:OGC:1.3:CRS84" } },
"features": [
{ "type": "Feature", "geometry": { "type": "LineString", "coordinates": [ [ 0.0, 0.0 ], [ 1.0, 1.0 ] ] } },
{ "type": "Feature", "properties": { }, "geometry": { "type": "LineString", "coordinates": [ [ 668683.21401321538724, 4527434.516382521949708 ], [ 668655.216915322351269, 4526985.51653265953064 ] ] } },
{ "type": "Feature", "properties": { }, "geometry": { "type": "LineString", "coordinates": [ [ 668849.620537018054165, 4527594.871760004200041 ], [ 668940.387731819413602, 4527204.572822358459234 ] ] } },
{ "type": "Feature", "properties": { }, "geometry": { "type": "LineString", "coordinates": [ [ 670964.496175890555605, 4528699.205963420681655 ], [ 670917.69670060952194, 4528835.521486653015018 ] ] } },
{ "type": "Feature", "properties": { }, "geometry": { "type": "LineString", "coordinates": [ [ 671056.776157271931879, 4528720.384975541383028 ], [ 671055.263370691915043, 4528855.022981163114309 ] ] } },
{ "type": "Feature", "properties": { }, "geometry": { "type": "LineString", "coordinates": [ [ 670911.548645589733496, 4528209.063111493363976 ], [ 670863.139475028961897, 4528383.033568195998669 ] ] } },
{ "type": "Feature", "properties": { }, "geometry": { "type": "LineString", "coordinates": [ [ 671012.905346451327205, 4528196.960818853229284 ], [ 670942.522959490423091, 4528348.567878712899983 ] ] } },
{ "type": "Feature", "properties": { }, "geometry": { "type": "LineString", "coordinates": [ [ 671268.566278475220315, 4528083.501825351268053 ], [ 671250.412839514901862, 4528193.935245693661273 ] ] } },
{ "type": "Feature", "properties": { }, "geometry": { "type": "LineString", "coordinates": [ [ 671070.391236492199823, 4527908.018582069315016 ], [ 671012.905346451327205, 4528013.913642670959234 ] ] } },
{ "type": "Feature", "properties": { }, "geometry": { "type": "LineString", "coordinates": [ [ 670718.668356636655517, 4530025.667663004249334 ], [ 670847.759478132007644, 4530273.764662127941847 ] ] } },
{ "type": "Feature", "properties": { }, "geometry": { "type": "LineString", "coordinates": [ [ 671392.362646940513514, 4531866.224668698385358 ], [ 671303.612500912509859, 4532180.884277342818677 ] ] } },
{ "type": "Feature", "properties": { }, "geometry": { "type": "LineString", "coordinates": [ [ 671372.192159206839278, 4531704.860766828991473 ], [ 671335.885281286318786, 4532013.469229154288769 ] ] } },
{ "type": "Feature", "properties": { }, "geometry": { "type": "LineString", "coordinates": [ [ 670412.07694308552891, 4529776.562139494344592 ], [ 670676.31033239630051, 4529887.499822029843926 ] ] } },
{ "type": "Feature", "properties": { }, "geometry": { "type": "LineString", "coordinates": [ [ 670512.929381753783673, 4529562.754969517700374 ], [ 670720.685405410360545, 4529693.863139786757529 ] ] } },
{ "type": "Feature", "properties": { }, "geometry": { "type": "LineString", "coordinates": [ [ 670347.531382337911054, 4529633.351676586084068 ], [ 670583.52608882158529, 4529701.931334880180657 ] ] } },
{ "type": "Feature", "properties": { }, "geometry": { "type": "LineString", "coordinates": [ [ 671819.976986894034781, 4527977.354633653536439 ], [ 671787.704206520225853, 4528117.539523403160274 ] ] } },
{ "type": "Feature", "properties": { }, "geometry": { "type": "LineString", "coordinates": [ [ 671751.397328599705361, 4527909.783499746583402 ], [ 671747.363231052877381, 4528030.806426148861647 ] ] } },
{ "type": "Feature", "properties": { }, "geometry": { "type": "LineString", "coordinates": [ [ 672015.630717910360545, 4528011.644462801516056 ], [ 672017.647766683716327, 4528089.300840576179326 ] ] } },
{ "type": "Feature", "properties": { }, "geometry": { "type": "LineString", "coordinates": [ [ 671996.468754563480616, 4527966.260865401476622 ], [ 672032.775632484001108, 4528013.661511574871838 ] ] } },
{ "type": "Feature", "properties": { }, "geometry": { "type": "LineString", "coordinates": [ [ 671894.607791508547962, 4527871.459573052823544 ], [ 671891.582218348514289, 4528000.550694548524916 ] ] } },
{ "type": "Feature", "properties": { }, "geometry": { "type": "LineString", "coordinates": [ [ 671945.034010842675343, 4528038.874621242284775 ], [ 671940.999913295963779, 4528090.309364963322878 ] ] } },
{ "type": "Feature", "properties": { }, "geometry": { "type": "LineString", "coordinates": [ [ 672280.872631607810035, 4527761.530414904467762 ], [ 672293.983448634739034, 4527979.371682427823544 ] ] } },
{ "type": "Feature", "properties": { }, "geometry": { "type": "LineString", "coordinates": [ [ 672354.494911835645325, 4527835.152695132419467 ], [ 672383.74211904942058, 4528057.028060202486813 ] ] } },
{ "type": "Feature", "properties": { }, "geometry": { "type": "LineString", "coordinates": [ [ 673459.333377445815131, 4526184.702536324970424 ], [ 673511.776645553298295, 4526408.594950168393552 ] ] } },
{ "type": "Feature", "properties": { }, "geometry": { "type": "LineString", "coordinates": [ [ 673279.816036616452038, 4526295.640218860469759 ], [ 673304.020621896837838, 4526586.095242224633694 ] ] } },
{ "type": "Feature", "properties": { }, "geometry": { "type": "LineString", "coordinates": [ [ 673217.287524642073549, 4526360.185779607854784 ], [ 673241.492109922459349, 4526638.538510331884027 ] ] } },
{ "type": "Feature", "properties": { }, "geometry": { "type": "LineString", "coordinates": [ [ 673116.435085973935202, 4526430.782486675307155 ], [ 673172.912451628129929, 4526664.760144385509193 ] ] } },
{ "type": "Feature", "properties": { }, "geometry": { "type": "LineString", "coordinates": [ [ 673041.804281359422021, 4526479.191657236777246 ], [ 673098.281647013616748, 4526707.118168626911938 ] ] } },
{ "type": "Feature", "properties": { }, "geometry": { "type": "LineString", "coordinates": [ [ 673061.974769093096256, 4526650.640802972018719 ], [ 673134.58852493413724, 4526818.05585116147995 ] ] } },
{ "type": "Feature", "properties": { }, "geometry": { "type": "LineString", "coordinates": [ [ 673168.878354081418365, 4526535.669022890739143 ], [ 673243.509158695815131, 4526719.22046126704663 ] ] } },
{ "type": "Feature", "properties": { }, "geometry": { "type": "LineString", "coordinates": [ [ 673281.83308538980782, 4526432.799535448662937 ], [ 673362.515036324388348, 4526608.282778731547296 ] ] } },
{ "type": "Feature", "properties": { }, "geometry": { "type": "LineString", "coordinates": [ [ 673344.361597364069894, 4526344.049389421008527 ], [ 673418.992401978583075, 4526553.822461850941181 ] ] } },
{ "type": "Feature", "properties": { }, "geometry": { "type": "LineString", "coordinates": [ [ 672866.321038076654077, 4526432.799535448662937 ], [ 672936.917745144455694, 4526664.760144385509193 ] ] } },
{ "type": "Feature", "properties": { }, "geometry": { "type": "LineString", "coordinates": [ [ 670540.663802387542091, 4527110.527923298999667 ], [ 670373.248754198313691, 4527334.420337142422795 ] ] } },
{ "type": "Feature", "properties": { }, "geometry": { "type": "LineString", "coordinates": [ [ 674748.227543625747785, 4525855.923586267977953 ], [ 674824.875397013500333, 4525989.04880531039089 ] ] } },
{ "type": "Feature", "properties": { }, "geometry": { "type": "LineString", "coordinates": [ [ 673899.050010039354675, 4526481.208706011064351 ], [ 673987.80015606735833, 4526713.169314947910607 ] ] } },
{ "type": "Feature", "properties": { }, "geometry": { "type": "LineString", "coordinates": [ [ 673951.493278146721423, 4526537.686071665026248 ], [ 674042.260472948197275, 4526761.578485508449376 ] ] } },
{ "type": "Feature", "properties": { }, "geometry": { "type": "LineString", "coordinates": [ [ 673600.526791581418365, 4526412.629047716967762 ], [ 673683.225791289354675, 4526656.69194929394871 ] ] } },
{ "type": "Feature", "properties": { }, "geometry": { "type": "LineString", "coordinates": [ [ 675278.71137102029752, 4525793.395074293017387 ], [ 675264.592029606807046, 4525978.963561442680657 ] ] } },
{ "type": "Feature", "properties": { }, "geometry": { "type": "LineString", "coordinates": [ [ 675351.325126861454919, 4525656.235757704824209 ], [ 675363.427419501589611, 4525890.213415415026248 ] ] } },
{ "type": "Feature", "properties": { }, "geometry": { "type": "LineString", "coordinates": [ [ 675129.449761791387573, 4525712.713123358786106 ], [ 675139.535005658166483, 4525920.469147015362978 ] ] } },
{ "type": "Feature", "properties": { }, "geometry": { "type": "LineString", "coordinates": [ [ 675730.530296253971756, 4525642.116416291333735 ], [ 675778.93946681462694, 4525785.326879199594259 ] ] } },
{ "type": "Feature", "properties": { }, "geometry": { "type": "LineString", "coordinates": [ [ 675869.706661616102792, 4525591.690196957439184 ], [ 675922.149929723585956, 4525751.037050052545965 ] ] } },
{ "type": "Feature", "properties": { }, "geometry": { "type": "LineString", "coordinates": [ [ 675799.109954548301175, 4525607.82658714428544 ], [ 675839.689468582277186, 4525782.975923605263233 ] ] } },
{ "type": "Feature", "properties": { }, "geometry": { "type": "LineString", "coordinates": [ [ 676041.155807352042757, 4525549.332172716036439 ], [ 676069.394490179140121, 4525783.309830426238477 ] ] } },
{ "type": "Feature", "properties": { }, "geometry": { "type": "LineString", "coordinates": [ [ 674621.15347090351861, 4528080.728383290581405 ], [ 674596.94888562313281, 4528193.683114599436522 ] ] } },
{ "type": "Feature", "properties": { }, "geometry": { "type": "LineString", "coordinates": [ [ 675629.677857585716993, 4528302.603748360648751 ], [ 675641.677620635600761, 4528229.70842542219907 ] ] } },
{ "type": "Feature", "properties": { }, "geometry": { "type": "LineString", "coordinates": [ [ 675526.808370144106448, 4528607.178113139234483 ], [ 675505.880975669249892, 4528529.119089763611555 ] ] } },
{ "type": "Feature", "properties": { }, "geometry": { "type": "LineString", "coordinates": [ [ 675527.816894530784339, 4528737.277759021148086 ], [ 675526.808370144106448, 4528689.877112846821547 ] ] } },
{ "type": "Feature", "properties": { }, "geometry": { "type": "LineString", "coordinates": [ [ 675533.8680408509681, 4528643.48499105963856 ], [ 675561.098199291387573, 4528575.9138571517542 ] ] } },
{ "type": "Feature", "properties": { }, "geometry": { "type": "LineString", "coordinates": [ [ 675521.765748210716993, 4528675.757771433331072 ], [ 675523.782796984072775, 4528623.314503326080739 ] ] } },
{ "type": "Feature", "properties": { }, "geometry": { "type": "LineString", "coordinates": [ [ 679167.581406066543423, 4528331.850955573841929 ], [ 678923.518504489446059, 4528507.334198856726289 ] ] } },
{ "type": "Feature", "properties": { }, "geometry": { "type": "LineString", "coordinates": [ [ 678913.433260622667149, 4528444.805686882697046 ], [ 678677.438554138992913, 4528660.629905632697046 ] ] } },
{ "type": "Feature", "properties": { }, "geometry": { "type": "LineString", "coordinates": [ [ 679310.791868975386024, 4528953.101977770216763 ], [ 679201.871235213708133, 4529164.892098973505199 ] ] } },
{ "type": "Feature", "properties": { }, "geometry": { "type": "LineString", "coordinates": [ [ 679492.326258578104898, 4528733.243661473505199 ], [ 679341.047600575839169, 4528983.357709370553493 ] ] } },
{ "type": "Feature", "properties": { }, "geometry": { "type": "LineString", "coordinates": [ [ 678372.864189361105673, 4529544.097268366254866 ], [ 678318.403872480266728, 4529697.392975142225623 ] ] } },
{ "type": "Feature", "properties": { }, "geometry": { "type": "LineString", "coordinates": [ [ 678104.59670250362251, 4529588.472341380082071 ], [ 678098.545556183555163, 4529763.95558466296643 ] ] } },
{ "type": "Feature", "properties": { }, "geometry": { "type": "LineString", "coordinates": [ [ 677977.52262978174258, 4529653.017902128398418 ], [ 677947.266898181289434, 4529860.773925784043968 ] ] } },
{ "type": "Feature", "properties": { }, "geometry": { "type": "LineString", "coordinates": [ [ 677767.749557351809926, 4529765.972633436322212 ], [ 677771.78365489852149, 4529931.370632852427661 ] ] } },
{ "type": "Feature", "properties": { }, "geometry": { "type": "LineString", "coordinates": [ [ 678294.199287199880928, 4528660.629905632697046 ], [ 678155.022921837749891, 4528773.584636941552162 ] ] } },
{ "type": "Feature", "properties": { }, "geometry": { "type": "LineString", "coordinates": [ [ 678308.318628613487817, 4528513.385345176793635 ], [ 678165.108165704528801, 4528592.050247338600457 ] ] } },
{ "type": "Feature", "properties": { }, "geometry": { "type": "LineString", "coordinates": [ [ 678181.244555891491473, 4528364.123735948465765 ], [ 678070.3068733564578, 4528436.737491789273918 ] ] } },
{ "type": "Feature", "properties": { }, "geometry": { "type": "LineString", "coordinates": [ [ 680000.622549466090277, 4527289.036739744246006 ], [ 679964.31567154545337, 4527317.275422571226954 ] ] } },
{ "type": "Feature", "properties": { }, "geometry": { "type": "LineString", "coordinates": [ [ 679163.547308519831859, 4528075.685761356726289 ], [ 679084.882406358607113, 4528267.305394826456904 ] ] } },
{ "type": "Feature", "properties": { }, "geometry": { "type": "LineString", "coordinates": [ [ 678927.552602036157623, 4528261.254248506389558 ], [ 678911.416211849311367, 4528319.748662933707237 ] ] } },
{ "type": "Feature", "properties": { }, "geometry": { "type": "LineString", "coordinates": [ [ 681612.244519384112209, 4527345.51410539727658 ], [ 681507.357983169145882, 4527494.775714625604451 ] ] } },
{ "type": "Feature", "properties": { }, "geometry": { "type": "LineString", "coordinates": [ [ 681436.76127610146068, 4527202.303642488084733 ], [ 681327.840642339782789, 4527426.196056331507862 ] ] } },
{ "type": "Feature", "properties": { }, "geometry": { "type": "LineString", "coordinates": [ [ 681507.357983169145882, 4527458.468836705200374 ], [ 681305.653105832752772, 4527629.917982441373169 ] ] } },
{ "type": "Feature", "properties": { }, "geometry": { "type": "LineString", "coordinates": [ [ 681366.164569033659063, 4527662.190762815065682 ], [ 681257.243935271981172, 4527718.668128469027579 ] ] } },
{ "type": "Feature", "properties": { }, "geometry": { "type": "LineString", "coordinates": [ [ 681959.176908402703702, 4527750.940908843651414 ], [ 681656.619592398172244, 4527827.588762231171131 ] ] } },
{ "type": "Feature", "properties": { }, "geometry": { "type": "LineString", "coordinates": [ [ 681828.06873813434504, 4529076.141952944919467 ], [ 681471.051105248858221, 4529477.534658844582736 ] ] } },
{ "type": "Feature", "properties": { }, "geometry": { "type": "LineString", "coordinates": [ [ 681759.489079839899205, 4529350.460586122237146 ], [ 681495.255690529244021, 4529737.733950608409941 ] ] } },
{ "type": "Feature", "properties": { }, "geometry": { "type": "LineString", "coordinates": [ [ 689166.092175633064471, 4525979.972085830755532 ], [ 689329.473126275581308, 4525931.562915270216763 ] ] } },
{ "type": "Feature", "properties": { }, "geometry": { "type": "LineString", "coordinates": [ [ 688958.336151976604015, 4526030.398305164650083 ], [ 689049.103346777963452, 4525979.972085830755532 ] ] } },
{ "type": "Feature", "properties": { }, "geometry": { "type": "LineString", "coordinates": [ [ 689026.915810270933434, 4525850.880964335054159 ], [ 689113.648907525697723, 4525858.949159428477287 ] ] } },
{ "type": "Feature", "properties": { }, "geometry": { "type": "LineString", "coordinates": [ [ 689045.069249231251888, 4525977.95503705739975 ], [ 689115.665956299053505, 4525961.818646870553493 ] ] } },
{ "type": "Feature", "properties": { }, "geometry": { "type": "LineString", "coordinates": [ [ 689024.898761497577652, 4526133.267792605794966 ], [ 689125.751200165832415, 4526068.722231858409941 ] ] } },
{ "type": "Feature", "properties": { }, "geometry": { "type": "LineString", "coordinates": [ [ 689783.309100282378495, 4525229.629942138679326 ], [ 689987.031026392243803, 4525132.811601017601788 ] ] } },
{ "type": "Feature", "properties": { }, "geometry": { "type": "LineString", "coordinates": [ [ 690063.67887977999635, 4525138.862747337669134 ], [ 690372.287342104827985, 4525038.010308669880033 ] ] } },
{ "type": "Feature", "properties": { }, "geometry": { "type": "LineString", "coordinates": [ [ 688417.767080714926124, 4525707.670501426793635 ], [ 688474.244446369120851, 4525639.090843132697046 ] ] } },
{ "type": "Feature", "properties": { }, "geometry": { "type": "LineString", "coordinates": [ [ 688353.221519967308268, 4525643.12494067940861 ], [ 688369.357910154154524, 4525592.698721345514059 ] ] } },
{ "type": "Feature", "properties": { }, "geometry": { "type": "LineString", "coordinates": [ [ 688595.267372770933434, 4525641.107891906052828 ], [ 688651.744738425128162, 4525538.238404463976622 ] ] } },
{ "type": "Feature", "properties": { }, "geometry": { "type": "LineString", "coordinates": [ [ 686884.810012958361767, 4525074.317186589352787 ], [ 686820.264452210627496, 4525165.084381391294301 ] ] } },
{ "type": "Feature", "properties": { }, "geometry": { "type": "LineString", "coordinates": [ [ 686971.543110213009641, 4524997.669333201833069 ], [ 686874.724769091466442, 4525080.368332909420133 ] ] } },
{ "type": "Feature", "properties": { }, "geometry": { "type": "LineString", "coordinates": [ [ 687050.20801237411797, 4524791.930358318611979 ], [ 686965.491963892825879, 4524804.032650958746672 ] ] } },
{ "type": "Feature", "properties": { }, "geometry": { "type": "LineString", "coordinates": [ [ 686824.29854975733906, 4524862.527065386064351 ], [ 686767.821184103144333, 4524933.123772454448044 ] ] } },
{ "type": "Feature", "properties": { }, "geometry": { "type": "LineString", "coordinates": [ [ 686666.968745435005985, 4525108.607015737332404 ], [ 686560.065160446683876, 4525171.135527711361647 ] ] } },
{ "type": "Feature", "properties": { }, "geometry": { "type": "LineString", "coordinates": [ [ 686628.644818741013296, 4525265.936820059083402 ], [ 686497.536648472421803, 4525372.840405047871172 ] ] } },
{ "type": "Feature", "properties": { }, "geometry": { "type": "LineString", "coordinates": [ [ 686136.48491804022342, 4524693.094968423247337 ], [ 686180.859991054283455, 4524701.163163516670465 ] ] } },
{ "type": "Feature", "properties": { }, "geometry": { "type": "LineString", "coordinates": [ [ 686233.303259161766618, 4524806.049699732102454 ], [ 686303.89996622945182, 4524902.868040853179991 ] ] } },
{ "type": "Feature", "properties": { }, "geometry": { "type": "LineString", "coordinates": [ [ 686017.479040411766618, 4524612.413017489016056 ], [ 686005.376747771631926, 4524485.338944766670465 ] ] } },
{ "type": "Feature", "properties": { }, "geometry": { "type": "LineString", "coordinates": [ [ 685946.882333343965001, 4524303.80455516371876 ], [ 685912.592504196800292, 4524108.15082414727658 ] ] } },
{ "type": "Feature", "properties": { }, "geometry": { "type": "LineString", "coordinates": [ [ 686174.808844734216109, 4524221.105555456131697 ], [ 686104.212137666414492, 4524073.860995000228286 ] ] } },
{ "type": "Feature", "properties": { }, "geometry": { "type": "LineString", "coordinates": [ [ 686979.611305306432769, 4524604.344822395592928 ], [ 686882.79296418488957, 4524634.600553995929658 ] ] } },
{ "type": "Feature", "properties": { }, "geometry": { "type": "LineString", "coordinates": [ [ 688760.665372187038884, 4523626.07616731338203 ], [ 688772.767664827289991, 4523444.541777710430324 ] ] } },
{ "type": "Feature", "properties": { }, "geometry": { "type": "LineString", "coordinates": [ [ 689228.620687607559375, 4523164.171998213976622 ], [ 689264.927565528196283, 4522960.450072104111314 ] ] } },
{ "type": "Feature", "properties": { }, "geometry": { "type": "LineString", "coordinates": [ [ 689966.860538658918813, 4523097.609388692304492 ], [ 689960.809392338735051, 4523020.961535304784775 ] ] } },
{ "type": "Feature", "properties": { }, "geometry": { "type": "LineString", "coordinates": [ [ 690023.33790431311354, 4523057.268413225188851 ], [ 690069.730026100412942, 4522976.58646229095757 ] ] } },
{ "type": "Feature", "properties": { }, "geometry": { "type": "LineString", "coordinates": [ [ 690337.997512957896106, 4523146.018559252843261 ], [ 690471.122731999959797, 4523093.575291145592928 ] ] } },
{ "type": "Feature", "properties": { }, "geometry": { "type": "LineString", "coordinates": [ [ 690580.043365761637688, 4523085.5070960521698 ], [ 690711.151536030229181, 4523020.961535304784775 ] ] } },
{ "type": "Feature", "properties": { }, "geometry": { "type": "LineString", "coordinates": [ [ 689757.087466228986159, 4522905.989755222573876 ], [ 689777.257953962660395, 4522831.358950608409941 ] ] } },
{ "type": "Feature", "properties": { }, "geometry": { "type": "LineString", "coordinates": [ [ 689890.21268527104985, 4523029.029730398207903 ], [ 689936.604807058349252, 4522926.160242956131697 ] ] } },
{ "type": "Feature", "properties": { }, "geometry": { "type": "LineString", "coordinates": [ [ 689817.598929429892451, 4523722.89450843539089 ], [ 689987.031026392476633, 4523533.291923739016056 ] ] } },
{ "type": "Feature", "properties": { }, "geometry": { "type": "LineString", "coordinates": [ [ 690400.526024932041764, 4524196.900970175862312 ], [ 690636.520731415716, 4524148.491799615323544 ] ] } },
{ "type": "Feature", "properties": { }, "geometry": { "type": "LineString", "coordinates": [ [ 690422.713561439071782, 4524079.912141320295632 ], [ 690654.674170376034454, 4524001.247239159420133 ] ] } },
{ "type": "Feature", "properties": { }, "geometry": { "type": "LineString", "coordinates": [ [ 690454.98634181288071, 4523928.633483318611979 ], [ 690569.958121894625947, 4523851.98562993016094 ] ] } },
{ "type": "Feature", "properties": { }, "geometry": { "type": "LineString", "coordinates": [ [ 690335.980464184423909, 4523747.099093715660274 ], [ 690493.310268506873399, 4523620.025020993314683 ] ] } },
{ "type": "Feature", "properties": { }, "geometry": { "type": "LineString", "coordinates": [ [ 690598.196804721723311, 4523966.957410012371838 ], [ 690739.390218857326545, 4523845.934483610093594 ] ] } },
{ "type": "Feature", "properties": { }, "geometry": { "type": "LineString", "coordinates": [ [ 690327.91226909100078, 4523918.548239451833069 ], [ 690467.088634453131817, 4523827.781044649891555 ] ] } },
{ "type": "Feature", "properties": { }, "geometry": { "type": "LineString", "coordinates": [ [ 690261.349659569910727, 4523442.524728938005865 ], [ 690424.730610212427564, 4523301.3313148021698 ] ] } },
{ "type": "Feature", "properties": { }, "geometry": { "type": "LineString", "coordinates": [ [ 689817.598929429776035, 4524128.321311881765723 ], [ 689958.792343565379269, 4523983.093800199218094 ] ] } },
{ "type": "Feature", "properties": { }, "geometry": { "type": "LineString", "coordinates": [ [ 689960.809392338735051, 4524374.401262232102454 ], [ 690184.70180618215818, 4524315.906847803853452 ] ] } },
{ "type": "Feature", "properties": { }, "geometry": { "type": "LineString", "coordinates": [ [ 689944.67300215177238, 4524237.241945642977953 ], [ 690144.360830714809708, 4524158.577043482102454 ] ] } },
{ "type": "Feature", "properties": { }, "geometry": { "type": "LineString", "coordinates": [ [ 690093.934611380682327, 4524430.878627886064351 ], [ 690321.861122770817019, 4524372.384213458746672 ] ] } },
{ "type": "Feature", "properties": { }, "geometry": { "type": "LineString", "coordinates": [ [ 690114.105099114356562, 4524557.952700608409941 ], [ 690374.304390878300183, 4524513.577627593651414 ] ] } },
{ "type": "Feature", "properties": { }, "geometry": { "type": "LineString", "coordinates": [ [ 689089.444322245428339, 4524265.480628470890224 ], [ 689107.597761205630377, 4524144.457702069543302 ] ] } },
{ "type": "Feature", "properties": { }, "geometry": { "type": "LineString", "coordinates": [ [ 688932.114517922978848, 4524430.878627886995673 ], [ 688913.961078962660395, 4524342.128481859341264 ] ] } },
{ "type": "Feature", "properties": { }, "geometry": { "type": "LineString", "coordinates": [ [ 688907.909932642593049, 4524241.27604319062084 ], [ 688891.773542455746792, 4524176.730482443235815 ] ] } },
{ "type": "Feature", "properties": { }, "geometry": { "type": "LineString", "coordinates": [ [ 685809.723016755189747, 4525078.351284136995673 ], [ 686041.683625692036003, 4524896.816894534043968 ] ] } },
{ "type": "Feature", "properties": { }, "geometry": { "type": "LineString", "coordinates": [ [ 685807.705967981833965, 4526564.916230104863644 ], [ 685545.489627444534563, 4526794.859790268354118 ] ] } },
{ "type": "Feature", "properties": { }, "geometry": { "type": "LineString", "coordinates": [ [ 686084.041649932740256, 4526449.944450022652745 ], [ 685866.200382409500889, 4526645.598181039094925 ] ] } },
{ "type": "Feature", "properties": { }, "geometry": { "type": "LineString", "coordinates": [ [ 685579.779456591699272, 4525509.999721635133028 ], [ 685347.818847654853016, 4525588.664623796008527 ] ] } },
{ "type": "Feature", "properties": { }, "geometry": { "type": "LineString", "coordinates": [ [ 685351.85294520156458, 4525556.391843422316015 ], [ 685077.534312024014071, 4525604.801013982854784 ] ] } },
{ "type": "Feature", "properties": { }, "geometry": { "type": "LineString", "coordinates": [ [ 685757.279748647822998, 4525495.880380221642554 ], [ 685581.796505365055054, 4525598.749867662787437 ] ] } },
{ "type": "Feature", "properties": { }, "geometry": { "type": "LineString", "coordinates": [ [ 685858.132187315961346, 4525570.511184835806489 ], [ 685694.75123667344451, 4525620.93740416970104 ] ] } },
{ "type": "Feature", "properties": { }, "geometry": { "type": "LineString", "coordinates": [ [ 685936.797089477186091, 4525455.539404754526913 ], [ 685801.654821661766618, 4525550.340697102248669 ] ] } },
{ "type": "Feature", "properties": { }, "geometry": { "type": "LineString", "coordinates": [ [ 685454.72243264329154, 4525219.544698270969093 ], [ 685466.824725283542648, 4525203.408308084122837 ] ] } },
{ "type": "Feature", "properties": { }, "geometry": { "type": "LineString", "coordinates": [ [ 685315.546067281160504, 4525173.152576480992138 ], [ 685113.841189944650978, 4525181.220771575346589 ] ] } },
{ "type": "Feature", "properties": { }, "geometry": { "type": "LineString", "coordinates": [ [ 684996.852361089549959, 4525229.62994213681668 ], [ 684938.357946661883034, 4525324.431234484538436 ] ] } },
{ "type": "Feature", "properties": { }, "geometry": { "type": "LineString", "coordinates": [ [ 685291.341482000658289, 4525261.902722510509193 ], [ 685281.256238133879378, 4525312.328941844403744 ] ] } },
{ "type": "Feature", "properties": { }, "geometry": { "type": "LineString", "coordinates": [ [ 684700.346191404969431, 4525163.067332615144551 ], [ 684575.289167456328869, 4525148.947991201654077 ] ] } },
{ "type": "Feature", "properties": { }, "geometry": { "type": "LineString", "coordinates": [ [ 684583.357362549868412, 4525269.970917603932321 ], [ 684534.948191989096813, 4525255.851576190441847 ] ] } },
{ "type": "Feature", "properties": { }, "geometry": { "type": "LineString", "coordinates": [ [ 684740.687166872201487, 4525304.260746750980616 ], [ 684760.857654605875723, 4525243.749283550307155 ] ] } },
{ "type": "Feature", "properties": { }, "geometry": { "type": "LineString", "coordinates": [ [ 683855.202755365637131, 4524912.953284717164934 ], [ 684088.438315603649244, 4524720.15779868606478 ] ] } },
{ "type": "Feature", "properties": { }, "geometry": { "type": "LineString", "coordinates": [ [ 684300.970534279127605, 4524735.452992661856115 ], [ 684593.442606416996568, 4524517.611725138500333 ] ] } },
{ "type": "Feature", "properties": { }, "geometry": { "type": "LineString", "coordinates": [ [ 684551.084582176292315, 4524485.33894476480782 ], [ 684807.249776393524371, 4524194.883921399712563 ] ] } },
{ "type": "Feature", "properties": { }, "geometry": { "type": "LineString", "coordinates": [ [ 685172.335604372550733, 4524715.282504928298295 ], [ 685392.193920669145882, 4524444.997969296760857 ] ] } },
{ "type": "Feature", "properties": { }, "geometry": { "type": "LineString", "coordinates": [ [ 685216.710677386494353, 4524632.583505219779909 ], [ 685386.142774349078536, 4524368.35011590924114 ] ] } },
{ "type": "Feature", "properties": { }, "geometry": { "type": "LineString", "coordinates": [ [ 685123.926433811779134, 4524888.748699436895549 ], [ 685452.705383870168589, 4524666.873334366828203 ] ] } },
{ "type": "Feature", "properties": { }, "geometry": { "type": "LineString", "coordinates": [ [ 683611.139853788539767, 4524999.686381972394884 ], [ 683635.344439068925567, 4524830.25428500957787 ] ] } },
{ "type": "Feature", "properties": { }, "geometry": { "type": "LineString", "coordinates": [ [ 683334.804171837749891, 4525042.044406212866306 ], [ 683266.224513543304056, 4524840.339528876356781 ] ] } },
{ "type": "Feature", "properties": { }, "geometry": { "type": "LineString", "coordinates": [ [ 682310.143394968821667, 4525096.504723092541099 ], [ 681951.108713309979066, 4524850.424772742204368 ] ] } },
{ "type": "Feature", "properties": { }, "geometry": { "type": "LineString", "coordinates": [ [ 682955.59900244534947, 4525211.476503174751997 ], [ 682747.842978788889013, 4524999.686381971463561 ] ] } },
{ "type": "Feature", "properties": { }, "geometry": { "type": "LineString", "coordinates": [ [ 681977.330347363720648, 4525467.641697391867638 ], [ 681771.591372480615973, 4525384.942697684280574 ] ] } },
{ "type": "Feature", "properties": { }, "geometry": { "type": "LineString", "coordinates": [ [ 679967.341244706418365, 4527701.523213889449835 ], [ 679989.528781213448383, 4527707.574360210448503 ] ] } },
{ "type": "Feature", "properties": { }, "geometry": { "type": "LineString", "coordinates": [ [ 680072.227780921384692, 4527233.567898469045758 ], [ 680050.040244414354675, 4527231.550849695689976 ] ] } },
{ "type": "Feature", "properties": { }, "geometry": { "type": "LineString", "coordinates": [ [ 679311.800393362878822, 4528173.512626856565475 ], [ 679035.464711412088946, 4528403.45618702005595 ] ] } },
{ "type": "Feature", "properties": { }, "geometry": { "type": "LineString", "coordinates": [ [ 681369.190142194391228, 4529095.303916284814477 ], [ 681024.274801949155517, 4529428.116963889449835 ] ] } },
{ "type": "Feature", "properties": { }, "geometry": { "type": "LineString", "coordinates": [ [ 681611.23599499813281, 4528607.17811313085258 ], [ 681629.389433958451264, 4528736.26923462562263 ] ] } },
{ "type": "Feature", "properties": { }, "geometry": { "type": "LineString", "coordinates": [ [ 681173.536411178065464, 4528814.934136786498129 ], [ 681330.866215500514954, 4528859.309209801256657 ] ] } },
{ "type": "Feature", "properties": { }, "geometry": { "type": "LineString", "coordinates": [ [ 681342.968508140649647, 4528661.638430011458695 ], [ 681383.309483607998118, 4528780.644307639449835 ] ] } },
{ "type": "Feature", "properties": { }, "geometry": { "type": "LineString", "coordinates": [ [ 683756.031190675217658, 4527777.162542890757322 ], [ 683722.413711119093932, 4527828.261111815460026 ] ] } },
{ "type": "Feature", "properties": { }, "geometry": { "type": "LineString", "coordinates": [ [ 683702.243223385536112, 4527949.284038217738271 ], [ 683604.08018308179453, 4528052.825875249691308 ] ] } },
{ "type": "Feature", "properties": { }, "geometry": { "type": "LineString", "coordinates": [ [ 683819.232052240637131, 4528055.515273614786565 ], [ 683714.345516025670804, 4528149.644216371700168 ] ] } },
{ "type": "Feature", "properties": { }, "geometry": { "type": "LineString", "coordinates": [ [ 685616.422509307856672, 4527449.728292013518512 ], [ 685282.937112111714669, 4527678.32715299539268 ] ] } },
{ "type": "Feature", "properties": { }, "geometry": { "type": "LineString", "coordinates": [ [ 685557.255745289265178, 4527409.387316546402872 ], [ 685188.808169354684651, 4527621.849787340499461 ] ] } },
{ "type": "Feature", "properties": { }, "geometry": { "type": "LineString", "coordinates": [ [ 685323.278087578946725, 4527288.36439014505595 ], [ 684909.110739448224194, 4527519.65264949016273 ] ] } },
{ "type": "Feature", "properties": { }, "geometry": { "type": "LineString", "coordinates": [ [ 685473.88439599017147, 4527293.74318687338382 ], [ 685065.095844588358887, 4527490.069267480634153 ] ] } },
{ "type": "Feature", "properties": { }, "geometry": { "type": "LineString", "coordinates": [ [ 685498.088981270440854, 4527112.208797270432115 ], [ 685132.330803700489923, 4527284.330292597413063 ] ] } },
{ "type": "Feature", "properties": { }, "geometry": { "type": "LineString", "coordinates": [ [ 687599.181453524623066, 4526144.697735647670925 ], [ 687480.847925487323664, 4526265.720662049949169 ] ] } },
{ "type": "Feature", "properties": { }, "geometry": { "type": "LineString", "coordinates": [ [ 688435.584344879840501, 4524097.393230683170259 ], [ 688481.304117076098919, 4524005.953686290420592 ] ] } },
{ "type": "Feature", "properties": { }, "geometry": { "type": "LineString", "coordinates": [ [ 688473.235921982675791, 4523962.923312459141016 ], [ 688462.478328524739482, 4523922.582336992025375 ] ] } },
{ "type": "Feature", "properties": { }, "geometry": { "type": "LineString", "coordinates": [ [ 689013.804993244237266, 4523529.930175776593387 ], [ 689024.562586702173576, 4523416.975444468669593 ] ] } },
{ "type": "Feature", "properties": { }, "geometry": { "type": "LineString", "coordinates": [ [ 689054.145968711469322, 4523188.376583487726748 ], [ 689027.251985066686757, 4523091.558242365717888 ] ] } },
{ "type": "Feature", "properties": { }, "geometry": { "type": "LineString", "coordinates": [ [ 688970.774619412492029, 4522989.361104515381157 ], [ 688908.91845702927094, 4522879.095771571621299 ] ] } },
{ "type": "Feature", "properties": { }, "geometry": { "type": "LineString", "coordinates": [ [ 677024.467084368225187, 4529715.546414092183113 ], [ 676750.484146828646772, 4529959.171423652209342 ] ] } },
{ "type": "Feature", "properties": { }, "geometry": { "type": "LineString", "coordinates": [ [ 677176.4180919615319, 4529699.410023905336857 ], [ 676997.573100723209791, 4529883.633811872452497 ] ] } },
{ "type": "Feature", "properties": { }, "geometry": { "type": "LineString", "coordinates": [ [ 677271.8917339007603, 4529698.065324722789228 ], [ 677101.114937755977735, 4529929.353584068827331 ] ] } },
{ "type": "Feature", "properties": { }, "geometry": { "type": "LineString", "coordinates": [ [ 676906.1335563310422, 4530094.751583485864103 ], [ 676682.913492078776471, 4530390.585403579287231 ] ] } },
{ "type": "Feature", "properties": { }, "geometry": { "type": "LineString", "coordinates": [ [ 677164.315799321630038, 4530371.759615027345717 ], [ 677110.527832031948492, 4530616.494866196066141 ] ] } },
{ "type": "Feature", "properties": { }, "geometry": { "type": "LineString", "coordinates": [ [ 676543.064777125488035, 4528828.044953812845051 ], [ 676634.727975897840224, 4528920.955223919823766 ] ] } },
{ "type": "Feature", "properties": { }, "geometry": { "type": "LineString", "coordinates": [ [ 677164.315799321630038, 4528685.50684049539268 ], [ 677282.64932735892944, 4528747.36300287861377 ] ] } },
{ "type": "Feature", "properties": { }, "geometry": { "type": "LineString", "coordinates": [ [ 677115.906628760858439, 4528741.984206149354577 ], [ 677207.346173153375275, 4528814.59796199016273 ] ] } },
{ "type": "Feature", "properties": { }, "geometry": { "type": "LineString", "coordinates": [ [ 676997.573100723442622, 4528803.840368532575667 ], [ 677078.255051658023149, 4528863.007132550701499 ] ] } },
{ "type": "Feature", "properties": { }, "geometry": { "type": "LineString", "coordinates": [ [ 674327.000524789444171, 4529946.834673439152539 ], [ 674066.128883434343152, 4530024.827226009219885 ] ] } },
{ "type": "Feature", "properties": { }, "geometry": { "type": "LineString", "coordinates": [ [ 674706.205694181844592, 4530188.880526242777705 ], [ 674353.894508434343152, 4530452.441565962508321 ] ] } },
{ "type": "Feature", "properties": { }, "geometry": { "type": "LineString", "coordinates": [ [ 675061.206278293975629, 4530078.615193299017847 ], [ 674735.789076191256754, 4530315.28224937338382 ] ] } },
{ "type": "Feature", "properties": { }, "geometry": { "type": "LineString", "coordinates": [ [ 675550.676780630368739, 4529680.584235355257988 ], [ 675279.047545817331411, 4529871.531519233249128 ] ] } },
{ "type": "Feature", "properties": { }, "geometry": { "type": "LineString", "coordinates": [ [ 674004.272721051238477, 4530261.494282083585858 ], [ 673748.779876425047405, 4530352.933826476335526 ] ] } },
{ "type": "Feature", "properties": { }, "geometry": { "type": "LineString", "coordinates": [ [ 673635.825145116774365, 4532945.513849839568138 ], [ 673455.635454696253873, 4533069.226174606010318 ] ] } },
{ "type": "Feature", "properties": { }, "geometry": { "type": "LineString", "coordinates": [ [ 672780.596465210430324, 4532313.505234185606241 ], [ 672517.035425490932539, 4532813.73332997970283 ] ] } },
{ "type": "Feature", "properties": { }, "geometry": { "type": "LineString", "coordinates": [ [ 672987.680139275733382, 4532437.217558951117098 ], [ 672616.543164976756088, 4532832.559118530713022 ] ] } },
{ "type": "Feature", "properties": { }, "geometry": { "type": "LineString", "coordinates": [ [ 673017.263521285029128, 4532380.740193297155201 ], [ 672629.990156799205579, 4532722.293785586021841 ] ] } },
{ "type": "Feature", "properties": { }, "geometry": { "type": "LineString", "coordinates": [ [ 673213.589601892512292, 4532359.225006381049752 ], [ 672837.073830864508636, 4532671.195216661319137 ] ] } },
{ "type": "Feature", "properties": { }, "geometry": { "type": "LineString", "coordinates": [ [ 673337.301926658838056, 4532375.361396567896008 ], [ 672963.475553995347582, 4532558.24048535246402 ] ] } },
{ "type": "Feature", "properties": { }, "geometry": { "type": "LineString", "coordinates": [ [ 673582.037177826976404, 4532361.914404745213687 ], [ 673253.930577359744348, 4532598.581460820510983 ] ] } },
{ "type": "Feature", "properties": { }, "geometry": { "type": "LineString", "coordinates": [ [ 673961.24234721949324, 4532695.399801941588521 ], [ 673743.401079696137458, 4532827.180321801453829 ] ] } },
{ "type": "Feature", "properties": { }, "geometry": { "type": "LineString", "coordinates": [ [ 672557.37640095804818, 4533063.847377875819802 ], [ 672482.073246752494015, 4533494.151116194203496 ] ] } },
{ "type": "Feature", "properties": { }, "geometry": { "type": "LineString", "coordinates": [ [ 672654.194742079591379, 4533289.756840492598712 ], [ 672535.861214042175561, 4533647.44682296924293 ] ] } },
{ "type": "Feature", "properties": { }, "geometry": { "type": "LineString", "coordinates": [ [ 672629.990156799205579, 4533238.658271567896008 ], [ 672482.073246752494015, 4533620.552839324809611 ] ] } },
{ "type": "Feature", "properties": { }, "geometry": { "type": "LineString", "coordinates": [ [ 672476.694450023467652, 4532905.172874371521175 ], [ 672409.459490911336616, 4533451.120742361992598 ] ] } },
{ "type": "Feature", "properties": { }, "geometry": { "type": "LineString", "coordinates": [ [ 672347.603328528231941, 4532749.187769231386483 ], [ 672301.883556331973523, 4533391.953978342935443 ] ] } },
{ "type": "Feature", "properties": { }, "geometry": { "type": "LineString", "coordinates": [ [ 674189.841208200785331, 4534214.90987787488848 ], [ 674216.735191845567897, 4534513.433096333406866 ] ] } },
{ "type": "Feature", "properties": { }, "geometry": { "type": "LineString", "coordinates": [ [ 674792.266441845451482, 4533986.311016893945634 ], [ 674778.819450023001991, 4534306.349422267638147 ] ] } },
{ "type": "Feature", "properties": { }, "geometry": { "type": "LineString", "coordinates": [ [ 673988.136330864275806, 4533916.386659417301416 ], [ 673915.522575023234822, 4534239.114463156089187 ] ] } },
{ "type": "Feature", "properties": { }, "geometry": { "type": "LineString", "coordinates": [ [ 673850.977014275616966, 4534064.30356946401298 ], [ 673770.295063341036439, 4534435.44054376333952 ] ] } },
{ "type": "Feature", "properties": { }, "geometry": { "type": "LineString", "coordinates": [ [ 673724.575291144778021, 4534204.152284417301416 ], [ 673646.582738574710675, 4534586.046852174215019 ] ] } },
{ "type": "Feature", "properties": { }, "geometry": { "type": "LineString", "coordinates": [ [ 673899.38618483627215, 4533924.454854510724545 ], [ 673805.257242079358548, 4534300.970625539310277 ] ] } },
{ "type": "Feature", "properties": { }, "geometry": { "type": "LineString", "coordinates": [ [ 673778.363258434459567, 4535253.017646566964686 ], [ 673754.158673154073767, 4535640.291011053137481 ] ] } },
{ "type": "Feature", "properties": { }, "geometry": { "type": "LineString", "coordinates": [ [ 674240.939777125953697, 4535121.237126707099378 ], [ 674251.697370583890006, 4535462.79071899689734 ] ] } },
{ "type": "Feature", "properties": { }, "geometry": { "type": "LineString", "coordinates": [ [ 673990.825729228788987, 4534967.941419932059944 ], [ 673988.136330864275806, 4535357.904182782396674 ] ] } },
{ "type": "Feature", "properties": { }, "geometry": { "type": "LineString", "coordinates": [ [ 673810.636038808268495, 4535578.434848669916391 ], [ 673816.014835537294857, 4536008.738586987368762 ] ] } },
{ "type": "Feature", "properties": { }, "geometry": { "type": "LineString", "coordinates": [ [ 672651.505343715078197, 4533521.045099838636816 ], [ 672498.209636939340271, 4533841.083505212329328 ] ] } },
{ "type": "Feature", "properties": { }, "geometry": { "type": "LineString", "coordinates": [ [ 671941.504175490816124, 4534354.758592828176916 ], [ 671769.38268016371876, 4534760.857745865359902 ] ] } },
{ "type": "Feature", "properties": { }, "geometry": { "type": "LineString", "coordinates": [ [ 671952.261768948752433, 4534284.834235351532698 ], [ 671801.655460537527688, 4534672.107599837705493 ] ] } },
{ "type": "Feature", "properties": { }, "geometry": { "type": "LineString", "coordinates": [ [ 672256.163784135598689, 4533948.659439790993929 ], [ 672075.974093715078197, 4534300.970625538378954 ] ] } },
{ "type": "Feature", "properties": { }, "geometry": { "type": "LineString", "coordinates": [ [ 672468.626254929928109, 4533816.878919931128621 ], [ 672280.368369415984489, 4534193.394690958783031 ] ] } },
{ "type": "Feature", "properties": { }, "geometry": { "type": "LineString", "coordinates": [ [ 672237.337995584122837, 4534333.243405912071466 ], [ 672178.171231565531343, 4534674.796998201869428 ] ] } },
{ "type": "Feature", "properties": { }, "geometry": { "type": "LineString", "coordinates": [ [ 672124.383264275733382, 4534529.569486519321799 ], [ 672019.49672806088347, 4534932.979241192340851 ] ] } },
{ "type": "Feature", "properties": { }, "geometry": { "type": "LineString", "coordinates": [ [ 671747.867493247846141, 4534352.06919446401298 ], [ 671575.745997920748778, 4534750.100152407772839 ] ] } },
{ "type": "Feature", "properties": { }, "geometry": { "type": "LineString", "coordinates": [ [ 671675.253737406688742, 4534147.674918762408197 ], [ 671392.866909135715105, 4534537.63768161367625 ] ] } },
{ "type": "Feature", "properties": { }, "geometry": { "type": "LineString", "coordinates": [ [ 671963.019362406688742, 4534136.917325304821134 ], [ 671707.52651778049767, 4534569.910461987368762 ] ] } },
{ "type": "Feature", "properties": { }, "geometry": { "type": "LineString", "coordinates": [ [ 672057.148305163602345, 4534096.576349837705493 ], [ 671820.481249088887125, 4534489.228511052206159 ] ] } },
{ "type": "Feature", "properties": { }, "geometry": { "type": "LineString", "coordinates": [ [ 670459.645676659536548, 4534873.812477173283696 ], [ 670384.342522453865968, 4535150.820508715696633 ] ] } },
{ "type": "Feature", "properties": { }, "geometry": { "type": "LineString", "coordinates": [ [ 671384.798714042524807, 4535129.305321799591184 ], [ 671250.328795818262734, 4535481.616507546976209 ] ] } },
{ "type": "Feature", "properties": { }, "geometry": { "type": "LineString", "coordinates": [ [ 671384.798714042524807, 4535223.434264556504786 ], [ 671328.32134838833008, 4535484.305905911140144 ] ] } },
{ "type": "Feature", "properties": { }, "geometry": { "type": "LineString", "coordinates": [ [ 673170.55922806088347, 4536180.860082313418388 ], [ 673127.528854229021817, 4536500.898487687110901 ] ] } },
{ "type": "Feature", "properties": { }, "geometry": { "type": "LineString", "coordinates": [ [ 671737.109899790142663, 4536024.874977173283696 ], [ 671637.602160304086283, 4536468.625707313418388 ] ] } },
{ "type": "Feature", "properties": { }, "geometry": { "type": "LineString", "coordinates": [ [ 671704.83711941621732, 4535960.329416425898671 ], [ 671589.192989743431099, 4536398.70134983677417 ] ] } },
{ "type": "Feature", "properties": { }, "geometry": { "type": "LineString", "coordinates": [ [ 672842.452627593651414, 4535825.859498201869428 ], [ 672799.422253761906177, 4536207.754065958783031 ] ] } },
{ "type": "Feature", "properties": { }, "geometry": { "type": "LineString", "coordinates": [ [ 673235.104788808501326, 4535511.199889556504786 ], [ 673200.142610070179217, 4535938.814229509793222 ] ] } },
{ "type": "Feature", "properties": { }, "geometry": { "type": "LineString", "coordinates": [ [ 672689.156920817913488, 4535145.44171198643744 ], [ 672678.399327359977178, 4535470.858914089389145 ] ] } },
{ "type": "Feature", "properties": { }, "geometry": { "type": "LineString", "coordinates": [ [ 672619.23256334126927, 4534615.630234182812274 ], [ 672557.376400958164595, 4535000.214200304821134 ] ] } },
{ "type": "Feature", "properties": { }, "geometry": { "type": "LineString", "coordinates": [ [ 672667.641733902040869, 4534465.023925771936774 ], [ 672597.717376425396651, 4534895.327664089389145 ] ] } },
{ "type": "Feature", "properties": { }, "geometry": { "type": "LineString", "coordinates": [ [ 672492.830840210546739, 4535306.805613855831325 ], [ 672500.899035303969868, 4535578.434848668985069 ] ] } },
{ "type": "Feature", "properties": { }, "geometry": { "type": "LineString", "coordinates": [ [ 672511.656628761906177, 4536030.253773902542889 ],  [ 672457.86866147222463, 4536334.155789089389145 ] ] } },
{ "type": "Feature", "properties": { }, "geometry": { "type": "LineString", "coordinates": [ [ 671981.84515095828101, 4536344.913382546976209 ], [ 671903.852598388213664, 4536605.785023902542889 ] ] } },
{ "type": "Feature", "properties": { }, "geometry": { "type": "LineString", "coordinates": [ [ 669117.635892781312577, 4533660.893814790993929 ], [ 668872.90064161317423, 4532733.051379043608904 ] ] } },
{ "type": "Feature", "properties": { }, "geometry": { "type": "LineString", "coordinates": [ [ 669144.529876426211558, 4533824.947115024551749 ], [ 668875.590039977687411, 4532859.453102174215019 ] ] } },
{ "type": "Feature", "properties": { }, "geometry": { "type": "LineString", "coordinates": [ [ 669144.529876426211558, 4534177.258300772868097 ], [ 668851.385454697301611, 4533066.536776239983737 ] ] } },
{ "type": "Feature", "properties": { }, "geometry": { "type": "LineString", "coordinates": [ [ 669346.234753762604669, 4534220.288674604147673 ], [ 669036.95394184673205, 4533244.037068296223879 ] ] } },
{ "type": "Feature", "properties": { }, "geometry": { "type": "LineString", "coordinates": [ [ 668757.256511940388009, 4533222.521881379187107 ], [ 668439.907504931092262, 4532117.179153575561941 ] ] } },
{ "type": "Feature", "properties": { }, "geometry": { "type": "LineString", "coordinates": [ [ 668923.99921053845901, 4533061.157979509793222 ], [ 668633.544187174062245, 4532125.247348668985069 ] ] } },
{ "type": "Feature", "properties": { }, "geometry": { "type": "LineString", "coordinates": [ [ 669071.916120585170574, 4533964.795829976908863 ], [ 668749.188316846964881, 4532829.869720164686441 ] ] } },
{ "type": "Feature", "properties": { }, "geometry": { "type": "LineString", "coordinates": [ [ 667980.020384604111314, 4531915.474276239052415 ], [ 667794.451897454680875, 4530769.790572968311608 ] ] } },
{ "type": "Feature", "properties": { }, "geometry": { "type": "LineString", "coordinates": [ [ 668074.149327361141331, 4532028.429007547907531 ], [ 667896.649035305134021, 4530912.328686285763979 ] ] } },
{ "type": "Feature", "properties": { }, "geometry": { "type": "LineString", "coordinates": [ [ 668076.838725725654513, 4531834.792325304821134 ], [ 667934.300612407852896, 4530802.06335334200412 ] ] } },
{ "type": "Feature", "properties": { }, "geometry": { "type": "LineString", "coordinates": [ [ 668063.391733903205022, 4531686.87541525810957 ], [ 667885.891441847081296, 4530629.941858015023172 ] ] } },
{ "type": "Feature", "properties": { }, "geometry": { "type": "LineString", "coordinates": [ [ 668004.224969884497114, 4532313.505234182812274 ], [ 667880.512645118171349, 4530920.396881379187107 ] ] } },
{ "type": "Feature", "properties": { }, "geometry": { "type": "LineString", "coordinates": [ [ 668418.392318015103228, 4532967.02903675287962 ], [ 668125.247896286193281, 4531754.11037436965853 ] ] } },
{ "type": "Feature", "properties": { }, "geometry": { "type": "LineString", "coordinates": [ [ 668313.505781800253317, 4532859.453102173283696 ], [ 668036.497750258189626, 4531538.958505210466683 ] ] } },
{ "type": "Feature", "properties": { }, "geometry": { "type": "LineString", "coordinates": [ [ 671008.282943014404736, 4530662.214638389647007 ], [ 671156.199853061116301, 4530812.820946800522506 ] ] } },
{ "type": "Feature", "properties": { }, "geometry": { "type": "LineString", "coordinates": [ [ 670957.184374089236371, 4530729.44959750212729 ], [ 671226.124210537760518, 4530896.192296099849045 ] ] } },
{ "type": "Feature", "properties": { }, "geometry": { "type": "LineString", "coordinates": [ [ 670967.94196754717268, 4530611.11606946401298 ], [ 671083.586097220075317, 4530785.926963156089187 ] ] } },
{ "type": "Feature", "properties": { }, "geometry": { "type": "LineString", "coordinates": [ [ 670965.252569182659499, 4531681.496618529781699 ], [ 671121.237674322794192, 4531988.088032080791891 ] ] } },
{ "type": "Feature", "properties": { }, "geometry": { "type": "LineString", "coordinates": [ [ 671070.139105397625826, 4531487.859936286695302 ], [ 671244.949999089119956, 4531670.739025071263313 ] ] } },
{ "type": "Feature", "properties": { }, "geometry": { "type": "LineString", "coordinates": [ [ 671156.199853061116301, 4531560.473692127503455 ], [ 671314.874356565764174, 4531700.322407080791891 ] ] } },
{ "type": "Feature", "properties": { }, "geometry": { "type": "LineString", "coordinates": [ [ 669757.712703528697602, 4532240.891478343866765 ], [ 669846.462849556817673, 4532423.770567128434777 ] ] } },
{ "type": "Feature", "properties": { }, "geometry": { "type": "LineString", "coordinates": [ [ 669682.409549323143438, 4532356.535608015954494 ], [ 669736.197516612824984, 4532496.38432296924293 ] ] } },
{ "type": "Feature", "properties": { }, "geometry": { "type": "LineString", "coordinates": [ [ 669018.128153295372613, 4534349.379796098917723 ], [ 668544.794041145942174, 4532929.377459650859237 ] ] } },
{ "type": "Feature", "properties": { }, "geometry": { "type": "LineString", "coordinates": [ [ 669521.045647453865968, 4535995.291595162823796 ], [ 669332.787761939922348, 4534817.335111518390477 ] ] } },
{ "type": "Feature", "properties": { }, "geometry": { "type": "LineString", "coordinates": [ [ 669612.485191846382804, 4536234.648049602285028 ], [ 669521.045647453865968, 4535043.244574135169387 ] ] } },
{ "type": "Feature", "properties": { }, "geometry": { "type": "LineString", "coordinates": [ [ 670153.05426310794428, 4535936.124831143766642 ], [ 669846.462849556584843, 4534782.372932779602706 ] ] } },
{ "type": "Feature", "properties": { }, "geometry": { "type": "LineString", "coordinates": [ [ 669681.064850140712224, 4535203.263776822015643 ], [ 669506.253956449218094, 4534396.444267476908863 ] ] } },
{ "type": "Feature", "properties": { }, "geometry": { "type": "LineString", "coordinates": [ [ 669828.981760187423788, 4535429.173239439725876 ], [ 669654.170866495929658, 4534686.89929084200412 ] ] } },
{ "type": "Feature", "properties": { }, "geometry": { "type": "LineString", "coordinates": [ [ 669659.549663224839605, 4534805.232818879187107 ], [ 669433.640200608060695, 4534073.716463739052415 ] ] } },
{ "type": "Feature", "properties": { }, "geometry": { "type": "LineString", "coordinates": [ [ 669600.382899206248112, 4534746.066054860129952 ], [ 669417.503810421214439, 4533960.761732430197299 ] ] } },
{ "type": "Feature", "properties": { }, "geometry": { "type": "LineString", "coordinates": [ [ 670520.157139860093594, 4536615.197918177582324 ], [ 670270.043091962928884, 4536042.356066542677581 ] ] } },
{ "type": "Feature", "properties": { }, "geometry": { "type": "LineString", "coordinates": [ [ 665914.562440678942949, 4531790.417252291925251 ], [ 664825.356103062396869, 4530159.297144231386483 ] ] } },
{ "type": "Feature", "properties": { }, "geometry": { "type": "LineString", "coordinates": [ [ 666640.699999090051278, 4531477.102342829108238 ], [ 665661.758994417381473, 4529737.06160100735724 ] ] } },
{ "type": "Feature", "properties": { }, "geometry": { "type": "LineString", "coordinates": [ [ 666990.321786473272368, 4531764.867967830039561 ], [ 666046.342960538808256, 4529950.868770983070135 ] ] } },
{ "type": "Feature", "properties": { }, "geometry": { "type": "LineString", "coordinates": [ [ 671630.878664392977953, 4529125.223473089747131 ], [ 671679.287834953749552, 4529297.344968416728079 ] ] } },
{ "type": "Feature", "properties": { }, "geometry": { "type": "LineString", "coordinates": [ [ 671727.697005514521152, 4529189.769033837132156 ], [ 671724.400558482273482, 4529364.948935089632869 ] ] } },
{ "type": "Feature", "properties": { }, "geometry": { "type": "LineString", "coordinates": [ [ 671942.848874673247337, 4529313.481358603574336 ], [ 671902.507899206015281, 4529493.671049023978412 ] ] } },
{ "type": "Feature", "properties": { }, "geometry": { "type": "LineString", "coordinates": [ [ 671356.560031215427443, 4529243.557001126930118 ], [ 671357.091571656870656, 4529443.914385026320815 ] ] } },
{ "type": "Feature", "properties": { }, "geometry": { "type": "LineString", "coordinates": [ [ 671499.09814453322906, 4529197.837228930555284 ], [ 671536.749721635947935, 4529348.443537342362106 ] ] } },
{ "type": "Feature", "properties": { }, "geometry": { "type": "LineString", "coordinates": [ [ 671544.817916729487479, 4528996.132351594977081 ], [ 671523.30272981361486, 4529189.769033837132156 ] ] } },
{ "type": "Feature", "properties": { }, "geometry": { "type": "LineString", "coordinates": [ [ 675762.466901833424345, 4532593.875013685785234 ], [ 675802.807877300656401, 4532942.824451478198171 ] ] } },
{ "type": "Feature", "properties": { }, "geometry": { "type": "LineString", "coordinates": [ [ 675958.120632849750109, 4532539.414696805179119 ], [ 675948.035388982854784, 4532924.671012517996132 ] ] } },
{ "type": "Feature", "properties": { }, "geometry": { "type": "LineString", "coordinates": [ [ 676286.899582908023149, 4532733.051379048265517 ], [ 676282.865485361311585, 4533100.154255799949169 ] ] } },
{ "type": "Feature", "properties": { }, "geometry": { "type": "LineString", "coordinates": [ [ 676331.274655922083184, 4532636.233037926256657 ], [ 676331.274655922083184, 4533013.421158545650542 ] ] } },
{ "type": "Feature", "properties": { }, "geometry": { "type": "LineString", "coordinates": [ [ 676480.536265150993131, 4532426.459965496324003 ], [ 676448.263484777184203, 4532801.631037342362106 ] ] } },
{ "type": "Feature", "properties": { }, "geometry": { "type": "LineString", "coordinates": [ [ 677115.906628760742024, 4532781.460549608804286 ], [ 677128.008921400876716, 4532944.841500251553953 ] ] } },
{ "type": "Feature", "properties": { }, "geometry": { "type": "LineString", "coordinates": [ [ 676803.26406888931524, 4533073.932621746324003 ], [ 676813.34931275609415, 4533382.541084071621299 ] ] } },
{ "type": "Feature", "properties": { }, "geometry": { "type": "LineString", "coordinates": [ [ 676649.968362113577314, 4533287.739791722968221 ], [ 676712.496874087839387, 4533513.649254339747131 ] ] } },
{ "type": "Feature", "properties": { }, "geometry": { "type": "LineString", "coordinates": [ [ 676982.781409718678333, 4532839.954964036121964 ], [ 676984.798458492034115, 4533146.546377587132156 ] ] } },
{ "type": "Feature", "properties": { }, "geometry": { "type": "LineString", "coordinates": [ [ 676946.474531798157841, 4532928.705110064707696 ], [ 676960.593873211648315, 4533215.126035882160068 ] ] } },
{ "type": "Feature", "properties": { }, "geometry": { "type": "LineString", "coordinates": [ [ 675768.518048153491691, 4533562.058424901217222 ], [ 675734.228219006326981, 4533890.837374959141016 ] ] } },
{ "type": "Feature", "properties": { }, "geometry": { "type": "LineString", "coordinates": [ [ 675845.165901541360654, 4533455.154839912429452 ], [ 675814.910169940791093, 4533860.581643358804286 ] ] } },
{ "type": "Feature", "properties": { }, "geometry": { "type": "LineString", "coordinates": [ [ 675903.660315968911164, 4533388.592230391688645 ], [ 675861.30229172820691, 4533818.223619118332863 ] ] } },
{ "type": "Feature", "properties": { }, "geometry": { "type": "LineString", "coordinates": [ [ 675990.393413223559037, 4533287.739791722968221 ], [ 675933.916047569364309, 4533668.96200988907367 ] ] } },
{ "type": "Feature", "properties": { }, "geometry": { "type": "LineString", "coordinates": [ [ 676042.8366813310422, 4533239.330621162429452 ], [ 675990.393413223559037, 4533592.314156501553953 ] ] } },
{ "type": "Feature", "properties": { }, "geometry": { "type": "LineString", "coordinates": [ [ 676097.296998211764731, 4533146.546377588063478 ], [ 676056.956022744532675, 4533414.813864445313811 ] ] } },
{ "type": "Feature", "properties": { }, "geometry": { "type": "LineString", "coordinates": [ [ 676161.842558959499002, 4532971.063134305179119 ], [ 676097.296998211764731, 4533370.438791431486607 ] ] } },
{ "type": "Feature", "properties": { }, "geometry": { "type": "LineString", "coordinates": [ [ 677789.600919064250775, 4532656.4035256607458 ], [ 677815.822553117992356, 4532890.381183370947838 ] ] } },
{ "type": "Feature", "properties": { }, "geometry": { "type": "LineString", "coordinates": [ [ 677646.390456155408174, 4532731.034330274909735 ], [ 677660.509797568898648, 4532985.182475718669593 ] ] } },
{ "type": "Feature", "properties": { }, "geometry": { "type": "LineString", "coordinates": [ [ 678273.692624671617523, 4532150.124283545650542 ], [ 678223.266405337490141, 4532355.863258428871632 ] ] } },
{ "type": "Feature", "properties": { }, "geometry": { "type": "LineString", "coordinates": [ [ 678190.993624963681214, 4532192.482307787053287 ], [ 678176.874283550074324, 4532420.408819177187979 ] ] } },
{ "type": "Feature", "properties": { }, "geometry": { "type": "LineString", "coordinates": [ [ 677898.52155282581225, 4531825.379431034438312 ], [ 677884.402211412321776, 4532174.328868825919926 ] ] } },
{ "type": "Feature", "properties": { }, "geometry": { "type": "LineString", "coordinates": [ [ 677337.781993830692954, 4532644.301233020611107 ], [ 677376.105920524569228, 4532789.528744702227414 ] ] } },
{ "type": "Feature", "properties": { }, "geometry": { "type": "LineString", "coordinates": [ [ 677230.878408842487261, 4533513.649254340678453 ], [ 677251.048896576045081, 4533808.138375252485275 ] ] } },
{ "type": "Feature", "properties": { }, "geometry": { "type": "LineString", "coordinates": [ [ 677154.230555454618298, 4533644.757424609735608 ], [ 677212.724969882168807, 4533906.973765146918595 ] ] } },
{ "type": "Feature", "properties": { }, "geometry": { "type": "LineString", "coordinates": [ [ 677249.031847802689299, 4533420.86501076631248 ], [ 677281.304628176614642, 4533703.251839037053287 ] ] } },
{ "type": "Feature", "properties": { }, "geometry": { "type": "LineString", "coordinates": [ [ 677561.674407674116082, 4533168.733914095908403 ], [ 677589.913090501213446, 4533366.404693885706365 ] ] } },
{ "type": "Feature", "properties": { }, "geometry": { "type": "LineString", "coordinates": [ [ 677244.997750255977735, 4533009.3870609998703 ], [ 677325.679701190558262, 4533194.95554814953357 ] ] } },
{ "type": "Feature", "properties": { }, "geometry": { "type": "LineString", "coordinates": [ [ 677285.338725723326206, 4533071.915572973899543 ], [ 677414.429847218561918, 4533237.313572390004992 ] ] } },
{ "type": "Feature", "properties": { }, "geometry": { "type": "LineString", "coordinates": [ [ 677285.338725723326206, 4532787.511695929802954 ], [ 677327.696749963914044, 4532890.381183370947838 ] ] } },
{ "type": "Feature", "properties": { }, "geometry": { "type": "LineString", "coordinates": [ [ 676559.201167312334292, 4534479.815616781823337 ], [ 676605.593289099750109, 4534772.287688919343054 ] ] } },
{ "type": "Feature", "properties": { }, "geometry": { "type": "LineString", "coordinates": [ [ 676783.09358115575742, 4534342.656300192698836 ], [ 676789.144727475824766, 4534618.99198214430362 ] ] } },
{ "type": "Feature", "properties": { }, "geometry": { "type": "LineString", "coordinates": [ [ 676702.411630221176893, 4534342.656300192698836 ], [ 676722.582117954851128, 4534580.668055449612439 ] ] } },
{ "type": "Feature", "properties": { }, "geometry": { "type": "LineString", "coordinates": [ [ 676639.883118246914819, 4534308.366471045650542 ], [ 676668.121801074012183, 4534556.463470169343054 ] ] } },
{ "type": "Feature", "properties": { }, "geometry": { "type": "LineString", "coordinates": [ [ 676754.854898328660056, 4533975.553423441015184 ], [ 676787.127678702468984, 4534211.548129924573004 ] ] } },
{ "type": "Feature", "properties": { }, "geometry": { "type": "LineString", "coordinates": [ [ 676841.587995583307929, 4534215.582227471284568 ], [ 676857.724385770270601, 4534429.389397447928786 ] ] } },
{ "type": "Feature", "properties": { }, "geometry": { "type": "LineString", "coordinates": [ [ 675419.568610361544415, 4534261.974349257536232 ], [ 675447.807293188641779, 4534770.270640145987272 ] ] } },
{ "type": "Feature", "properties": { }, "geometry": { "type": "LineString", "coordinates": [ [ 675582.949561004061252, 4533812.172472797334194 ], [ 675540.591536763473414, 4534191.377642190083861 ] ] } }
]
}
