{
"type": "FeatureCollection",
"name": "20210519_083059_1039_3B_AnalyticMS",
"crs": { "type": "name", "properties": { "name": "urn:ogc:def:crs:OGC:1.3:CRS84" } },
"features": [
{ "type": "Feature", "geometry": { "type": "LineString", "coordinates": [ [ 0.0, 0.0 ], [ 1.0, 1.0 ] ] } },
{ "type": "Feature", "properties": { }, "geometry": { "type": "LineString", "coordinates": [ [ 629961.975032261107117, 4519157.200261359103024 ], [ 630203.764037249609828, 4518640.73894670419395 ] ] } },
{ "type": "Feature", "properties": { }, "geometry": { "type": "LineString", "coordinates": [ [ 629967.777968380833045, 4519282.930543953552842 ], [ 630203.764037249609828, 4518781.943725617602468 ] ] } },
{ "type": "Feature", "properties": { }, "geometry": { "type": "LineString", "coordinates": [ [ 630062.559258336317725, 4519110.776772401295602 ], [ 630275.333582726190798, 4518611.724266105331481 ] ] } },
{ "type": "Feature", "properties": { }, "geometry": { "type": "LineString", "coordinates": [ [ 629743.397771751624532, 4519449.281379384920001 ], [ 629985.186776740010828, 4518942.491624929942191 ] ] } },
{ "type": "Feature", "properties": { }, "geometry": { "type": "LineString", "coordinates": [ [ 629714.383091152994893, 4519650.44983153603971 ], [ 629965.843656340963207, 4519151.397325239144266 ] ] } },
{ "type": "Feature", "properties": { }, "geometry": { "type": "LineString", "coordinates": [ [ 630188.289540930301882, 4519669.792951934970915 ], [ 630368.180560641689226, 4519135.922828920185566 ] ] } },
{ "type": "Feature", "properties": { }, "geometry": { "type": "LineString", "coordinates": [ [ 630209.566973369335756, 4519828.406539207324386 ], [ 630399.129553280305117, 4519296.470728232525289 ] ] } },
{ "type": "Feature", "properties": { }, "geometry": { "type": "LineString", "coordinates": [ [ 630292.742391085368581, 4520153.370961911976337 ], [ 630497.779467315529473, 4519609.829278697259724 ] ] } },
{ "type": "Feature", "properties": { }, "geometry": { "type": "LineString", "coordinates": [ [ 630290.808079045382328, 4520039.246551557444036 ], [ 630480.37065895635169, 4519505.376428542658687 ] ] } },
{ "type": "Feature", "properties": { }, "geometry": { "type": "LineString", "coordinates": [ [ 629060.585621664184146, 4521087.643677188083529 ], [ 629399.09022864792496, 4520557.642178253270686 ] ] } },
{ "type": "Feature", "properties": { }, "geometry": { "type": "LineString", "coordinates": [ [ 629190.184528337907977, 4521406.805163772776723 ], [ 629526.754823281895369, 4520872.935040757991374 ] ] } },
{ "type": "Feature", "properties": { }, "geometry": { "type": "LineString", "coordinates": [ [ 629014.162132706376724, 4521033.482940070331097 ], [ 629358.469675809959881, 4520515.08731337543577 ] ] } },
{ "type": "Feature", "properties": { }, "geometry": { "type": "LineString", "coordinates": [ [ 629124.417918981052935, 4520522.824561535380781 ], [ 629428.104909246554598, 4520029.574991358444095 ] ] } },
{ "type": "Feature", "properties": { }, "geometry": { "type": "LineString", "coordinates": [ [ 629097.337550422409549, 4520783.956686922349036 ], [ 629408.761788847506978, 4520253.955187987536192 ] ] } },
{ "type": "Feature", "properties": { }, "geometry": { "type": "LineString", "coordinates": [ [ 628240.437316743191332, 4521134.067166145890951 ], [ 628629.234036764595658, 4520681.438148807734251 ] ] } },
{ "type": "Feature", "properties": { }, "geometry": { "type": "LineString", "coordinates": [ [ 628155.327586987288669, 4521344.907178496010602 ], [ 628538.321370888967067, 4520814.905679561197758 ] ] } },
{ "type": "Feature", "properties": { }, "geometry": { "type": "LineString", "coordinates": [ [ 629255.95113769476302, 4522097.354562020860612 ], [ 629577.046936319442466, 4521573.155999205075204 ] ] } },
{ "type": "Feature", "properties": { }, "geometry": { "type": "LineString", "coordinates": [ [ 628724.015326720080338, 4523263.744722083210945 ], [ 629114.746358781470917, 4522704.728542550466955 ] ] } },
{ "type": "Feature", "properties": { }, "geometry": { "type": "LineString", "coordinates": [ [ 628832.336800954886712, 4523317.905459200963378 ], [ 629197.921776497387327, 4522782.101024146191776 ] ] } },
{ "type": "Feature", "properties": { }, "geometry": { "type": "LineString", "coordinates": [ [ 628764.635879558161832, 4523138.01443948969245 ], [ 629097.337550422293134, 4522534.509083038195968 ] ] } },
{ "type": "Feature", "properties": { }, "geometry": { "type": "LineString", "coordinates": [ [ 627956.093446876737289, 4524325.682031991891563 ], [ 628406.788152175256982, 4523828.563837735913694 ] ] } },
{ "type": "Feature", "properties": { }, "geometry": { "type": "LineString", "coordinates": [ [ 628240.437316743191332, 4524149.65963636059314 ], [ 628650.511469203629531, 4523629.32969762571156 ] ] } },
{ "type": "Feature", "properties": { }, "geometry": { "type": "LineString", "coordinates": [ [ 628884.563226032420062, 4524072.287154763936996 ], [ 629232.739393215859309, 4523615.789513345807791 ] ] } },
{ "type": "Feature", "properties": { }, "geometry": { "type": "LineString", "coordinates": [ [ 628909.709282551310025, 4524018.126417646184564 ], [ 629250.148201575037092, 4523550.022903989069164 ] ] } },
{ "type": "Feature", "properties": { }, "geometry": { "type": "LineString", "coordinates": [ [ 627549.887918496271595, 4523149.620311727747321 ], [ 628023.794368273578584, 4522606.07862851396203 ] ] } },
{ "type": "Feature", "properties": { }, "geometry": { "type": "LineString", "coordinates": [ [ 627712.370129848481156, 4523138.014439488761127 ], [ 628164.999147186870687, 4522600.275692394003272 ] ] } },
{ "type": "Feature", "properties": { }, "geometry": { "type": "LineString", "coordinates": [ [ 628027.662992353434674, 4523186.372240486554801 ], [ 628488.02925785141997, 4522635.0933091128245 ] ] } },
{ "type": "Feature", "properties": { }, "geometry": { "type": "LineString", "coordinates": [ [ 628282.992181621259078, 4523178.63499232660979 ], [ 628698.869270201423205, 4522629.290372992865741 ] ] } },
{ "type": "Feature", "properties": { }, "geometry": { "type": "LineString", "coordinates": [ [ 630072.230818535783328, 4523548.088591948151588 ], [ 630323.691383723751642, 4523033.561589333228767 ] ] } },
{ "type": "Feature", "properties": { }, "geometry": { "type": "LineString", "coordinates": [ [ 629712.448779113008641, 4523422.358309354633093 ], [ 629979.383840620168485, 4522896.225434499792755 ] ] } },
{ "type": "Feature", "properties": { }, "geometry": { "type": "LineString", "coordinates": [ [ 629948.434847981669009, 4523493.927854831330478 ], [ 630213.435597449075431, 4522969.729292016476393 ] ] } },
{ "type": "Feature", "properties": { }, "geometry": { "type": "LineString", "coordinates": [ [ 630548.07158035307657, 4523542.285655829124153 ], [ 630770.517464942415245, 4522994.875348535366356 ] ] } },
{ "type": "Feature", "properties": { }, "geometry": { "type": "LineString", "coordinates": [ [ 630379.786432881141081, 4522960.057731816545129 ], [ 630586.757821151171811, 4522426.187608801759779 ] ] } },
{ "type": "Feature", "properties": { }, "geometry": { "type": "LineString", "coordinates": [ [ 630459.093226517317817, 4523056.773333812132478 ], [ 630652.524430507910438, 4522500.658622338436544 ] ] } },
{ "type": "Feature", "properties": { }, "geometry": { "type": "LineString", "coordinates": [ [ 630517.122587714344263, 4523053.871865752153099 ], [ 630724.093975984491408, 4522508.395870497450233 ] ] } },
{ "type": "Feature", "properties": { }, "geometry": { "type": "LineString", "coordinates": [ [ 630722.15966394462157, 4523227.959949343465269 ], [ 630890.444811416557059, 4522667.009457769803703 ] ] } },
{ "type": "Feature", "properties": { }, "geometry": { "type": "LineString", "coordinates": [ [ 630675.736174986814149, 4523111.901226948946714 ], [ 630865.29875489778351, 4522558.68798353523016 ] ] } },
{ "type": "Feature", "properties": { }, "geometry": { "type": "LineString", "coordinates": [ [ 631858.567987390561029, 4522134.106490773148835 ], [ 631970.758085705223493, 4521534.469758401624858 ] ] } },
{ "type": "Feature", "properties": { }, "geometry": { "type": "LineString", "coordinates": [ [ 629350.732427649898455, 4518299.332871655933559 ], [ 629606.061616917722858, 4517806.083301479928195 ] ] } },
{ "type": "Feature", "properties": { }, "geometry": { "type": "LineString", "coordinates": [ [ 629433.90784536593128, 4518303.201495735906065 ], [ 629710.514467072673142, 4517790.608805160038173 ] ] } },
{ "type": "Feature", "properties": { }, "geometry": { "type": "LineString", "coordinates": [ [ 629281.097194213187322, 4518235.500574339181185 ], [ 629555.769503880059347, 4517719.039259683340788 ] ] } },
{ "type": "Feature", "properties": { }, "geometry": { "type": "LineString", "coordinates": [ [ 628547.992931088199839, 4517150.351519952528179 ], [ 628816.862304635345936, 4516755.751863811165094 ] ] } },
{ "type": "Feature", "properties": { }, "geometry": { "type": "LineString", "coordinates": [ [ 628234.634380623116158, 4516769.292048091068864 ], [ 628480.292009691358544, 4516397.90413642860949 ] ] } },
{ "type": "Feature", "properties": { }, "geometry": { "type": "LineString", "coordinates": [ [ 628389.379343815729953, 4516807.978288888931274 ], [ 628665.985965522588231, 4516411.444320707581937 ] ] } },
{ "type": "Feature", "properties": { }, "geometry": { "type": "LineString", "coordinates": [ [ 628315.875486299162731, 4517328.308227623812854 ], [ 628592.482108006021008, 4516949.183067802339792 ] ] } }
]
}
