{
"type": "FeatureCollection",
"name": "20210519_081238_92_106c_3B_AnalyticMS",
"crs": { "type": "name", "properties": { "name": "urn:ogc:def:crs:OGC:1.3:CRS84" } },
"features": [
{ "type": "Feature", "geometry": { "type": "LineString", "coordinates": [ [ 0.0, 0.0 ], [ 1.0, 1.0 ] ] } },
{ "type": "Feature", "properties": { }, "geometry": { "type": "LineString", "coordinates": [ [ 653111.757037757546641, 4511427.664431665092707 ], [ 653453.669184179976583, 4511586.05020537506789 ] ] } },
{ "type": "Feature", "properties": { }, "geometry": { "type": "LineString", "coordinates": [ [ 653878.545307307853363, 4511490.515929169021547 ], [ 653855.249598952941597, 4511891.434637227095664 ] ] } },
{ "type": "Feature", "properties": { }, "geometry": { "type": "LineString", "coordinates": [ [ 654029.388901317724958, 4511548.339306873269379 ], [ 654030.835004254709929, 4512008.090694176033139 ] ] } },
{ "type": "Feature", "properties": { }, "geometry": { "type": "LineString", "coordinates": [ [ 653788.03915090195369, 4511493.029989069327712 ], [ 653800.609450402786024, 4511860.082734493538737 ] ] } },
{ "type": "Feature", "properties": { }, "geometry": { "type": "LineString", "coordinates": [ [ 653531.605041085043922, 4511415.094132164493203 ], [ 653554.23158018651884, 4511608.676744476892054 ] ] } },
{ "type": "Feature", "properties": { }, "geometry": { "type": "LineString", "coordinates": [ [ 653604.512778189848177, 4511455.319090566597879 ], [ 653650.199519474408589, 4511713.443952402099967 ] ] } },
{ "type": "Feature", "properties": { }, "geometry": { "type": "LineString", "coordinates": [ [ 653677.420515294652432, 4511493.029989069327712 ], [ 653705.07517419650685, 4511824.885895891115069 ] ] } },
{ "type": "Feature", "properties": { }, "geometry": { "type": "LineString", "coordinates": [ [ 652948.343144246726297, 4511080.724165442399681 ], [ 653139.411696659284644, 4511088.266345142386854 ] ] } },
{ "type": "Feature", "properties": { }, "geometry": { "type": "LineString", "coordinates": [ [ 652933.258784845820628, 4510960.049290234223008 ], [ 653162.038235760759562, 4510952.507110534235835 ] ] } },
{ "type": "Feature", "properties": { }, "geometry": { "type": "LineString", "coordinates": [ [ 653038.849300652742386, 4511065.639806041494012 ], [ 653267.62875156768132, 4511040.499207039363682 ] ] } },
{ "type": "Feature", "properties": { }, "geometry": { "type": "LineString", "coordinates": [ [ 652309.771929604816251, 4512626.87100404407829 ], [ 652282.798109692637809, 4512397.745977171696723 ] ] } },
{ "type": "Feature", "properties": { }, "geometry": { "type": "LineString", "coordinates": [ [ 652561.177919621346518, 4512606.758524843491614 ], [ 652450.559284014045261, 4512501.16800903622061 ] ] } },
{ "type": "Feature", "properties": { }, "geometry": { "type": "LineString", "coordinates": [ [ 652546.093560220324434, 4512724.919340150430799 ], [ 652379.009290679940023, 4512544.468028177507222 ] ] } },
{ "type": "Feature", "properties": { }, "geometry": { "type": "LineString", "coordinates": [ [ 653101.700798156904057, 4513054.261187072843313 ], [ 652606.308205762295984, 4513124.14039362501353 ] ] } },
{ "type": "Feature", "properties": { }, "geometry": { "type": "LineString", "coordinates": [ [ 651246.324591835029423, 4513501.763849302195013 ], [ 650813.906289006699808, 4512931.072251964360476 ] ] } },
{ "type": "Feature", "properties": { }, "geometry": { "type": "LineString", "coordinates": [ [ 651130.677836427465081, 4513526.90444830339402 ], [ 650632.776355761568993, 4512982.228901668451726 ] ] } },
{ "type": "Feature", "properties": { }, "geometry": { "type": "LineString", "coordinates": [ [ 650972.292062717024237, 4513494.221669601276517 ], [ 650430.732875688350759, 4512924.502193076536059 ] ] } },
{ "type": "Feature", "properties": { }, "geometry": { "type": "LineString", "coordinates": [ [ 651497.730581851559691, 4513071.859606373123825 ], [ 651135.479776419932023, 4512594.978898194618523 ] ] } },
{ "type": "Feature", "properties": { }, "geometry": { "type": "LineString", "coordinates": [ [ 651542.983660054509528, 4513091.972085574641824 ], [ 651225.677758595324121, 4512675.555762272328138 ] ] } },
{ "type": "Feature", "properties": { }, "geometry": { "type": "LineString", "coordinates": [ [ 651814.50212927244138, 4512948.670671265572309 ], [ 651568.124259056174196, 4512473.513350134715438 ] ] } },
{ "type": "Feature", "properties": { }, "geometry": { "type": "LineString", "coordinates": [ [ 651696.341313964687288, 4513137.225163778290153 ], [ 651350.752293878700584, 4512663.529364648275077 ] ] } },
{ "type": "Feature", "properties": { }, "geometry": { "type": "LineString", "coordinates": [ [ 650155.222595163388178, 4514932.26393249630928 ], [ 649320.69637504813727, 4514431.409815290011466 ] ] } },
{ "type": "Feature", "properties": { }, "geometry": { "type": "LineString", "coordinates": [ [ 650290.981829772354104, 4514854.328075591474771 ], [ 649408.489077699021436, 4514365.264628361910582 ] ] } },
{ "type": "Feature", "properties": { }, "geometry": { "type": "LineString", "coordinates": [ [ 650426.741064381203614, 4514753.765679584816098 ], [ 649564.832246803212911, 4514291.903602859005332 ] ] } },
{ "type": "Feature", "properties": { }, "geometry": { "type": "LineString", "coordinates": [ [ 650469.480082684080116, 4514653.203283578157425 ], [ 649627.270016128662974, 4514180.560022347606719 ] ] } },
{ "type": "Feature", "properties": { }, "geometry": { "type": "LineString", "coordinates": [ [ 650534.845640088315122, 4514620.520504876039922 ], [ 649687.607453732634895, 4514173.017842646688223 ] ] } },
{ "type": "Feature", "properties": { }, "geometry": { "type": "LineString", "coordinates": [ [ 650637.92209599504713, 4514527.500288570299745 ], [ 649819.791876419447362, 4514080.2390046864748 ] ] } },
{ "type": "Feature", "properties": { }, "geometry": { "type": "LineString", "coordinates": [ [ 650740.998551901895553, 4514487.275330167263746 ], [ 649922.016256218426861, 4514033.336053955368698 ] ] } },
{ "type": "Feature", "properties": { }, "geometry": { "type": "LineString", "coordinates": [ [ 650751.054791502538137, 4514421.909772763028741 ], [ 649958.095449088606983, 4513958.772388690151274 ] ] } },
{ "type": "Feature", "properties": { }, "geometry": { "type": "LineString", "coordinates": [ [ 650781.22351030446589, 4514346.487975758500397 ], [ 650014.435240754159167, 4513886.415014027617872 ] ] } },
{ "type": "Feature", "properties": { }, "geometry": { "type": "LineString", "coordinates": [ [ 650844.075007808627561, 4514286.1505381539464 ], [ 650086.777903659036383, 4513821.671455783769488 ] ] } },
{ "type": "Feature", "properties": { }, "geometry": { "type": "LineString", "coordinates": [ [ 651932.662944580195472, 4512827.99579605832696 ], [ 651749.136571868089959, 4512398.091553130187094 ] ] } },
{ "type": "Feature", "properties": { }, "geometry": { "type": "LineString", "coordinates": [ [ 652098.59089799108915, 4512714.863100551068783 ], [ 652035.73940048692748, 4512375.46501402836293 ] ] } },
{ "type": "Feature", "properties": { }, "geometry": { "type": "LineString", "coordinates": [ [ 652963.427503647864796, 4513024.092468271031976 ], [ 652618.334603385766968, 4513025.52393311355263 ] ] } },
{ "type": "Feature", "properties": { }, "geometry": { "type": "LineString", "coordinates": [ [ 654024.360781517578289, 4512657.039722846820951 ], [ 653516.520681684254669, 4513097.000205375254154 ] ] } },
{ "type": "Feature", "properties": { }, "geometry": { "type": "LineString", "coordinates": [ [ 653948.938984512700699, 4512561.505446639843285 ], [ 653647.79423994908575, 4512918.488994265906513 ] ] } },
{ "type": "Feature", "properties": { }, "geometry": { "type": "LineString", "coordinates": [ [ 653408.416105977143161, 4512805.369256956502795 ], [ 653134.383576859137975, 4513009.008108869194984 ] ] } },
{ "type": "Feature", "properties": { }, "geometry": { "type": "LineString", "coordinates": [ [ 655668.555956225609407, 4510917.310271931812167 ], [ 655706.112193195498548, 4511454.275083617307246 ] ] } },
{ "type": "Feature", "properties": { }, "geometry": { "type": "LineString", "coordinates": [ [ 655510.170182515168563, 4510826.804115525446832 ], [ 655485.029583513503894, 4511294.419256956316531 ] ] } },
{ "type": "Feature", "properties": { }, "geometry": { "type": "LineString", "coordinates": [ [ 655258.764192498638295, 4510698.587060617282987 ], [ 655314.073510302347131, 4511128.491303545422852 ] ] } },
{ "type": "Feature", "properties": { }, "geometry": { "type": "LineString", "coordinates": [ [ 655238.651713297353126, 4510824.29005562607199 ], [ 655331.489907226525247, 4511334.612427264451981 ] ] } },
{ "type": "Feature", "properties": { }, "geometry": { "type": "LineString", "coordinates": [ [ 654982.217603480443358, 4510633.221503213047981 ], [ 655100.378418788313866, 4511068.153865941800177 ] ] } },
{ "type": "Feature", "properties": { }, "geometry": { "type": "LineString", "coordinates": [ [ 654924.394225776661187, 4510419.526411699131131 ], [ 655070.209699986269698, 4510791.607276923954487 ] ] } },
{ "type": "Feature", "properties": { }, "geometry": { "type": "LineString", "coordinates": [ [ 654982.217603480443358, 4510361.703033994883299 ], [ 655128.033077690051869, 4510741.32607892062515 ] ] } },
{ "type": "Feature", "properties": { }, "geometry": { "type": "LineString", "coordinates": [ [ 654952.048884678515606, 4510826.804115525446832 ], [ 654972.161363879800774, 4511216.483400051482022 ] ] } },
{ "type": "Feature", "properties": { }, "geometry": { "type": "LineString", "coordinates": [ [ 654622.707037756917998, 4511958.131070599891245 ], [ 654719.947588075883687, 4512139.178428270854056 ] ] } },
{ "type": "Feature", "properties": { }, "geometry": { "type": "LineString", "coordinates": [ [ 654680.530415460700169, 4511872.653033994138241 ], [ 654755.952212465694174, 4512020.982568104751408 ] ] } },
{ "type": "Feature", "properties": { }, "geometry": { "type": "LineString", "coordinates": [ [ 654557.341480352566577, 4512046.123167105950415 ], [ 654671.84199758223258, 4512201.715695912018418 ] ] } },
{ "type": "Feature", "properties": { }, "geometry": { "type": "LineString", "coordinates": [ [ 656113.544558554771356, 4511025.414847639389336 ], [ 656026.014369978103787, 4511552.891544129699469 ] ] } },
{ "type": "Feature", "properties": { }, "geometry": { "type": "LineString", "coordinates": [ [ 656269.416272365022451, 4511050.555446640588343 ], [ 656143.713277356815524, 4511550.853366773575544 ] ] } },
{ "type": "Feature", "properties": { }, "geometry": { "type": "LineString", "coordinates": [ [ 656199.022595160407946, 4511254.194298554211855 ], [ 655944.234866138896905, 4511739.300707291811705 ] ] } },
{ "type": "Feature", "properties": { }, "geometry": { "type": "LineString", "coordinates": [ [ 656060.749300651368685, 4511188.82874114997685 ], [ 655821.913610135670751, 4511618.732984078116715 ] ] } },
{ "type": "Feature", "properties": { }, "geometry": { "type": "LineString", "coordinates": [ [ 656503.223843080340885, 4511384.925413362681866 ], [ 656176.344340270617977, 4511908.872913782484829 ] ] } },
{ "type": "Feature", "properties": { }, "geometry": { "type": "LineString", "coordinates": [ [ 656752.115773196797818, 4511470.40344996843487 ], [ 656375.006788171944208, 4512031.038807705044746 ] ] } },
{ "type": "Feature", "properties": { }, "geometry": { "type": "LineString", "coordinates": [ [ 657151.851297323009931, 4511887.737393395975232 ], [ 656719.4329944945639, 4512576.589806041680276 ] ] } },
{ "type": "Feature", "properties": { }, "geometry": { "type": "LineString", "coordinates": [ [ 658094.623759884969331, 4511938.018591400235891 ], [ 657440.968185842037201, 4512601.730405043810606 ] ] } },
{ "type": "Feature", "properties": { }, "geometry": { "type": "LineString", "coordinates": [ [ 658046.856621781829745, 4511887.737393396906555 ], [ 657378.11668833787553, 4512548.935147140175104 ] ] } },
{ "type": "Feature", "properties": { }, "geometry": { "type": "LineString", "coordinates": [ [ 657911.097387172980234, 4511900.307692897506058 ], [ 657290.124591832165606, 4512584.131985742598772 ] ] } },
{ "type": "Feature", "properties": { }, "geometry": { "type": "LineString", "coordinates": [ [ 657621.980498653952964, 4512026.010687905363739 ], [ 656980.895224111853167, 4512704.806860949844122 ] ] } },
{ "type": "Feature", "properties": { }, "geometry": { "type": "LineString", "coordinates": [ [ 657317.779250733903609, 4511897.793632997199893 ], [ 656792.34073159948457, 4512596.702285243198276 ] ] } },
{ "type": "Feature", "properties": { }, "geometry": { "type": "LineString", "coordinates": [ [ 656895.417187506216578, 4511586.050205375999212 ], [ 656510.766022780910134, 4512166.79804231505841 ] ] } },
{ "type": "Feature", "properties": { }, "geometry": { "type": "LineString", "coordinates": [ [ 652364.243227441445924, 4510585.873375096358359 ], [ 652746.380332266329788, 4510443.409980753436685 ] ] } },
{ "type": "Feature", "properties": { }, "geometry": { "type": "LineString", "coordinates": [ [ 653140.249716625548899, 4509935.569880921393633 ], [ 653681.610615127487108, 4509948.978200389072299 ] ] } },
{ "type": "Feature", "properties": { }, "geometry": { "type": "LineString", "coordinates": [ [ 653907.876006142236292, 4510198.70815047249198 ], [ 654407.335906308027916, 4510436.705821020528674 ] ] } },
{ "type": "Feature", "properties": { }, "geometry": { "type": "LineString", "coordinates": [ [ 653436.908784844912589, 4510064.624955796636641 ], [ 654035.255041083786637, 4510223.848749473690987 ] ] } },
{ "type": "Feature", "properties": { }, "geometry": { "type": "LineString", "coordinates": [ [ 652677.662694995407946, 4508681.892010706476867 ], [ 653311.205789836705662, 4508282.994506547227502 ] ] } },
{ "type": "Feature", "properties": { }, "geometry": { "type": "LineString", "coordinates": [ [ 652764.816771534504369, 4508770.722127178683877 ], [ 653393.33174657530617, 4508465.682859292253852 ] ] } },
{ "type": "Feature", "properties": { }, "geometry": { "type": "LineString", "coordinates": [ [ 652945.829084346187301, 4508693.624290240928531 ], [ 653554.231580185820349, 4508398.641261954791844 ] ] } },
{ "type": "Feature", "properties": { }, "geometry": { "type": "LineString", "coordinates": [ [ 652927.392645078361966, 4508879.664722853340209 ], [ 653534.11910098453518, 4508966.818799392320216 ] ] } },
{ "type": "Feature", "properties": { }, "geometry": { "type": "LineString", "coordinates": [ [ 654093.357758775120601, 4515473.48516100179404 ], [ 652700.114107225555927, 4515864.9564119996503 ] ] } },
{ "type": "Feature", "properties": { }, "geometry": { "type": "LineString", "coordinates": [ [ 654075.479999485076405, 4515245.543730054050684 ], [ 652668.845473404740915, 4515664.115571688860655 ] ] } },
{ "type": "Feature", "properties": { }, "geometry": { "type": "LineString", "coordinates": [ [ 654263.19647203059867, 4515004.193979637697339 ], [ 652825.188642509048805, 4515400.737463736906648 ] ] } },
{ "type": "Feature", "properties": { }, "geometry": { "type": "LineString", "coordinates": [ [ 653749.210892441798933, 4515768.468189287930727 ], [ 652101.199505579890683, 4516140.36091757658869 ] ] } },
{ "type": "Feature", "properties": { }, "geometry": { "type": "LineString", "coordinates": [ [ 653641.944336701533757, 4515951.71522201038897 ], [ 652028.476560775074176, 4516233.289930828846991 ] ] } },
{ "type": "Feature", "properties": { }, "geometry": { "type": "LineString", "coordinates": [ [ 658540.450382173643447, 4516640.008954676799476 ], [ 657338.171069918200374, 4517046.727978525683284 ] ] } },
{ "type": "Feature", "properties": { }, "geometry": { "type": "LineString", "coordinates": [ [ 658513.633743238518946, 4516429.945283018983901 ], [ 657302.415551338111982, 4516899.236464382149279 ] ] } },
{ "type": "Feature", "properties": { }, "geometry": { "type": "LineString", "coordinates": [ [ 659045.497082117362879, 4516134.962254732847214 ], [ 657959.423205247148871, 4516648.947834322229028 ] ] } },
{ "type": "Feature", "properties": { }, "geometry": { "type": "LineString", "coordinates": [ [ 660028.773843069793656, 4515495.832360113970935 ], [ 658933.761086554615758, 4516023.226259170100093 ] ] } },
{ "type": "Feature", "properties": { }, "geometry": { "type": "LineString", "coordinates": [ [ 659291.316272355499677, 4515822.101467157714069 ], [ 658285.692312290542759, 4516251.167690118774772 ] ] } },
{ "type": "Feature", "properties": { }, "geometry": { "type": "LineString", "coordinates": [ [ 658790.739012234262191, 4516778.561589174903929 ], [ 657651.031857493915595, 4517176.341733378358185 ] ] } },
{ "type": "Feature", "properties": { }, "geometry": { "type": "LineString", "coordinates": [ [ 659224.274675017804839, 4516733.867190949618816 ], [ 658133.731358325108886, 4517122.708455508574843 ] ] } },
{ "type": "Feature", "properties": { }, "geometry": { "type": "LineString", "coordinates": [ [ 660109.223759874934331, 4515187.441012360155582 ], [ 658924.822206909535453, 4515755.059869819320738 ] ] } },
{ "type": "Feature", "properties": { }, "geometry": { "type": "LineString", "coordinates": [ [ 662795.357093203929253, 4512621.982554238289595 ], [ 661901.091109030996449, 4513330.775036172941327 ] ] } },
{ "type": "Feature", "properties": { }, "geometry": { "type": "LineString", "coordinates": [ [ 663269.117714390042238, 4512291.244007373228669 ], [ 662417.955872266436927, 4512882.518985411152244 ] ] } },
{ "type": "Feature", "properties": { }, "geometry": { "type": "LineString", "coordinates": [ [ 662406.515828645438887, 4513091.273735602386296 ], [ 661474.558034754125401, 4513757.308110450394452 ] ] } },
{ "type": "Feature", "properties": { }, "geometry": { "type": "LineString", "coordinates": [ [ 661995.32736497442238, 4513453.298361225984991 ], [ 661074.622761537088081, 4514123.714334602467716 ] ] } },
{ "type": "Feature", "properties": { }, "geometry": { "type": "LineString", "coordinates": [ [ 661338.319711065269075, 4512228.671849857084453 ], [ 661088.031081004650332, 4512613.043674592860043 ] ] } },
{ "type": "Feature", "properties": { }, "geometry": { "type": "LineString", "coordinates": [ [ 664533.969184160698205, 4512183.97745163179934 ], [ 663722.082242409233004, 4512845.017874443903565 ] ] } },
{ "type": "Feature", "properties": { }, "geometry": { "type": "LineString", "coordinates": [ [ 659572.890981173492037, 4510847.614944701083004 ], [ 659027.619322827085853, 4511643.175233107991517 ] ] } },
{ "type": "Feature", "properties": { }, "geometry": { "type": "LineString", "coordinates": [ [ 659680.157536913757212, 4510793.981666831299663 ], [ 659188.519156437483616, 4511576.133635770529509 ] ] } },
{ "type": "Feature", "properties": { }, "geometry": { "type": "LineString", "coordinates": [ [ 660422.084547450649552, 4512362.755044532008469 ], [ 659765.076893541612662, 4513234.295809921808541 ] ] } },
{ "type": "Feature", "properties": { }, "geometry": { "type": "LineString", "coordinates": [ [ 659385.174508628086187, 4511151.53685263171792 ], [ 658808.616771524189971, 4511938.158261393196881 ] ] } },
{ "type": "Feature", "properties": { }, "geometry": { "type": "LineString", "coordinates": [ [ 663219.953876342508011, 4511777.25842778198421 ], [ 662504.843504740856588, 4512492.368799383752048 ] ] } },
{ "type": "Feature", "properties": { }, "geometry": { "type": "LineString", "coordinates": [ [ 664024.453044394496828, 4511723.625149912200868 ], [ 663289.56693707650993, 4512295.250840418040752 ] ] } },
{ "type": "Feature", "properties": { }, "geometry": { "type": "LineString", "coordinates": [ [ 663966.350326701882295, 4509980.543619132600725 ], [ 663251.239955100114457, 4510619.673513752408326 ] ] } },
{ "type": "Feature", "properties": { }, "geometry": { "type": "LineString", "coordinates": [ [ 663617.734020546078682, 4510650.959592510014772 ], [ 662902.623648944310844, 4511334.783885354176164 ] ] } },
{ "type": "Feature", "properties": { }, "geometry": { "type": "LineString", "coordinates": [ [ 663729.470016108825803, 4510463.243119964376092 ], [ 663094.809561312198639, 4510995.106458842754364 ] ] } },
{ "type": "Feature", "properties": { }, "geometry": { "type": "LineString", "coordinates": [ [ 663340.628751550335437, 4511294.558926951140165 ], [ 662612.110060481121764, 4511947.09714103769511 ] ] } },
{ "type": "Feature", "properties": { }, "geometry": { "type": "LineString", "coordinates": [ [ 668229.078557421686128, 4511724.183829890564084 ], [ 667858.115052153356373, 4512077.269575868733227 ] ] } },
{ "type": "Feature", "properties": { }, "geometry": { "type": "LineString", "coordinates": [ [ 668296.120154759380966, 4511639.264473263174295 ], [ 667893.870570733444765, 4511976.707179862074554 ] ] } },
{ "type": "Feature", "properties": { }, "geometry": { "type": "LineString", "coordinates": [ [ 667706.1540981879225, 4511967.768300217576325 ], [ 667308.373953984468244, 4512430.35532184690237 ] ] } },
{ "type": "Feature", "properties": { }, "geometry": { "type": "LineString", "coordinates": [ [ 667610.061142003978603, 4512057.157096667215228 ], [ 667243.22344184294343, 4512534.240971093997359 ] ] } },
{ "type": "Feature", "properties": { }, "geometry": { "type": "LineString", "coordinates": [ [ 667221.219877445488237, 4512166.658372319303453 ], [ 666818.970293419552036, 4512696.286991287022829 ] ] } },
{ "type": "Feature", "properties": { }, "geometry": { "type": "LineString", "coordinates": [ [ 666794.388374395668507, 4512374.48732406552881 ], [ 666416.720709393499419, 4513024.790818241424859 ] ] } },
{ "type": "Feature", "properties": { }, "geometry": { "type": "LineString", "coordinates": [ [ 670528.605346103897318, 4511100.69697465095669 ], [ 670202.336239060619846, 4511087.288655183278024 ] ] } },
{ "type": "Feature", "properties": { }, "geometry": { "type": "LineString", "coordinates": [ [ 669963.221208556205966, 4511196.789930834434927 ], [ 669592.257703287759796, 4511306.291206485591829 ] ] } },
{ "type": "Feature", "properties": { }, "geometry": { "type": "LineString", "coordinates": [ [ 671929.774730461183935, 4510795.657706764526665 ], [ 671388.972511937376112, 4510672.748111645691097 ] ] } },
{ "type": "Feature", "properties": { }, "geometry": { "type": "LineString", "coordinates": [ [ 671590.097303950344212, 4510947.618660729378462 ], [ 671064.938124805339612, 4510914.097862061113119 ] ] } },
{ "type": "Feature", "properties": { }, "geometry": { "type": "LineString", "coordinates": [ [ 670729.730138116981834, 4511240.36696910392493 ], [ 670410.16519080742728, 4511256.010008483193815 ] ] } },
{ "type": "Feature", "properties": { }, "geometry": { "type": "LineString", "coordinates": [ [ 670622.463582376716658, 4512238.169409479014575 ], [ 670092.834963409113698, 4512235.934689567424357 ] ] } },
{ "type": "Feature", "properties": { }, "geometry": { "type": "LineString", "coordinates": [ [ 670401.226311162463389, 4512072.800136046484113 ], [ 669925.230970064993016, 4512099.616774980910122 ] ] } },
{ "type": "Feature", "properties": { }, "geometry": { "type": "LineString", "coordinates": [ [ 669735.279777608229779, 4512390.130363444797695 ], [ 669223.528917930787429, 4512479.519159894436598 ] ] } },
{ "type": "Feature", "properties": { }, "geometry": { "type": "LineString", "coordinates": [ [ 668343.049272896023467, 4518652.932914738543332 ], [ 667846.941452597267926, 4518858.527146574109793 ] ] } },
{ "type": "Feature", "properties": { }, "geometry": { "type": "LineString", "coordinates": [ [ 668193.323038841830567, 4519017.192260272800922 ], [ 667719.562417655717582, 4519242.898971309885383 ] ] } },
{ "type": "Feature", "properties": { }, "geometry": { "type": "LineString", "coordinates": [ [ 668477.132467571296729, 4519249.603131043724716 ], [ 668043.596804787754081, 4519466.370962435379624 ] ] } },
{ "type": "Feature", "properties": { }, "geometry": { "type": "LineString", "coordinates": [ [ 669029.108285651425831, 4518112.130696214735508 ], [ 668555.347664465312846, 4518203.75421257596463 ] ] } },
{ "type": "Feature", "properties": { }, "geometry": { "type": "LineString", "coordinates": [ [ 669288.33579535712488, 4518031.680779409594834 ], [ 668792.227975058369339, 4518083.07933736871928 ] ] } },
{ "type": "Feature", "properties": { }, "geometry": { "type": "LineString", "coordinates": [ [ 665840.162972289836034, 4518545.666358998976648 ], [ 665160.808119268156588, 4518787.01610941439867 ] ] } },
{ "type": "Feature", "properties": { }, "geometry": { "type": "LineString", "coordinates": [ [ 665484.842506400193088, 4518749.02587092295289 ], [ 664763.027975064702332, 4518952.385382846929133 ] ] } },
{ "type": "Feature", "properties": { }, "geometry": { "type": "LineString", "coordinates": [ [ 665661.385379389394075, 4518825.00634790584445 ], [ 664914.98892903001979, 4519017.192260273732245 ] ] } },
{ "type": "Feature", "properties": { }, "geometry": { "type": "LineString", "coordinates": [ [ 665723.957536904490553, 4518847.353547018021345 ], [ 665055.776283439132385, 4519035.070019563660026 ] ] } },
{ "type": "Feature", "properties": { }, "geometry": { "type": "LineString", "coordinates": [ [ 654590.582939029554836, 4514372.326924729160964 ], [ 653176.005235204705968, 4514821.505626890808344 ] ] } },
{ "type": "Feature", "properties": { }, "geometry": { "type": "LineString", "coordinates": [ [ 654608.460698319482617, 4514247.182609698735178 ], [ 653202.821874139714055, 4514712.004351239651442 ] ] } },
{ "type": "Feature", "properties": { }, "geometry": { "type": "LineString", "coordinates": [ [ 651352.473787620314397, 4509182.189930839464068 ], [ 652002.777281795744784, 4508634.683552581816912 ] ] } },
{ "type": "Feature", "properties": { }, "geometry": { "type": "LineString", "coordinates": [ [ 651437.393144248053432, 4509369.906403385102749 ], [ 652022.889760997029953, 4509023.524817139841616 ] ] } },
{ "type": "Feature", "properties": { }, "geometry": { "type": "LineString", "coordinates": [ [ 651504.43474158574827, 4509390.018882585689425 ], [ 652139.095196382259019, 4509086.09697465505451 ] ] } },
{ "type": "Feature", "properties": { }, "geometry": { "type": "LineString", "coordinates": [ [ 651734.61089244496543, 4510652.63563244510442 ], [ 652103.339677802170627, 4510317.427645756863058 ] ] } },
{ "type": "Feature", "properties": { }, "geometry": { "type": "LineString", "coordinates": [ [ 653790.553210800164379, 4509448.121600277721882 ], [ 654136.93479704472702, 4509436.948000721633434 ] ] } },
{ "type": "Feature", "properties": { }, "geometry": { "type": "LineString", "coordinates": [ [ 653864.298967871582136, 4509495.050718414597213 ], [ 654210.680554116144776, 4509486.111838769167662 ] ] } },
{ "type": "Feature", "properties": { }, "geometry": { "type": "LineString", "coordinates": [ [ 653938.044724942999892, 4509537.510396728292108 ], [ 654282.19159127632156, 4509548.683996284380555 ] ] } },
{ "type": "Feature", "properties": { }, "geometry": { "type": "LineString", "coordinates": [ [ 654078.832079352112487, 4509629.133913089521229 ], [ 654420.744225774193183, 4509673.828311314806342 ] ] } },
{ "type": "Feature", "properties": { }, "geometry": { "type": "LineString", "coordinates": [ [ 654177.159755447297357, 4509836.962864836677909 ], [ 654554.827420449466445, 4509868.248943594284356 ] ] } },
{ "type": "Feature", "properties": { }, "geometry": { "type": "LineString", "coordinates": [ [ 653350.313388282782398, 4509231.353768886066973 ], [ 653739.154652841272764, 4509148.669132170267403 ] ] } },
{ "type": "Feature", "properties": { }, "geometry": { "type": "LineString", "coordinates": [ [ 653511.213221893180162, 4509305.099525957368314 ], [ 653853.125368315260857, 4509229.119048975408077 ] ] } },
{ "type": "Feature", "properties": { }, "geometry": { "type": "LineString", "coordinates": [ [ 649730.067132049007341, 4507445.812559792771935 ], [ 650286.512389951618388, 4506663.660590853542089 ] ] } },
{ "type": "Feature", "properties": { }, "geometry": { "type": "LineString", "coordinates": [ [ 649533.411779858521186, 4507588.834634113125503 ], [ 650076.448718293569982, 4506797.743785528466105 ] ] } },
{ "type": "Feature", "properties": { }, "geometry": { "type": "LineString", "coordinates": [ [ 649517.768740479717962, 4507689.397030119784176 ], [ 650060.805678914883174, 4506907.24506118055433 ] ] } },
{ "type": "Feature", "properties": { }, "geometry": { "type": "LineString", "coordinates": [ [ 649571.40201834985055, 4507548.609675711020827 ], [ 650109.969516962417401, 4506764.222986860200763 ] ] } },
{ "type": "Feature", "properties": { }, "geometry": { "type": "LineString", "coordinates": [ [ 649971.416882464662194, 4507414.526481035165489 ], [ 650547.97461956855841, 4506670.364750587381423 ] ] } },
{ "type": "Feature", "properties": { }, "geometry": { "type": "LineString", "coordinates": [ [ 650011.641840867232531, 4507421.230640769004822 ], [ 650608.312057172413915, 4506703.885549255646765 ] ] } },
{ "type": "Feature", "properties": { }, "geometry": { "type": "LineString", "coordinates": [ [ 650065.275118737365119, 4507334.076564230024815 ], [ 650661.945335042546503, 4506614.496752806007862 ] ] } },
{ "type": "Feature", "properties": { }, "geometry": { "type": "LineString", "coordinates": [ [ 654069.893199707265012, 4504891.52770122885704 ], [ 654221.656555176828988, 4504511.464176452718675 ] ] } },
{ "type": "Feature", "properties": { }, "geometry": { "type": "LineString", "coordinates": [ [ 653991.67800281336531, 4504922.813779986463487 ], [ 654159.281996157485992, 4504516.094756137579679 ] ] } },
{ "type": "Feature", "properties": { }, "geometry": { "type": "LineString", "coordinates": [ [ 654257.609672252787277, 4505519.483996291644871 ], [ 654293.365190832875669, 4505217.796808271668851 ] ] } },
{ "type": "Feature", "properties": { }, "geometry": { "type": "LineString", "coordinates": [ [ 654210.680554116377607, 4505430.095199841074646 ], [ 654284.426311187795363, 4505135.112171554937959 ] ] } },
{ "type": "Feature", "properties": { }, "geometry": { "type": "LineString", "coordinates": [ [ 654081.06679926358629, 4505188.745449425652623 ], [ 654150.343116512522101, 4504909.405460518784821 ] ] } },
{ "type": "Feature", "properties": { }, "geometry": { "type": "LineString", "coordinates": [ [ 654521.306621780851856, 4505830.11006395611912 ], [ 654570.470459828502499, 4505570.882554249837995 ] ] } },
{ "type": "Feature", "properties": { }, "geometry": { "type": "LineString", "coordinates": [ [ 654557.062140360940248, 4505885.978061737492681 ], [ 654628.573177521117032, 4505642.39359141048044 ] ] } },
{ "type": "Feature", "properties": { }, "geometry": { "type": "LineString", "coordinates": [ [ 654460.96918417699635, 4505767.537906440906227 ], [ 654494.48998284584377, 4505492.667357356287539 ] ] } },
{ "type": "Feature", "properties": { }, "geometry": { "type": "LineString", "coordinates": [ [ 654355.937348347972147, 4505620.046392297372222 ], [ 654376.049827549257316, 4505340.70640339050442 ] ] } },
{ "type": "Feature", "properties": { }, "geometry": { "type": "LineString", "coordinates": [ [ 654711.257814237615094, 4506160.848610821180046 ], [ 654829.697969534201548, 4505903.855821027420461 ] ] } },
{ "type": "Feature", "properties": { }, "geometry": { "type": "LineString", "coordinates": [ [ 654657.624536367482506, 4506082.63341392762959 ], [ 654733.605013350141235, 4505796.589265286922455 ] ] } },
{ "type": "Feature", "properties": { }, "geometry": { "type": "LineString", "coordinates": [ [ 654809.585490332567133, 4506355.269243101589382 ], [ 654957.077004475519061, 4506091.572293573059142 ] ] } },
{ "type": "Feature", "properties": { }, "geometry": { "type": "LineString", "coordinates": [ [ 655131.38515755336266, 4506822.325704554095864 ], [ 655336.979389388929121, 4506610.02731298469007 ] ] } },
{ "type": "Feature", "properties": { }, "geometry": { "type": "LineString", "coordinates": [ [ 655189.487875246093608, 4506887.132581979967654 ], [ 655408.490426549105905, 4506681.538350144401193 ] ] } },
{ "type": "Feature", "properties": { }, "geometry": { "type": "LineString", "coordinates": [ [ 655415.194586282828823, 4507215.636408935301006 ], [ 655699.004015012294985, 4507043.562975767999887 ] ] } },
{ "type": "Feature", "properties": { }, "geometry": { "type": "LineString", "coordinates": [ [ 655824.148330042604357, 4508015.666137164458632 ], [ 656078.906399925821461, 4507691.63175003323704 ] ] } },
{ "type": "Feature", "properties": { }, "geometry": { "type": "LineString", "coordinates": [ [ 654961.546444297884591, 4509928.586381200700998 ], [ 655138.089317286969163, 4510230.273569219745696 ] ] } },
{ "type": "Feature", "properties": { }, "geometry": { "type": "LineString", "coordinates": [ [ 654988.363083232892677, 4509711.81854980904609 ], [ 655178.314275689655915, 4509988.923818804323673 ] ] } },
{ "type": "Feature", "properties": { }, "geometry": { "type": "LineString", "coordinates": [ [ 657024.192922386806458, 4505608.87279274314642 ], [ 656983.967963984236121, 4505356.349442770704627 ] ] } },
{ "type": "Feature", "properties": { }, "geometry": { "type": "LineString", "coordinates": [ [ 656153.692277872702107, 4503501.032469113357365 ], [ 656134.43884529126808, 4503163.467521752230823 ] ] } },
{ "type": "Feature", "properties": { }, "geometry": { "type": "LineString", "coordinates": [ [ 656208.520154778496362, 4503422.199359579011798 ], [ 656152.652156997122802, 4503086.991372890770435 ] ] } },
{ "type": "Feature", "properties": { }, "geometry": { "type": "LineString", "coordinates": [ [ 656040.916161434375681, 4503312.698083927854896 ], [ 656038.227664304082282, 4503025.131445305421948 ] ] } },
{ "type": "Feature", "properties": { }, "geometry": { "type": "LineString", "coordinates": [ [ 656087.999757730984129, 4503249.183657740242779 ], [ 656094.703917464707047, 4502965.37422901019454 ] ] } },
{ "type": "Feature", "properties": { }, "geometry": { "type": "LineString", "coordinates": [ [ 655488.940343354130164, 4502260.145005727186799 ], [ 655614.084658384439535, 4501967.396697352640331 ] ] } },
{ "type": "Feature", "properties": { }, "geometry": { "type": "LineString", "coordinates": [ [ 655663.248496432090178, 4502747.313946380279958 ], [ 655710.329558290657587, 4502447.86435938347131 ] ] } },
{ "type": "Feature", "properties": { }, "geometry": { "type": "LineString", "coordinates": [ [ 655611.849938473198563, 4501797.557984096929431 ], [ 655720.600751937250607, 4501517.151198443025351 ] ] } },
{ "type": "Feature", "properties": { }, "geometry": { "type": "LineString", "coordinates": [ [ 655646.410858017625287, 4502019.258689792826772 ], [ 655720.156615089043044, 4501684.050703103654087 ] ] } },
{ "type": "Feature", "properties": { }, "geometry": { "type": "LineString", "coordinates": [ [ 655133.619877464487217, 4501987.50917655415833 ], [ 655244.745451378636062, 4501643.785915041342378 ] ] } },
{ "type": "Feature", "properties": { }, "geometry": { "type": "LineString", "coordinates": [ [ 655433.072345572873019, 4502052.316053980030119 ], [ 655595.786246872856282, 4501800.584137027151883 ] ] } },
{ "type": "Feature", "properties": { }, "geometry": { "type": "LineString", "coordinates": [ [ 656029.742561878054403, 4501473.523596964776516 ], [ 656188.407675577211194, 4501384.134800515137613 ] ] } },
{ "type": "Feature", "properties": { }, "geometry": { "type": "LineString", "coordinates": [ [ 656894.579167533898726, 4500890.261700127273798 ], [ 656988.437403806601651, 4500765.117385096848011 ] ] } },
{ "type": "Feature", "properties": { }, "geometry": { "type": "LineString", "coordinates": [ [ 655520.226422111736611, 4501359.552881491370499 ], [ 655735.1624441947788, 4501045.976441825740039 ] ] } },
{ "type": "Feature", "properties": { }, "geometry": { "type": "LineString", "coordinates": [ [ 655540.338901313138194, 4501498.10551598854363 ], [ 655743.698413237347268, 4501194.183608057908714 ] ] } },
{ "type": "Feature", "properties": { }, "geometry": { "type": "LineString", "coordinates": [ [ 655553.74722078058403, 4501589.729032349772751 ], [ 655705.708174746017903, 4501361.787601402029395 ] ] } },
{ "type": "Feature", "properties": { }, "geometry": { "type": "LineString", "coordinates": [ [ 655578.329139804583974, 4500036.598694027401507 ], [ 655899.972847298136912, 4499612.137311133556068 ] ] } },
{ "type": "Feature", "properties": { }, "geometry": { "type": "LineString", "coordinates": [ [ 655578.329139804583974, 4500132.691650211811066 ], [ 655893.424647291540168, 4499679.043508226983249 ] ] } },
{ "type": "Feature", "properties": { }, "geometry": { "type": "LineString", "coordinates": [ [ 655596.20689909462817, 4500210.906847105361521 ], [ 655916.354751087841578, 4499798.31894785258919 ] ] } },
{ "type": "Feature", "properties": { }, "geometry": { "type": "LineString", "coordinates": [ [ 655480.001463709282689, 4501176.305848767980933 ], [ 655697.718092675320804, 4500860.834925980307162 ] ] } },
{ "type": "Feature", "properties": { }, "geometry": { "type": "LineString", "coordinates": [ [ 653070.973399375914596, 4499971.791816600598395 ], [ 653377.1300272179069, 4499415.346558698453009 ] ] } },
{ "type": "Feature", "properties": { }, "geometry": { "type": "LineString", "coordinates": [ [ 653113.433077689725906, 4499860.055821037851274 ], [ 653417.984408047515899, 4499292.950217453762889 ] ] } },
{ "type": "Feature", "properties": { }, "geometry": { "type": "LineString", "coordinates": [ [ 653113.433077689725906, 4500148.334689590148628 ], [ 653434.545082613709383, 4499596.37297910451889 ] ] } },
{ "type": "Feature", "properties": { }, "geometry": { "type": "LineString", "coordinates": [ [ 653969.330803700722754, 4501866.834301344119012 ], [ 654149.368154327501543, 4501115.989578263834119 ] ] } },
{ "type": "Feature", "properties": { }, "geometry": { "type": "LineString", "coordinates": [ [ 654054.924698926392011, 4502000.974121976643801 ], [ 654229.23285200423561, 4501330.558148600161076 ] ] } },
{ "type": "Feature", "properties": { }, "geometry": { "type": "LineString", "coordinates": [ [ 654043.07656077214051, 4502240.032526523806155 ], [ 654216.45595079974737, 4501487.832791268825531 ] ] } },
{ "type": "Feature", "properties": { }, "geometry": { "type": "LineString", "coordinates": [ [ 654043.07656077214051, 4502376.350441110320389 ], [ 654234.138005683547817, 4501629.289230339229107 ] ] } },
{ "type": "Feature", "properties": { }, "geometry": { "type": "LineString", "coordinates": [ [ 653846.421208581654355, 4501647.831750040873885 ], [ 654043.2758250227198, 4500908.485463594086468 ] ] } },
{ "type": "Feature", "properties": { }, "geometry": { "type": "LineString", "coordinates": [ [ 653810.665690001565963, 4501576.32071288023144 ], [ 653990.749720808002166, 4500820.595249610953033 ] ] } },
{ "type": "Feature", "properties": { }, "geometry": { "type": "LineString", "coordinates": [ [ 653732.084910830133595, 4501492.693807491101325 ], [ 653930.422710026847199, 4500731.664914752356708 ] ] } },
{ "type": "Feature", "properties": { }, "geometry": { "type": "LineString", "coordinates": [ [ 653701.16441435017623, 4501431.063918647356331 ], [ 653894.538539820816368, 4500646.895063396543264 ] ] } },
{ "type": "Feature", "properties": { }, "geometry": { "type": "LineString", "coordinates": [ [ 653665.408895770087838, 4501381.900080599822104 ], [ 653871.003127605537884, 4500541.645393967628479 ] ] } },
{ "type": "Feature", "properties": { }, "geometry": { "type": "LineString", "coordinates": [ [ 653551.438180295983329, 4501008.701855420134962 ], [ 653754.797692220308818, 4500231.01932630315423 ] ] } },
{ "type": "Feature", "properties": { }, "geometry": { "type": "LineString", "coordinates": [ [ 653502.274342248449102, 4500926.017218703404069 ], [ 653719.229416625224985, 4500124.396842338144779 ] ] } },
{ "type": "Feature", "properties": { }, "geometry": { "type": "LineString", "coordinates": [ [ 654231.910393273341469, 4503195.375288585200906 ], [ 654394.316620516357943, 4502539.394996432587504 ] ] } },
{ "type": "Feature", "properties": { }, "geometry": { "type": "LineString", "coordinates": [ [ 654180.511835314449854, 4503070.230973554775119 ], [ 654334.707509191008285, 4502357.355321863666177 ] ] } },
{ "type": "Feature", "properties": { }, "geometry": { "type": "LineString", "coordinates": [ [ 654129.113277355558239, 4502869.106181541457772 ], [ 654301.186710522277281, 4502118.240291359834373 ] ] } },
{ "type": "Feature", "properties": { }, "geometry": { "type": "LineString", "coordinates": [ [ 654097.827198597951792, 4502757.370185978710651 ], [ 654272.135351675911807, 4502031.086214820854366 ] ] } },
{ "type": "Feature", "properties": { }, "geometry": { "type": "LineString", "coordinates": [ [ 654053.13280037289951, 4502621.052271392196417 ], [ 654236.218247434706427, 4501876.837998717091978 ] ] } },
{ "type": "Feature", "properties": { }, "geometry": { "type": "LineString", "coordinates": [ [ 654053.13280037289951, 4502507.081555917859077 ], [ 654229.977522181463428, 4501747.863010150380433 ] ] } },
{ "type": "Feature", "properties": { }, "geometry": { "type": "LineString", "coordinates": [ [ 654247.553432652261108, 4503293.702964680269361 ], [ 654401.749106528935954, 4502625.521711215376854 ] ] } },
{ "type": "Feature", "properties": { }, "geometry": { "type": "LineString", "coordinates": [ [ 654243.083992829779163, 4503394.265360686928034 ], [ 654431.760972035699524, 4502731.817358407191932 ] ] } },
{ "type": "Feature", "properties": { }, "geometry": { "type": "LineString", "coordinates": [ [ 654229.675673362216912, 4503481.419437225908041 ], [ 654429.680730284657329, 4502810.866544947959483 ] ] } },
{ "type": "Feature", "properties": { }, "geometry": { "type": "LineString", "coordinates": [ [ 654238.614553007180803, 4503655.727590303868055 ], [ 654478.566411435022019, 4502990.807456415146589 ] ] } },
{ "type": "Feature", "properties": { }, "geometry": { "type": "LineString", "coordinates": [ [ 654240.84927291853819, 4503729.473347375169396 ], [ 654475.446048808400519, 4503053.214708947576582 ] ] } },
{ "type": "Feature", "properties": { }, "geometry": { "type": "LineString", "coordinates": [ [ 654240.84927291853819, 4503809.923264180310071 ], [ 654486.887378439307213, 4503158.26691737677902 ] ] } },
{ "type": "Feature", "properties": { }, "geometry": { "type": "LineString", "coordinates": [ [ 654093.357758775586262, 4504533.97251542750746 ], [ 654425.520246782340109, 4503995.564222186803818 ] ] } },
{ "type": "Feature", "properties": { }, "geometry": { "type": "LineString", "coordinates": [ [ 654120.174397710710764, 4504433.410119420848787 ], [ 654450.912944576470181, 4503832.270463293418288 ] ] } },
{ "type": "Feature", "properties": { }, "geometry": { "type": "LineString", "coordinates": [ [ 654211.797914072172716, 4503908.250940276309848 ], [ 654616.902487881481647, 4503523.349344690330327 ] ] } },
{ "type": "Feature", "properties": { }, "geometry": { "type": "LineString", "coordinates": [ [ 672124.381589402561076, 4505993.337730799801648 ], [ 671938.742385386838578, 4505717.683417253196239 ] ] } },
{ "type": "Feature", "properties": { }, "geometry": { "type": "LineString", "coordinates": [ [ 672090.860790733713657, 4505862.606615991331637 ], [ 671946.721356457681395, 4505591.088146774098277 ] ] } },
{ "type": "Feature", "properties": { }, "geometry": { "type": "LineString", "coordinates": [ [ 672174.662787405773997, 4506737.499461248517036 ], [ 671970.185915525769815, 4506352.010276556946337 ] ] } },
{ "type": "Feature", "properties": { }, "geometry": { "type": "LineString", "coordinates": [ [ 672241.704384743468836, 4506697.274502845481038 ], [ 672020.467113529099151, 4506318.489477887749672 ] ] } },
{ "type": "Feature", "properties": { }, "geometry": { "type": "LineString", "coordinates": [ [ 671883.031838986789808, 4506482.741391365416348 ], [ 671634.474525514990091, 4506288.937304363586009 ] ] } },
{ "type": "Feature", "properties": { }, "geometry": { "type": "LineString", "coordinates": [ [ 669251.649143482092768, 4503368.659195028245449 ], [ 669622.758863059454598, 4503160.720952549949288 ] ] } },
{ "type": "Feature", "properties": { }, "geometry": { "type": "LineString", "coordinates": [ [ 669338.803220021072775, 4503335.138396359980106 ], [ 669781.277762449928559, 4503128.985484546050429 ] ] } },
{ "type": "Feature", "properties": { }, "geometry": { "type": "LineString", "coordinates": [ [ 669142.706547808367759, 4503413.912273231893778 ], [ 669405.844817358884029, 4503258.040559421293437 ] ] } },
{ "type": "Feature", "properties": { }, "geometry": { "type": "LineString", "coordinates": [ [ 669610.321689238771796, 4503517.826749105006456 ], [ 669927.093236659420654, 4503330.110276559367776 ] ] } },
{ "type": "Feature", "properties": { }, "geometry": { "type": "LineString", "coordinates": [ [ 669922.065116859041154, 4503298.265517824329436 ], [ 670223.752304878667928, 4503087.084486209787428 ] ] } },
{ "type": "Feature", "properties": { }, "geometry": { "type": "LineString", "coordinates": [ [ 668882.920358124771155, 4503655.2620236473158 ], [ 669065.608710870030336, 4503566.43190717510879 ] ] } },
{ "type": "Feature", "properties": { }, "geometry": { "type": "LineString", "coordinates": [ [ 668985.158794064773247, 4503556.37566757388413 ], [ 669192.987745811697096, 4503447.433071900159121 ] ] } },
{ "type": "Feature", "properties": { }, "geometry": { "type": "LineString", "coordinates": [ [ 668634.866447975393385, 4503752.472339786589146 ], [ 668824.258960454375483, 4503656.938063580542803 ] ] } },
{ "type": "Feature", "properties": { }, "geometry": { "type": "LineString", "coordinates": [ [ 668594.641489572823048, 4503853.034735793247819 ], [ 668747.16112351603806, 4503789.345218322239816 ] ] } },
{ "type": "Feature", "properties": { }, "geometry": { "type": "LineString", "coordinates": [ [ 668150.490907210623845, 4503908.344053597189486 ], [ 668219.208544481662102, 4503915.048213331028819 ] ] } },
{ "type": "Feature", "properties": { }, "geometry": { "type": "LineString", "coordinates": [ [ 668125.350308208959177, 4504013.934569403529167 ], [ 668204.124185080756433, 4504059.187647607177496 ] ] } },
{ "type": "Feature", "properties": { }, "geometry": { "type": "LineString", "coordinates": [ [ 668051.604551137425005, 4504077.62408687453717 ], [ 668116.970108541660011, 4504122.877165077254176 ] ] } },
{ "type": "Feature", "properties": { }, "geometry": { "type": "LineString", "coordinates": [ [ 667924.225516195874661, 4504193.270842282101512 ], [ 667986.23899373319, 4504213.383321483619511 ] ] } },
{ "type": "Feature", "properties": { }, "geometry": { "type": "LineString", "coordinates": [ [ 667542.088411370874383, 4504841.898296524770558 ], [ 667528.680091903312132, 4504959.221091865561903 ] ] } },
{ "type": "Feature", "properties": { }, "geometry": { "type": "LineString", "coordinates": [ [ 667573.933170106261969, 4504808.377497855573893 ], [ 667605.777928841649555, 4504898.883654261007905 ] ] } },
{ "type": "Feature", "properties": { }, "geometry": { "type": "LineString", "coordinates": [ [ 667408.005216695484705, 4504803.349378054961562 ], [ 667416.385416362667456, 4504930.728412996977568 ] ] } },
{ "type": "Feature", "properties": { }, "geometry": { "type": "LineString", "coordinates": [ [ 667382.864617693820037, 4504840.222256590612233 ], [ 667391.244817361119203, 4504979.333571067079902 ] ] } },
{ "type": "Feature", "properties": { }, "geometry": { "type": "LineString", "coordinates": [ [ 667102.965948808938265, 4505054.755368071608245 ], [ 667017.487912203418091, 4505265.93639968521893 ] ] } },
{ "type": "Feature", "properties": { }, "geometry": { "type": "LineString", "coordinates": [ [ 667726.452804049709812, 4504595.520426309667528 ], [ 667780.0860819198424, 4504642.449544445611537 ] ] } },
{ "type": "Feature", "properties": { }, "geometry": { "type": "LineString", "coordinates": [ [ 667868.91619839228224, 4504335.734236625954509 ], [ 667920.87343632907141, 4504327.354036958888173 ] ] } },
{ "type": "Feature", "properties": { }, "geometry": { "type": "LineString", "coordinates": [ [ 667322.527180090080947, 4504900.559694196097553 ], [ 667334.259459624183364, 4505041.347048604860902 ] ] } },
{ "type": "Feature", "properties": { }, "geometry": { "type": "LineString", "coordinates": [ [ 667181.739825680968352, 4505044.69912847224623 ], [ 667136.486747478018515, 4505219.007281550206244 ] ] } },
{ "type": "Feature", "properties": { }, "geometry": { "type": "LineString", "coordinates": [ [ 667089.557629341608845, 4505148.613604345358908 ], [ 667007.431672602891922, 4505331.301957090385258 ] ] } },
{ "type": "Feature", "properties": { }, "geometry": { "type": "LineString", "coordinates": [ [ 667731.480923850089312, 4504766.476499520242214 ], [ 667793.49440138740465, 4504813.405617657117546 ] ] } },
{ "type": "Feature", "properties": { }, "geometry": { "type": "LineString", "coordinates": [ [ 667835.395399723434821, 4504422.888313164934516 ], [ 667917.521356462151743, 4504404.451873896643519 ] ] } },
{ "type": "Feature", "properties": { }, "geometry": { "type": "LineString", "coordinates": [ [ 666978.938993734424002, 4505735.227581050246954 ], [ 666809.658960456727073, 4505944.732572730630636 ] ] } },
{ "type": "Feature", "properties": { }, "geometry": { "type": "LineString", "coordinates": [ [ 667077.825349807506427, 4505616.228745776228607 ], [ 666960.502554466598667, 4505827.409777389839292 ] ] } },
{ "type": "Feature", "properties": { }, "geometry": { "type": "LineString", "coordinates": [ [ 667297.386581088532694, 4505316.217597689479589 ], [ 667270.569942153408192, 4505482.145551100373268 ] ] } },
{ "type": "Feature", "properties": { }, "geometry": { "type": "LineString", "coordinates": [ [ 667397.948977095074952, 4505143.585484544746578 ], [ 667369.456298226490617, 4505289.40095875505358 ] ] } },
{ "type": "Feature", "properties": { }, "geometry": { "type": "LineString", "coordinates": [ [ 667532.032171770464629, 4505011.178329803049564 ], [ 667516.947812369442545, 4505136.881324811838567 ] ] } },
{ "type": "Feature", "properties": { }, "geometry": { "type": "LineString", "coordinates": [ [ 666838.151639325311407, 4505989.985650933347642 ], [ 666734.237163451849483, 4506092.224086873233318 ] ] } },
{ "type": "Feature", "properties": { }, "geometry": { "type": "LineString", "coordinates": [ [ 666637.026847312110476, 4506231.33540135063231 ], [ 666385.620857295813039, 4506546.430908837355673 ] ] } },
{ "type": "Feature", "properties": { }, "geometry": { "type": "LineString", "coordinates": [ [ 666576.689409708138555, 4506315.137398022226989 ], [ 666345.395898893126287, 4506631.908945443108678 ] ] } },
{ "type": "Feature", "properties": { }, "geometry": { "type": "LineString", "coordinates": [ [ 666854.912038659676909, 4506041.942888870835304 ], [ 666647.08308691275306, 4506284.968679220415652 ] ] } },
{ "type": "Feature", "properties": { }, "geometry": { "type": "LineString", "coordinates": [ [ 666883.404717528144829, 4505944.732572731561959 ], [ 666690.660125182243064, 4506165.969843946397305 ] ] } },
{ "type": "Feature", "properties": { }, "geometry": { "type": "LineString", "coordinates": [ [ 666164.38358608155977, 4507282.212439619004726 ], [ 665951.526514534372836, 4507483.337231632322073 ] ] } },
{ "type": "Feature", "properties": { }, "geometry": { "type": "LineString", "coordinates": [ [ 664200.06478408689145, 4509132.560526139102876 ], [ 663616.802887248923071, 4509786.21610018145293 ] ] } },
{ "type": "Feature", "properties": { }, "geometry": { "type": "LineString", "coordinates": [ [ 664857.072437996277586, 4508726.958862246014178 ], [ 664260.402221690746956, 4509303.516599350608885 ] ] } },
{ "type": "Feature", "properties": { }, "geometry": { "type": "LineString", "coordinates": [ [ 664401.189576099975966, 4509142.616765740327537 ], [ 663821.279759128810838, 4509752.695301513187587 ] ] } },
{ "type": "Feature", "properties": { }, "geometry": { "type": "LineString", "coordinates": [ [ 665366.588577762711793, 4508086.711607670411468 ], [ 664847.016198395518586, 4508579.467348102480173 ] ] } },
{ "type": "Feature", "properties": { }, "geometry": { "type": "LineString", "coordinates": [ [ 669238.240824014646932, 4507195.058363080956042 ], [ 669067.284750803606585, 4507128.016765743494034 ] ] } },
{ "type": "Feature", "properties": { }, "geometry": { "type": "LineString", "coordinates": [ [ 669395.788577758241445, 4504104.44072581268847 ], [ 670082.964950469671749, 4503581.516266578808427 ] ] } },
{ "type": "Feature", "properties": { }, "geometry": { "type": "LineString", "coordinates": [ [ 669258.353303215932101, 4504158.074003682471812 ], [ 669918.713036992237903, 4503685.430742451921105 ] ] } },
{ "type": "Feature", "properties": { }, "geometry": { "type": "LineString", "coordinates": [ [ 673156.822188402758911, 4504535.182988706976175 ], [ 673205.422715071355924, 4504145.833247873932123 ] ] } },
{ "type": "Feature", "properties": { }, "geometry": { "type": "LineString", "coordinates": [ [ 673753.492404708289541, 4504183.214602684602141 ], [ 673891.528699486749247, 4503807.290154774673283 ] ] } },
{ "type": "Feature", "properties": { }, "geometry": { "type": "LineString", "coordinates": [ [ 672597.024850632995367, 4505188.838562750257552 ], [ 672508.492972795153037, 4504893.87518004886806 ] ] } },
{ "type": "Feature", "properties": { }, "geometry": { "type": "LineString", "coordinates": [ [ 672258.464784077601507, 4505601.144386376254261 ], [ 672198.127346473746002, 4505252.528080220334232 ] ] } },
{ "type": "Feature", "properties": { }, "geometry": { "type": "LineString", "coordinates": [ [ 672754.572604376589879, 4504880.447214996442199 ], [ 672669.94736088917125, 4504596.221838869154453 ] ] } },
{ "type": "Feature", "properties": { }, "geometry": { "type": "LineString", "coordinates": [ [ 672600.300373161560856, 4506615.986566076055169 ], [ 672022.066596123971976, 4506609.282406342215836 ] ] } },
{ "type": "Feature", "properties": { }, "geometry": { "type": "LineString", "coordinates": [ [ 672739.488244975567795, 4506721.57708188239485 ], [ 672160.028101657517254, 4506690.618984985165298 ] ] } },
{ "type": "Feature", "properties": { }, "geometry": { "type": "LineString", "coordinates": [ [ 672675.798727504792623, 4506718.225002015940845 ], [ 672126.354188311961479, 4506700.240103084594011 ] ] } },
{ "type": "Feature", "properties": { }, "geometry": { "type": "LineString", "coordinates": [ [ 673146.765948802116327, 4506533.860609337687492 ], [ 672632.665528256795369, 4506409.201280595734715 ] ] } },
{ "type": "Feature", "properties": { }, "geometry": { "type": "LineString", "coordinates": [ [ 672799.825682579539716, 4506592.522007008083165 ], [ 672273.549143478623591, 4506496.987730801105499 ] ] } },
{ "type": "Feature", "properties": { }, "geometry": { "type": "LineString", "coordinates": [ [ 671772.413203379255719, 4508192.302123478613794 ], [ 671407.776930313790217, 4507941.965657697990537 ] ] } },
{ "type": "Feature", "properties": { }, "geometry": { "type": "LineString", "coordinates": [ [ 671774.089243312715553, 4508038.106449602171779 ], [ 671419.803327937261201, 4507797.648886217735708 ] ] } },
{ "type": "Feature", "properties": { }, "geometry": { "type": "LineString", "coordinates": [ [ 672223.267945475294255, 4510812.790559415705502 ], [ 671680.231007040012628, 4510661.946965405717492 ] ] } }
]
}
