{
"type": "FeatureCollection",
"name": "20210519_081347_67_2251_3B_AnalyticMS_clip",
"crs": { "type": "name", "properties": { "name": "urn:ogc:def:crs:OGC:1.3:CRS84" } },
"features": [
{ "type": "Feature", "geometry": { "type": "LineString", "coordinates": [ [ 0.0, 0.0 ], [ 1.0, 1.0 ] ] } },
{ "type": "Feature", "properties": { }, "geometry": { "type": "LineString", "coordinates": [ [ 690736.700820493279025, 4522404.080785447731614 ], [ 690630.4695850959979, 4522463.247549465857446 ] ] } },
{ "type": "Feature", "properties": { }, "geometry": { "type": "LineString", "coordinates": [ [ 690368.253244558698498, 4522026.220315236598253 ], [ 690309.086480539990589, 4522164.724331008270383 ] ] } },
{ "type": "Feature", "properties": { }, "geometry": { "type": "LineString", "coordinates": [ [ 690369.597943740896881, 4521809.7237468957901 ], [ 690318.499374815728515, 4522020.841518508270383 ] ] } },
{ "type": "Feature", "properties": { }, "geometry": { "type": "LineString", "coordinates": [ [ 690102.002806474687532, 4522041.012006241828203 ], [ 690019.976156357792206, 4522170.103127736598253 ] ] } },
{ "type": "Feature", "properties": { }, "geometry": { "type": "LineString", "coordinates": [ [ 690041.491343273664825, 4522012.773323414847255 ], [ 689956.775294792372733, 4522133.796249816194177 ] ] } },
{ "type": "Feature", "properties": { }, "geometry": { "type": "LineString", "coordinates": [ [ 689607.153507409268059, 4522071.940087432973087 ], [ 689526.471556474803947, 4522147.243241638876498 ] ] } },
{ "type": "Feature", "properties": { }, "geometry": { "type": "LineString", "coordinates": [ [ 689545.297345026163384, 4522006.049827503040433 ], [ 689390.656939068227075, 4522028.909713601693511 ] ] } },
{ "type": "Feature", "properties": { }, "geometry": { "type": "LineString", "coordinates": [ [ 689441.755507993511856, 4522116.315160447731614 ], [ 689288.459801217773929, 4522127.072753905318677 ] ] } },
{ "type": "Feature", "properties": { }, "geometry": { "type": "LineString", "coordinates": [ [ 689794.066693741246127, 4522058.493095612153411 ], [ 689697.248352619819343, 4522152.622038369067013 ] ] } },
{ "type": "Feature", "properties": { }, "geometry": { "type": "LineString", "coordinates": [ [ 689923.157815236598253, 4522026.220315238460898 ], [ 689837.097067573107779, 4522147.24324163980782 ] ] } },
{ "type": "Feature", "properties": { }, "geometry": { "type": "LineString", "coordinates": [ [ 689121.717102619935758, 4521515.234625985845923 ], [ 689175.505069909617305, 4521590.537780191749334 ] ] } },
{ "type": "Feature", "properties": { }, "geometry": { "type": "LineString", "coordinates": [ [ 689151.300484629231505, 4522109.591664536856115 ], [ 689011.451769676059484, 4522174.137225285172462 ] ] } },
{ "type": "Feature", "properties": { }, "geometry": { "type": "LineString", "coordinates": [ [ 688629.557201919145882, 4521824.515437901951373 ], [ 688314.897593274246901, 4521698.113714771345258 ] ] } },
{ "type": "Feature", "properties": { }, "geometry": { "type": "LineString", "coordinates": [ [ 688742.511933227535337, 4521803.000250985845923 ], [ 688433.231121311662719, 4521681.977324584499002 ] ] } },
{ "type": "Feature", "properties": { }, "geometry": { "type": "LineString", "coordinates": [ [ 688820.504485797602683, 4521889.060998649336398 ], [ 688505.844877152820118, 4521803.000250985845923 ] ] } },
{ "type": "Feature", "properties": { }, "geometry": { "type": "LineString", "coordinates": [ [ 688976.489590937737375, 4521910.576185565441847 ], [ 688758.648323414381593, 4521864.856413369067013 ] ] } },
{ "type": "Feature", "properties": { }, "geometry": { "type": "LineString", "coordinates": [ [ 688543.496454255422577, 4522440.387663368135691 ], [ 688392.890145844314247, 4522322.054135330952704 ] ] } },
{ "type": "Feature", "properties": { }, "geometry": { "type": "LineString", "coordinates": [ [ 688632.246600283542648, 4522469.971045377664268 ], [ 688500.46608042367734, 4522338.19052551779896 ] ] } },
{ "type": "Feature", "properties": { }, "geometry": { "type": "LineString", "coordinates": [ [ 688823.193884161999449, 4522478.039240471087396 ], [ 688680.655770844197832, 4522270.955566405318677 ] ] } },
{ "type": "Feature", "properties": { }, "geometry": { "type": "LineString", "coordinates": [ [ 687739.366343274363317, 4521612.052967106923461 ], [ 687446.22192154545337, 4521590.537780190818012 ] ] } },
{ "type": "Feature", "properties": { }, "geometry": { "type": "LineString", "coordinates": [ [ 687774.328522012685426, 4521733.075893508270383 ], [ 687524.214474115520716, 4521687.356121311895549 ] ] } },
{ "type": "Feature", "properties": { }, "geometry": { "type": "LineString", "coordinates": [ [ 688013.684976451797411, 4521862.167015003971756 ], [ 687806.601302386494353, 4521827.204836265183985 ] ] } },
{ "type": "Feature", "properties": { }, "geometry": { "type": "LineString", "coordinates": [ [ 688000.237984629464336, 4521447.999666873365641 ], [ 687828.116489302366972, 4521421.105683228000998 ] ] } },
{ "type": "Feature", "properties": { }, "geometry": { "type": "LineString", "coordinates": [ [ 687459.668913367786445, 4521491.030040704645216 ], [ 687244.517044208943844, 4521509.855829255655408 ] ] } },
{ "type": "Feature", "properties": { }, "geometry": { "type": "LineString", "coordinates": [ [ 687279.479222947265953, 4521652.393942574039102 ], [ 687045.501565237063915, 4521603.984772013500333 ] ] } },
{ "type": "Feature", "properties": { }, "geometry": { "type": "LineString", "coordinates": [ [ 687352.092978788423352, 4521224.779602620750666 ], [ 687072.395548881962895, 4521289.325163368135691 ] ] } },
{ "type": "Feature", "properties": { }, "geometry": { "type": "LineString", "coordinates": [ [ 687220.312458928674459, 4521084.93088766746223 ], [ 686967.509012666996568, 4521076.862692574039102 ] ] } },
{ "type": "Feature", "properties": { }, "geometry": { "type": "LineString", "coordinates": [ [ 687093.910735797835514, 4521114.514269676990807 ], [ 686811.523907526861876, 4521082.241489303298295 ] ] } },
{ "type": "Feature", "properties": { }, "geometry": { "type": "LineString", "coordinates": [ [ 686892.205858461442403, 4521447.999666873365641 ], [ 686663.606997480266728, 4521402.279894676990807 ] ] } },
{ "type": "Feature", "properties": { }, "geometry": { "type": "LineString", "coordinates": [ [ 686628.644818741944619, 4520912.809392340481281 ], [ 686327.432201919495128, 4520926.256384163163602 ] ] } },
{ "type": "Feature", "properties": { }, "geometry": { "type": "LineString", "coordinates": [ [ 686841.107289536274038, 4520818.680449583567679 ], [ 686475.349111966206692, 4520856.332026686519384 ] ] } },
{ "type": "Feature", "properties": { }, "geometry": { "type": "LineString", "coordinates": [ [ 687023.986378321307711, 4520945.082172714173794 ], [ 686660.917599115753546, 4520945.082172714173794 ] ] } },
{ "type": "Feature", "properties": { }, "geometry": { "type": "LineString", "coordinates": [ [ 686566.788656358839944, 4520544.36181640625 ], [ 686144.55311313457787, 4520560.498206593096256 ] ] } },
{ "type": "Feature", "properties": { }, "geometry": { "type": "LineString", "coordinates": [ [ 686636.713013835367747, 4520275.421979958191514 ], [ 686227.924462433671579, 4520399.134304724633694 ] ] } },
{ "type": "Feature", "properties": { }, "geometry": { "type": "LineString", "coordinates": [ [ 686504.932493975618854, 4520337.278142341412604 ], [ 686034.287780190701596, 4520396.444906359538436 ] ] } },
{ "type": "Feature", "properties": { }, "geometry": { "type": "LineString", "coordinates": [ [ 686513.000689069041982, 4520014.550338602624834 ], [ 686066.560560564510524, 4520151.709655191749334 ] ] } },
{ "type": "Feature", "properties": { }, "geometry": { "type": "LineString", "coordinates": [ [ 687128.872914536274038, 4520805.23345776181668 ], [ 686730.841956592397764, 4520845.574433228932321 ] ] } },
{ "type": "Feature", "properties": { }, "geometry": { "type": "LineString", "coordinates": [ [ 687911.48783860146068, 4520563.187604958191514 ], [ 687688.267774349194951, 4520600.839182061143219 ] ] } },
{ "type": "Feature", "properties": { }, "geometry": { "type": "LineString", "coordinates": [ [ 687798.533107293071225, 4521275.878171546384692 ], [ 687626.411611966090277, 4521289.325163369067013 ] ] } },
{ "type": "Feature", "properties": { }, "geometry": { "type": "LineString", "coordinates": [ [ 686668.985794209176674, 4519777.883282527327538 ], [ 686225.235064069041982, 4519920.421395844779909 ] ] } },
{ "type": "Feature", "properties": { }, "geometry": { "type": "LineString", "coordinates": [ [ 686429.629339769948274, 4519777.883282527327538 ], [ 686012.772593274712563, 4519944.625981125049293 ] ] } },
{ "type": "Feature", "properties": { }, "geometry": { "type": "LineString", "coordinates": [ [ 686080.007552386843599, 4519898.906208928674459 ], [ 685811.067715938319452, 4520009.171541872434318 ] ] } },
{ "type": "Feature", "properties": { }, "geometry": { "type": "LineString", "coordinates": [ [ 686464.591518508270383, 4519108.223089770413935 ], [ 686018.151390003738925, 4519326.064357293769717 ] ] } },
{ "type": "Feature", "properties": { }, "geometry": { "type": "LineString", "coordinates": [ [ 686316.674608461675234, 4519269.58699163980782 ], [ 685864.855683228117414, 4519422.882698414847255 ] ] } },
{ "type": "Feature", "properties": { }, "geometry": { "type": "LineString", "coordinates": [ [ 688616.110210096696392, 4518712.881530190818012 ], [ 688177.738276685588062, 4518957.616781358607113 ] ] } },
{ "type": "Feature", "properties": { }, "geometry": { "type": "LineString", "coordinates": [ [ 688710.239152853726409, 4518710.192131825722754 ], [ 688282.624812900554389, 4518944.169789535924792 ] ] } },
{ "type": "Feature", "properties": { }, "geometry": { "type": "LineString", "coordinates": [ [ 686547.962867807247676, 4518322.918767339549959 ], [ 685948.227032526978292, 4518618.752587432973087 ] ] } },
{ "type": "Feature", "properties": { }, "geometry": { "type": "LineString", "coordinates": [ [ 686464.591518508270383, 4518559.585823413915932 ], [ 685894.439065237296745, 4518858.109041872434318 ] ] } },
{ "type": "Feature", "properties": { }, "geometry": { "type": "LineString", "coordinates": [ [ 687104.668329255771823, 4518505.79785612411797 ], [ 686550.652266171760857, 4518618.752587432973087 ] ] } },
{ "type": "Feature", "properties": { }, "geometry": { "type": "LineString", "coordinates": [ [ 687290.236816405318677, 4518661.782961264252663 ], [ 686746.978346779244021, 4518836.593854956328869 ] ] } },
{ "type": "Feature", "properties": { }, "geometry": { "type": "LineString", "coordinates": [ [ 686905.652850283891894, 4517992.12276850733906 ], [ 686295.1594215456862, 4518242.236816405318677 ] ] } },
{ "type": "Feature", "properties": { }, "geometry": { "type": "LineString", "coordinates": [ [ 687061.637955424026586, 4518019.016752152703702 ], [ 686515.690087433438748, 4518252.994409862905741 ] ] } },
{ "type": "Feature", "properties": { }, "geometry": { "type": "LineString", "coordinates": [ [ 686913.721045377431437, 4517903.372622479684651 ], [ 686332.81099864852149, 4518156.176068740896881 ] ] } },
{ "type": "Feature", "properties": { }, "geometry": { "type": "LineString", "coordinates": [ [ 686905.652850284008309, 4517569.887225283309817 ], [ 686276.333632994326763, 4517887.236232292838395 ] ] } },
{ "type": "Feature", "properties": { }, "geometry": { "type": "LineString", "coordinates": [ [ 686706.637371312011965, 4517545.682640003040433 ], [ 686187.583486966323107, 4517868.410443740896881 ] ] } },
{ "type": "Feature", "properties": { }, "geometry": { "type": "LineString", "coordinates": [ [ 686763.114736966206692, 4517575.26602201256901 ], [ 686195.651682059746236, 4517924.887809394858778 ] ] } },
{ "type": "Feature", "properties": { }, "geometry": { "type": "LineString", "coordinates": [ [ 685084.930157527443953, 4515566.285443740896881 ], [ 684815.990321078919806, 4515520.56567154545337 ] ] } },
{ "type": "Feature", "properties": { }, "geometry": { "type": "LineString", "coordinates": [ [ 685248.983457761118189, 4515574.353638835251331 ], [ 684988.111816406017169, 4515542.080858460627496 ] ] } },
{ "type": "Feature", "properties": { }, "geometry": { "type": "LineString", "coordinates": [ [ 684791.785735798534006, 4515574.353638835251331 ], [ 684517.467102620983496, 4515477.535297713242471 ] ] } },
{ "type": "Feature", "properties": { }, "geometry": { "type": "LineString", "coordinates": [ [ 684676.14160612563137, 4516106.854515003040433 ], [ 684388.375981125747785, 4515945.490613133646548 ] ] } },
{ "type": "Feature", "properties": { }, "geometry": { "type": "LineString", "coordinates": [ [ 685063.414970611571334, 4515829.846483460627496 ], [ 684834.816109630279243, 4515746.47513416223228 ] ] } },
{ "type": "Feature", "properties": { }, "geometry": { "type": "LineString", "coordinates": [ [ 684641.179427387309261, 4515805.641898180358112 ], [ 684380.307786032208242, 4515671.171979956328869 ] ] } },
{ "type": "Feature", "properties": { }, "geometry": { "type": "LineString", "coordinates": [ [ 684670.762809396721423, 4516001.967978787608445 ], [ 684428.716956592979841, 4515840.604076919145882 ] ] } },
{ "type": "Feature", "properties": { }, "geometry": { "type": "LineString", "coordinates": [ [ 684646.558224116335623, 4516867.954252152703702 ], [ 684415.269964770530351, 4516816.855683227069676 ] ] } },
{ "type": "Feature", "properties": { }, "geometry": { "type": "LineString", "coordinates": [ [ 684985.422418041503988, 4516464.544497479684651 ], [ 684746.065963602275588, 4516359.657961264252663 ] ] } },
{ "type": "Feature", "properties": { }, "geometry": { "type": "LineString", "coordinates": [ [ 684135.572534864069894, 4516483.370286030694842 ], [ 683987.65562481735833, 4516238.635034862905741 ] ] } },
{ "type": "Feature", "properties": { }, "geometry": { "type": "LineString", "coordinates": [ [ 683958.072242808062583, 4516322.006384161300957 ], [ 683783.261349116568454, 4516074.58173462934792 ] ] } },
{ "type": "Feature", "properties": { }, "geometry": { "type": "LineString", "coordinates": [ [ 684520.156500985496677, 4516120.301506824791431 ], [ 684270.042453088331968, 4515942.801214769482613 ] ] } },
{ "type": "Feature", "properties": { }, "geometry": { "type": "LineString", "coordinates": [ [ 686106.901536031975411, 4516642.04478953499347 ], [ 685905.1966586955823, 4516625.908399348147213 ] ] } },
{ "type": "Feature", "properties": { }, "geometry": { "type": "LineString", "coordinates": [ [ 686416.182347947731614, 4516698.522155189886689 ], [ 686305.91701500385534, 4516733.484333927743137 ] ] } },
{ "type": "Feature", "properties": { }, "geometry": { "type": "LineString", "coordinates": [ [ 685542.127879490028135, 4516862.57545542344451 ], [ 685240.915262667578645, 4516851.817861964926124 ] ] } },
{ "type": "Feature", "properties": { }, "geometry": { "type": "LineString", "coordinates": [ [ 685789.552529022679664, 4517048.143942573107779 ], [ 685544.817277854424901, 4516900.227032526396215 ] ] } },
{ "type": "Feature", "properties": { }, "geometry": { "type": "LineString", "coordinates": [ [ 683116.290554724168032, 4517583.334217105992138 ], [ 682815.077937901834957, 4517171.856267339549959 ] ] } },
{ "type": "Feature", "properties": { }, "geometry": { "type": "LineString", "coordinates": [ [ 683304.548440238111652, 4517747.387517339549959 ], [ 683016.782815238228068, 4517365.492949582636356 ] ] } },
{ "type": "Feature", "properties": { }, "geometry": { "type": "LineString", "coordinates": [ [ 683231.934684397070669, 4517693.599550049751997 ], [ 682909.20688065874856, 4517290.189795376732945 ] ] } },
{ "type": "Feature", "properties": { }, "geometry": { "type": "LineString", "coordinates": [ [ 683810.155332761351019, 4517233.712429722771049 ], [ 683616.518650518497452, 4517015.871162199415267 ] ] } },
{ "type": "Feature", "properties": { }, "geometry": { "type": "LineString", "coordinates": [ [ 682610.683662200928666, 4517846.895256825722754 ], [ 682347.122622481314465, 4517352.045957759954035 ] ] } },
{ "type": "Feature", "properties": { }, "geometry": { "type": "LineString", "coordinates": [ [ 683059.813189069973305, 4516394.620140003040433 ], [ 682882.312897013965994, 4516109.543913368135691 ] ] } },
{ "type": "Feature", "properties": { }, "geometry": { "type": "LineString", "coordinates": [ [ 682688.676214770996012, 4516456.476302386261523 ], [ 682406.289386500022374, 4516176.778872479684651 ] ] } },
{ "type": "Feature", "properties": { }, "geometry": { "type": "LineString", "coordinates": [ [ 683761.746162200695835, 4517475.758282526396215 ], [ 683535.836699583916925, 4517204.129047713242471 ] ] } },
{ "type": "Feature", "properties": { }, "geometry": { "type": "LineString", "coordinates": [ [ 684014.549608462257311, 4516410.756530189886689 ], [ 683842.428113135276362, 4516160.642482292838395 ] ] } },
{ "type": "Feature", "properties": { }, "geometry": { "type": "LineString", "coordinates": [ [ 683599.037561149569228, 4525015.486597361043096 ], [ 683635.321702078101225, 4524830.343016942031682 ] ] } },
{ "type": "Feature", "properties": { }, "geometry": { "type": "LineString", "coordinates": [ [ 683846.462210682220757, 4524907.910662781447172 ], [ 684088.508063485845923, 4524719.652777267619967 ] ] } },
{ "type": "Feature", "properties": { }, "geometry": { "type": "LineString", "coordinates": [ [ 684298.281135915778577, 4524735.789167454466224 ], [ 684593.226449881796725, 4524517.771444278769195 ] ] } },
{ "type": "Feature", "properties": { }, "geometry": { "type": "LineString", "coordinates": [ [ 668065.072607881505974, 4531851.937239879742265 ], [ 667911.776901105884463, 4530819.208267917856574 ] ] } },
{ "type": "Feature", "properties": { }, "geometry": { "type": "LineString", "coordinates": [ [ 665862.455347368028015, 4531747.050703665241599 ], [ 664826.289928085985593, 4530160.286553947255015 ] ] } },
{ "type": "Feature", "properties": { }, "geometry": { "type": "LineString", "coordinates": [ [ 667988.42475449363701, 4531928.585093267261982 ], [ 667794.972089509246871, 4530771.670567847788334 ] ] } },
{ "type": "Feature", "properties": { }, "geometry": { "type": "LineString", "coordinates": [ [ 668069.106705428217538, 4531690.57333801034838 ], [ 667885.30377845116891, 4530630.489914932288229 ] ] } },
{ "type": "Feature", "properties": { }, "geometry": { "type": "LineString", "coordinates": [ [ 670715.474696081830189, 4530036.593343853019178 ], [ 670847.555041490122676, 4530273.799388233572245 ] ] } },
{ "type": "Feature", "properties": { }, "geometry": { "type": "LineString", "coordinates": [ [ 670888.940890591125935, 4529972.04778310470283 ], [ 670993.827426806092262, 4530181.820855534635484 ] ] } },
{ "type": "Feature", "properties": { }, "geometry": { "type": "LineString", "coordinates": [ [ 670969.622841525706463, 4530621.537488128058612 ], [ 671066.441182647249661, 4530807.105975277721882 ] ] } },
{ "type": "Feature", "properties": { }, "geometry": { "type": "LineString", "coordinates": [ [ 670933.315963605185971, 4528669.034275511279702 ], [ 670917.098477503866889, 4528836.71793286409229 ] ] } },
{ "type": "Feature", "properties": { }, "geometry": { "type": "LineString", "coordinates": [ [ 671074.50937774067279, 4528717.443446072749794 ], [ 671056.185349550214596, 4528854.963737583719194 ] ] } },
{ "type": "Feature", "properties": { }, "geometry": { "type": "LineString", "coordinates": [ [ 671788.544643511530012, 4527946.930814647115767 ], [ 671772.408253324683756, 4528059.885545955970883 ] ] } },
{ "type": "Feature", "properties": { }, "geometry": { "type": "LineString", "coordinates": [ [ 671978.14722820778843, 4528003.408180302008986 ], [ 671990.249520847923122, 4528063.919643502682447 ] ] } },
{ "type": "Feature", "properties": { }, "geometry": { "type": "LineString", "coordinates": [ [ 672280.704544212319888, 4527753.294132404029369 ], [ 672293.983732882188633, 4527979.352055734954774 ] ] } },
{ "type": "Feature", "properties": { }, "geometry": { "type": "LineString", "coordinates": [ [ 670913.145475871511735, 4528180.908472357317805 ], [ 670863.557509554200806, 4528380.273703307844698 ] ] } },
{ "type": "Feature", "properties": { }, "geometry": { "type": "LineString", "coordinates": [ [ 671026.10020717990119, 4528176.874374810606241 ], [ 670941.384158698609099, 4528350.340569320134819 ] ] } },
{ "type": "Feature", "properties": { }, "geometry": { "type": "LineString", "coordinates": [ [ 671344.793913371278904, 4529237.84202959947288 ], [ 671356.896206011413597, 4529443.58100448269397 ] ] } },
{ "type": "Feature", "properties": { }, "geometry": { "type": "LineString", "coordinates": [ [ 671740.135472950641997, 4529189.432859038934112 ], [ 671723.999082763679326, 4529366.933151095174253 ] ] } },
{ "type": "Feature", "properties": { }, "geometry": { "type": "LineString", "coordinates": [ [ 674305.821512669790536, 4529939.775002730078995 ], [ 674067.453518303344026, 4530024.078630608506501 ] ] } },
{ "type": "Feature", "properties": { }, "geometry": { "type": "LineString", "coordinates": [ [ 675631.022556769894436, 4528330.170081586576998 ], [ 675641.378509082831442, 4528230.007536975666881 ] ] } },
{ "type": "Feature", "properties": { }, "geometry": { "type": "LineString", "coordinates": [ [ 675522.10192300833296, 4528600.454617218114436 ], [ 675505.581864116480574, 4528528.520866657607257 ] ] } },
{ "type": "Feature", "properties": { }, "geometry": { "type": "LineString", "coordinates": [ [ 675534.204215648467652, 4528749.716226446442306 ], [ 675534.204215648467652, 4528691.221812019124627 ] ] } },
{ "type": "Feature", "properties": { }, "geometry": { "type": "LineString", "coordinates": [ [ 674600.310633580898866, 4528053.834399635903537 ], [ 674596.880966741126031, 4528190.823923558928072 ] ] } },
{ "type": "Feature", "properties": { }, "geometry": { "type": "LineString", "coordinates": [ [ 674438.946731711737812, 4528053.834399635903537 ], [ 674416.759195204824209, 4528124.431106703355908 ] ] } },
{ "type": "Feature", "properties": { }, "geometry": { "type": "LineString", "coordinates": [ [ 675424.275057500228286, 4527917.683607432059944 ], [ 675658.252715210430324, 4527869.274436871521175 ] ] } },
{ "type": "Feature", "properties": { }, "geometry": { "type": "LineString", "coordinates": [ [ 675291.149838458164595, 4527960.041631672531366 ], [ 675494.871764568029903, 4527802.711827350780368 ] ] } },
{ "type": "Feature", "properties": { }, "geometry": { "type": "LineString", "coordinates": [ [ 673875.181599556584843, 4526453.306197970174253 ], [ 673986.394287506700493, 4526710.483459860086441 ] ] } },
{ "type": "Feature", "properties": { }, "geometry": { "type": "LineString", "coordinates": [ [ 675334.516387085313909, 4525697.921432347036898 ], [ 675350.65277727227658, 4525931.899090057238936 ] ] } },
{ "type": "Feature", "properties": { }, "geometry": { "type": "LineString", "coordinates": [ [ 675314.345899351756088, 4525496.216555010527372 ], [ 675326.448191991890781, 4525697.921432347036898 ] ] } },
{ "type": "Feature", "properties": { }, "geometry": { "type": "LineString", "coordinates": [ [ 675720.781227184575982, 4525626.31620089430362 ], [ 675778.670711813145317, 4525783.873258263804018 ] ] } },
{ "type": "Feature", "properties": { }, "geometry": { "type": "LineString", "coordinates": [ [ 675813.565470759291202, 4525608.162761934101582 ], [ 675841.185026346240193, 4525784.471481369808316 ] ] } },
{ "type": "Feature", "properties": { }, "geometry": { "type": "LineString", "coordinates": [ [ 675874.076933960197493, 4525573.872932787053287 ], [ 675921.945145599427633, 4525750.073652798309922 ] ] } },
{ "type": "Feature", "properties": { }, "geometry": { "type": "LineString", "coordinates": [ [ 675831.718909719609655, 4525053.474349259398878 ], [ 676015.270348095684312, 4525200.718909714370966 ] ] } },
{ "type": "Feature", "properties": { }, "geometry": { "type": "LineString", "coordinates": [ [ 675803.480226892512292, 4524906.229788803495467 ], [ 676003.16805545554962, 4525009.09927624464035 ] ] } },
{ "type": "Feature", "properties": { }, "geometry": { "type": "LineString", "coordinates": [ [ 676164.531957324710675, 4524871.939959656447172 ], [ 676251.265054579358548, 4525021.201568885706365 ] ] } },
{ "type": "Feature", "properties": { }, "geometry": { "type": "LineString", "coordinates": [ [ 676214.958176658838056, 4524607.706570345908403 ], [ 676307.742420233553275, 4524777.138667307794094 ] ] } },
{ "type": "Feature", "properties": { }, "geometry": { "type": "LineString", "coordinates": [ [ 676206.889981565298513, 4524248.671888687647879 ], [ 676293.623078819946386, 4524424.155131970532238 ] ] } },
{ "type": "Feature", "properties": { }, "geometry": { "type": "LineString", "coordinates": [ [ 676235.128664392395876, 4524420.121034423820674 ], [ 676323.878810420399532, 4524627.877058080397546 ] ] } },
{ "type": "Feature", "properties": { }, "geometry": { "type": "LineString", "coordinates": [ [ 676424.731249088654295, 4524250.688937461003661 ], [ 676469.10632210271433, 4524385.831205275841057 ] ] } },
{ "type": "Feature", "properties": { }, "geometry": { "type": "LineString", "coordinates": [ [ 676481.208614742849022, 4524061.086352764628828 ], [ 676509.447297569946386, 4524170.006986525841057 ] ] } },
{ "type": "Feature", "properties": { }, "geometry": { "type": "LineString", "coordinates": [ [ 676678.879394532530569, 4523940.063426362350583 ], [ 676608.282687464728951, 4524083.27388927154243 ] ] } },
{ "type": "Feature", "properties": { }, "geometry": { "type": "LineString", "coordinates": [ [ 676836.209198854980059, 4523843.245085241273046 ], [ 676749.47610160021577, 4523885.603109481744468 ] ] } },
{ "type": "Feature", "properties": { }, "geometry": { "type": "LineString", "coordinates": [ [ 676650.640711705433205, 4524149.836498792283237 ], [ 676588.112199731171131, 4524331.370888395234942 ] ] } },
{ "type": "Feature", "properties": { }, "geometry": { "type": "LineString", "coordinates": [ [ 676626.436126425047405, 4524226.484352180734277 ], [ 676571.97580954420846, 4524410.035790557041764 ] ] } },
{ "type": "Feature", "properties": { }, "geometry": { "type": "LineString", "coordinates": [ [ 675609.843544649542309, 4523474.125159716233611 ], [ 675583.621910595800728, 4523425.715989155694842 ] ] } },
{ "type": "Feature", "properties": { }, "geometry": { "type": "LineString", "coordinates": [ [ 675702.627788224257529, 4523361.170428408309817 ], [ 675617.911739742965437, 4523334.948794354684651 ] ] } },
{ "type": "Feature", "properties": { }, "geometry": { "type": "LineString", "coordinates": [ [ 674917.995815385598689, 4523948.131621456705034 ], [ 674962.370888399658725, 4523934.01228004321456 ] ] } },
{ "type": "Feature", "properties": { }, "geometry": { "type": "LineString", "coordinates": [ [ 674915.978766612242907, 4523740.375597800128162 ], [ 674958.336790852947161, 4523702.051671106368303 ] ] } },
{ "type": "Feature", "properties": { }, "geometry": { "type": "LineString", "coordinates": [ [ 675573.536666728905402, 4523821.057548734359443 ], [ 675607.826495876186527, 4523764.580183080397546 ] ] } },
{ "type": "Feature", "properties": { }, "geometry": { "type": "LineString", "coordinates": [ [ 675341.576057792059146, 4523940.063426363281906 ], [ 675396.036374672898091, 4523954.18276777677238 ] ] } },
{ "type": "Feature", "properties": { }, "geometry": { "type": "LineString", "coordinates": [ [ 674998.677766320179217, 4524202.279766900464892 ], [ 675055.155131974373944, 4524254.723035007715225 ] ] } },
{ "type": "Feature", "properties": { }, "geometry": { "type": "LineString", "coordinates": [ [ 675067.257424614625052, 4524226.484352180734277 ], [ 675095.496107441722415, 4524299.09810802154243 ] ] } },
{ "type": "Feature", "properties": { }, "geometry": { "type": "LineString", "coordinates": [ [ 675176.178058376186527, 4524161.938791433349252 ], [ 675232.655424030381255, 4524214.382059540599585 ] ] } },
{ "type": "Feature", "properties": { }, "geometry": { "type": "LineString", "coordinates": [ [ 674474.245085245580412, 4524581.484936292283237 ], [ 674528.705402126419358, 4524672.252131094224751 ] ] } },
{ "type": "Feature", "properties": { }, "geometry": { "type": "LineString", "coordinates": [ [ 674383.47789044410456, 4524480.632497624494135 ], [ 674403.648378177778795, 4524599.638375252485275 ] ] } },
{ "type": "Feature", "properties": { }, "geometry": { "type": "LineString", "coordinates": [ [ 675331.490813925280236, 4525047.423202939331532 ], [ 675573.536666729021817, 4525055.49139803275466 ] ] } },
{ "type": "Feature", "properties": { }, "geometry": { "type": "LineString", "coordinates": [ [ 674932.115156799205579, 4525017.167471338994801 ], [ 675083.393814801471308, 4525089.781227180734277 ] ] } },
{ "type": "Feature", "properties": { }, "geometry": { "type": "LineString", "coordinates": [ [ 674847.399108317913488, 4524996.996983605436981 ], [ 674946.234498212812468, 4525085.747129634022713 ] ] } },
{ "type": "Feature", "properties": { }, "geometry": { "type": "LineString", "coordinates": [ [ 674782.853547570295632, 4524972.792398325167596 ], [ 674891.774181331973523, 4525037.337959072552621 ] ] } },
{ "type": "Feature", "properties": { }, "geometry": { "type": "LineString", "coordinates": [ [ 674599.30210919410456, 4525027.252715205773711 ], [ 674688.05225522222463, 4525120.036958781071007 ] ] } },
{ "type": "Feature", "properties": { }, "geometry": { "type": "LineString", "coordinates": [ [ 674468.193938925513066, 4525287.452006970532238 ], [ 674575.097523913835175, 4525404.440835825167596 ] ] } },
{ "type": "Feature", "properties": { }, "geometry": { "type": "LineString", "coordinates": [ [ 674068.81828179943841, 4525468.986396572552621 ], [ 674173.704818014288321, 4525559.753591374494135 ] ] } },
{ "type": "Feature", "properties": { }, "geometry": { "type": "LineString", "coordinates": [ [ 675670.355007850448601, 4524319.26859575510025 ], [ 675811.54842198593542, 4524369.694815088994801 ] ] } },
{ "type": "Feature", "properties": { }, "geometry": { "type": "LineString", "coordinates": [ [ 673215.606650666566566, 4524972.792398325167596 ], [ 673130.890602185274474, 4525142.22449528798461 ] ] } },
{ "type": "Feature", "properties": { }, "geometry": { "type": "LineString", "coordinates": [ [ 673163.163382559083402, 4524934.468471631407738 ], [ 673096.600773037993349, 4525113.985812461003661 ] ] } },
{ "type": "Feature", "properties": { }, "geometry": { "type": "LineString", "coordinates": [ [ 673322.510235654772259, 4524886.059301070868969 ], [ 673274.101065094117075, 4525029.269763980060816 ] ] } },
{ "type": "Feature", "properties": { }, "geometry": { "type": "LineString", "coordinates": [ [ 673709.783600140712224, 4524904.212740031071007 ], [ 673623.050502886064351, 4525031.286812753416598 ] ] } },
{ "type": "Feature", "properties": { }, "geometry": { "type": "LineString", "coordinates": [ [ 673616.999356565997005, 4524886.059301070868969 ], [ 673530.266259311349131, 4525071.627788220532238 ] ] } },
{ "type": "Feature", "properties": { }, "geometry": { "type": "LineString", "coordinates": [ [ 674226.1480861218879, 4524726.712447974830866 ], [ 674101.091062173363753, 4524926.40027653798461 ] ] } },
{ "type": "Feature", "properties": { }, "geometry": { "type": "LineString", "coordinates": [ [ 670086.785806534346193, 4523659.189384670928121 ], [ 669958.703209425671957, 4523943.59326171502471 ] ] } },
{ "type": "Feature", "properties": { }, "geometry": { "type": "LineString", "coordinates": [ [ 673957.880599264637567, 4525926.856468128971756 ], [ 673984.102233318262734, 4526144.697735652327538 ] ] } },
{ "type": "Feature", "properties": { }, "geometry": { "type": "LineString", "coordinates": [ [ 673612.96525901928544, 4526396.828832322731614 ], [ 673684.291619190014899, 4526655.446934146806598 ] ] } },
{ "type": "Feature", "properties": { }, "geometry": { "type": "LineString", "coordinates": [ [ 673449.584308376885019, 4526189.072808666154742 ], [ 673512.003364784293808, 4526407.184345331974328 ] ] } },
{ "type": "Feature", "properties": { }, "geometry": { "type": "LineString", "coordinates": [ [ 673268.049918774049729, 4526281.857052241452038 ], [ 673303.821724043344148, 4526584.258384583517909 ] ] } },
{ "type": "Feature", "properties": { }, "geometry": { "type": "LineString", "coordinates": [ [ 673326.544333201600239, 4526334.300320348702371 ], [ 673417.484114103019238, 4526552.552559987641871 ] ] } },
{ "type": "Feature", "properties": { }, "geometry": { "type": "LineString", "coordinates": [ [ 673056.259797570877708, 4526671.147465500049293 ], [ 673133.926362059428357, 4526814.275168678723276 ] ] } },
{ "type": "Feature", "properties": { }, "geometry": { "type": "LineString", "coordinates": [ [ 673163.163382559083402, 4526531.971100138500333 ], [ 673243.401190380100161, 4526718.559471783228219 ] ] } },
{ "type": "Feature", "properties": { }, "geometry": { "type": "LineString", "coordinates": [ [ 673346.714820935274474, 4525882.481395115144551 ], [ 673378.987601309083402, 4526162.851174612529576 ] ] } },
{ "type": "Feature", "properties": { }, "geometry": { "type": "LineString", "coordinates": [ [ 672884.810651834937744, 4526416.999320055358112 ], [ 672937.110960323829204, 4526663.52294607181102 ] ] } },
{ "type": "Feature", "properties": { }, "geometry": { "type": "LineString", "coordinates": [ [ 667146.306891614338383, 4525448.815908840857446 ], [ 666770.627188226906583, 4525240.462344758212566 ] ] } },
{ "type": "Feature", "properties": { }, "geometry": { "type": "LineString", "coordinates": [ [ 667319.77308612363413, 4522950.701003029942513 ], [ 666908.295136357308365, 4523263.343562901951373 ] ] } },
{ "type": "Feature", "properties": { }, "geometry": { "type": "LineString", "coordinates": [ [ 666704.573210247559473, 4521942.176616347394884 ], [ 666151.901846345863305, 4522222.546395844779909 ] ] } },
{ "type": "Feature", "properties": { }, "geometry": { "type": "LineString", "coordinates": [ [ 666129.714309838833287, 4522000.671030774712563 ], [ 665550.821311883395538, 4522279.023761498741806 ] ] } },
{ "type": "Feature", "properties": { }, "geometry": { "type": "LineString", "coordinates": [ [ 664965.877167608006857, 4524285.987290995195508 ], [ 664629.030022456310689, 4524435.248900224454701 ] ] } },
{ "type": "Feature", "properties": { }, "geometry": { "type": "LineString", "coordinates": [ [ 664685.507388110505417, 4524326.328266462311149 ], [ 664449.512681626831181, 4524477.606924464926124 ] ] } },
{ "type": "Feature", "properties": { }, "geometry": { "type": "LineString", "coordinates": [ [ 664943.689631101093255, 4525568.830310855060816 ], [ 664467.666120587149635, 4525389.312970025464892 ] ] } },
{ "type": "Feature", "properties": { }, "geometry": { "type": "LineString", "coordinates": [ [ 665052.610264862771146, 4525514.369993973523378 ], [ 664729.882461124449037, 4525346.95494578499347 ] ] } },
{ "type": "Feature", "properties": { }, "geometry": { "type": "LineString", "coordinates": [ [ 664984.030606568325311, 4525350.989043331705034 ], [ 664768.206387818325311, 4525286.443482583388686 ] ] } },
{ "type": "Feature", "properties": { }, "geometry": { "type": "LineString", "coordinates": [ [ 668665.144617957645096, 4527424.515182350762188 ], [ 668655.059374090866186, 4526984.79854975733906 ] ] } },
{ "type": "Feature", "properties": { }, "geometry": { "type": "LineString", "coordinates": [ [ 670280.800685422262177, 4529038.154201040975749 ], [ 670468.386221345164813, 4529104.716810562647879 ] ] } },
{ "type": "Feature", "properties": { }, "geometry": { "type": "LineString", "coordinates": [ [ 666352.598199295578524, 4519392.626966812647879 ], [ 665777.053387747262605, 4519589.497333718463778 ] ] } },
{ "type": "Feature", "properties": { }, "geometry": { "type": "LineString", "coordinates": [ [ 665705.125543045811355, 4519719.388868097215891 ], [ 665065.721081889350899, 4519953.366525807417929 ] ] } },
{ "type": "Feature", "properties": { }, "geometry": { "type": "LineString", "coordinates": [ [ 665035.465350288897753, 4519547.939722361043096 ], [ 664313.126670513418503, 4519787.359625890851021 ] ] } },
{ "type": "Feature", "properties": { }, "geometry": { "type": "LineString", "coordinates": [ [ 665085.891569623025134, 4519420.865649638697505 ], [ 664402.860136349918321, 4519653.357650241814554 ] ] } },
{ "type": "Feature", "properties": { }, "geometry": { "type": "LineString", "coordinates": [ [ 664825.692277859081514, 4519247.39945513010025 ], [ 664054.694288904312998, 4519473.890718569047749 ] ] } },
{ "type": "Feature", "properties": { }, "geometry": { "type": "LineString", "coordinates": [ [ 665836.233713314519264, 4518533.364189358428121 ], [ 665151.835464531672187, 4518791.91637821123004 ] ] } },
{ "type": "Feature", "properties": { }, "geometry": { "type": "LineString", "coordinates": [ [ 665477.199031655676663, 4518737.086115468293428 ], [ 664898.306033700122498, 4518886.347724697552621 ] ] } },
{ "type": "Feature", "properties": { }, "geometry": { "type": "LineString", "coordinates": [ [ 665271.460056772571988, 4518811.716920083388686 ], [ 664668.471195225487463, 4518961.512628642842174 ] ] } },
{ "type": "Feature", "properties": { }, "geometry": { "type": "LineString", "coordinates": [ [ 666868.962685276987031, 4517268.674608455970883 ], [ 666225.524126574047841, 4517635.777485209517181 ] ] } },
{ "type": "Feature", "properties": { }, "geometry": { "type": "LineString", "coordinates": [ [ 664494.896279027569108, 4521141.408253318630159 ], [ 663932.139671258977614, 4521222.09020425286144 ] ] } },
{ "type": "Feature", "properties": { }, "geometry": { "type": "LineString", "coordinates": [ [ 663821.201988723943941, 4520550.412962722592056 ], [ 663272.564722368959337, 4520568.566401682794094 ] ] } },
{ "type": "Feature", "properties": { }, "geometry": { "type": "LineString", "coordinates": [ [ 663682.02562336192932, 4520760.18603515252471 ], [ 662855.035626282682642, 4520828.765693446621299 ] ] } },
{ "type": "Feature", "properties": { }, "geometry": { "type": "LineString", "coordinates": [ [ 663760.69052552303765, 4520951.805668622255325 ], [ 663000.263137964881025, 4521179.732180012390018 ] ] } },
{ "type": "Feature", "properties": { }, "geometry": { "type": "LineString", "coordinates": [ [ 665567.966226457152516, 4520538.310670081526041 ], [ 664916.459472660557367, 4520744.049644964747131 ] ] } },
{ "type": "Feature", "properties": { }, "geometry": { "type": "LineString", "coordinates": [ [ 671180.404438342317007, 4517963.54791088309139 ], [ 670762.875342255923897, 4517880.848911175504327 ] ] } },
{ "type": "Feature", "properties": { }, "geometry": { "type": "LineString", "coordinates": [ [ 671795.604314218275249, 4518354.855372915975749 ], [ 671440.603730106260628, 4518209.627861233428121 ] ] } },
{ "type": "Feature", "properties": { }, "geometry": { "type": "LineString", "coordinates": [ [ 671285.290974557283334, 4518163.235739446245134 ], [ 670853.64253705739975, 4518044.229861817322671 ] ] } },
{ "type": "Feature", "properties": { }, "geometry": { "type": "LineString", "coordinates": [ [ 671474.893559253425337, 4518362.923568009398878 ], [ 671079.551999674062245, 4518229.798348966985941 ] ] } },
{ "type": "Feature", "properties": { }, "geometry": { "type": "LineString", "coordinates": [ [ 669278.32744506013114, 4518026.076422858051956 ], [ 668773.478145692730322, 4518074.347763073630631 ] ] } },
{ "type": "Feature", "properties": { }, "geometry": { "type": "LineString", "coordinates": [ [ 668979.804226602311246, 4518116.843617659062147 ], [ 668479.152377749443986, 4518223.903539465740323 ] ] } },
{ "type": "Feature", "properties": { }, "geometry": { "type": "LineString", "coordinates": [ [ 668338.382716672611423, 4518639.259249960072339 ], [ 667868.410352478735149, 4518867.185761350207031 ] ] } },
{ "type": "Feature", "properties": { }, "geometry": { "type": "LineString", "coordinates": [ [ 668184.078485510195605, 4519024.01130348071456 ], [ 667722.67857860319782, 4519244.878144164569676 ] ] } },
{ "type": "Feature", "properties": { }, "geometry": { "type": "LineString", "coordinates": [ [ 668305.101411912124604, 4518863.655925998464227 ], [ 667833.111998944892548, 4519093.599486161954701 ] ] } },
{ "type": "Feature", "properties": { }, "geometry": { "type": "LineString", "coordinates": [ [ 668473.02072229469195, 4519256.980436804704368 ], [ 668035.825400667963549, 4519473.308917747810483 ] ] } },
{ "type": "Feature", "properties": { }, "geometry": { "type": "LineString", "coordinates": [ [ 668336.869930092594586, 4519151.08537620306015 ], [ 667890.597888985765167, 4519368.926643726415932 ] ] } },
{ "type": "Feature", "properties": { }, "geometry": { "type": "LineString", "coordinates": [ [ 669687.031952763325535, 4520628.321471595205367 ], [ 669266.477283516898751, 4520747.831611417233944 ] ] } },
{ "type": "Feature", "properties": { }, "geometry": { "type": "LineString", "coordinates": [ [ 669317.912027237704024, 4520746.318824836984277 ], [ 668912.485223791562021, 4520896.084696259349585 ] ] } },
{ "type": "Feature", "properties": { }, "geometry": { "type": "LineString", "coordinates": [ [ 671034.924795563914813, 4522964.063951149582863 ], [ 670883.646137561649084, 4523162.238993133418262 ] ] } },
{ "type": "Feature", "properties": { }, "geometry": { "type": "LineString", "coordinates": [ [ 670951.721533662639558, 4523006.421975390985608 ], [ 670794.391729340190068, 4523230.314389234408736 ] ] } },
{ "type": "Feature", "properties": { }, "geometry": { "type": "LineString", "coordinates": [ [ 671841.240042716264725, 4522062.443149455823004 ], [ 671673.320732333697379, 4522188.004435597918928 ] ] } },
{ "type": "Feature", "properties": { }, "geometry": { "type": "LineString", "coordinates": [ [ 671770.139073455124162, 4522141.108051617629826 ], [ 671608.270909392624162, 4522307.514575419947505 ] ] } },
{ "type": "Feature", "properties": { }, "geometry": { "type": "LineString", "coordinates": [ [ 677221.591580117470585, 4529680.079973165877163 ], [ 677033.742787319701165, 4529867.045065393671393 ] ] } },
{ "type": "Feature", "properties": { }, "geometry": { "type": "LineString", "coordinates": [ [ 677029.971946647856385, 4529714.369802312925458 ], [ 676749.602167150238529, 4529960.449752663262188 ] ] } },
{ "type": "Feature", "properties": { }, "geometry": { "type": "LineString", "coordinates": [ [ 678367.275283388560638, 4529583.261632044799626 ], [ 678330.968405467923731, 4529772.864216740243137 ] ] } },
{ "type": "Feature", "properties": { }, "geometry": { "type": "LineString", "coordinates": [ [ 678113.127137944567949, 4529585.278680818155408 ], [ 678099.925917234155349, 4529762.356021919287741 ] ] } },
{ "type": "Feature", "properties": { }, "geometry": { "type": "LineString", "coordinates": [ [ 677967.899626262369566, 4529645.790144018828869 ], [ 677947.379025310976431, 4529860.464611234143376 ] ] } },
{ "type": "Feature", "properties": { }, "geometry": { "type": "LineString", "coordinates": [ [ 677766.19474892586004, 4529762.778972873464227 ], [ 677772.249211153597571, 4529931.653160796500742 ] ] } },
{ "type": "Feature", "properties": { }, "geometry": { "type": "LineString", "coordinates": [ [ 676108.180657220305875, 4530263.007068667560816 ], [ 675833.862024042755365, 4530565.564384672790766 ] ] } },
{ "type": "Feature", "properties": { }, "geometry": { "type": "LineString", "coordinates": [ [ 676524.953360016923398, 4528832.919488351792097 ], [ 676635.891042551957071, 4528921.669634380377829 ] ] } },
{ "type": "Feature", "properties": { }, "geometry": { "type": "LineString", "coordinates": [ [ 679173.338399443891831, 4528316.555002369917929 ], [ 678924.763412999804132, 4528505.825777598656714 ] ] } },
{ "type": "Feature", "properties": { }, "geometry": { "type": "LineString", "coordinates": [ [ 678023.62059862643946, 4528320.589099916629493 ], [ 677973.194379292312078, 4528354.87892906460911 ] ] } },
{ "type": "Feature", "properties": { }, "geometry": { "type": "LineString", "coordinates": [ [ 678189.018598042312078, 4528375.049416798166931 ], [ 678072.295487552881241, 4528435.833674245513976 ] ] } },
{ "type": "Feature", "properties": { }, "geometry": { "type": "LineString", "coordinates": [ [ 679322.600008672918193, 4528927.720780699513853 ], [ 679201.927655600127764, 4529164.656361557543278 ] ] } },
{ "type": "Feature", "properties": { }, "geometry": { "type": "LineString", "coordinates": [ [ 679227.798716324730776, 4529034.624365688301623 ], [ 679054.33252181543503, 4529343.232828012667596 ] ] } },
{ "type": "Feature", "properties": { }, "geometry": { "type": "LineString", "coordinates": [ [ 679173.338399443891831, 4528086.611442206427455 ], [ 679085.685428400174715, 4528266.237423815764487 ] ] } },
{ "type": "Feature", "properties": { }, "geometry": { "type": "LineString", "coordinates": [ [ 678600.496547808521427, 4528588.856586774811149 ], [ 678455.269036126323044, 4528711.896561949513853 ] ] } },
{ "type": "Feature", "properties": { }, "geometry": { "type": "LineString", "coordinates": [ [ 678913.139107679948211, 4528457.748416505753994 ], [ 678679.49193971324712, 4528660.167338836938143 ] ] } },
{ "type": "Feature", "properties": { }, "geometry": { "type": "LineString", "coordinates": [ [ 680002.761449247249402, 4527298.312438994646072 ], [ 679966.269839807180688, 4527315.660909056663513 ] ] } },
{ "type": "Feature", "properties": { }, "geometry": { "type": "LineString", "coordinates": [ [ 662775.992527477559634, 4512628.453905337490141 ], [ 661898.576311064185575, 4513333.412451628595591 ] ] } },
{ "type": "Feature", "properties": { }, "geometry": { "type": "LineString", "coordinates": [ [ 663238.90522096469067, 4512280.512991932220757 ], [ 662406.872601951938123, 4512891.67877026181668 ] ] } },
{ "type": "Feature", "properties": { }, "geometry": { "type": "LineString", "coordinates": [ [ 662733.634503236971796, 4512991.522684543393552 ], [ 661810.83468942285981, 4513614.790755512192845 ] ] } },
{ "type": "Feature", "properties": { }, "geometry": { "type": "LineString", "coordinates": [ [ 662409.898175111971796, 4513088.34102566447109 ], [ 661476.950927176512778, 4513758.504556661471725 ] ] } },
{ "type": "Feature", "properties": { }, "geometry": { "type": "LineString", "coordinates": [ [ 664494.518082383903675, 4512186.720223971642554 ], [ 663719.971353412140161, 4512846.295172861777246 ] ] } },
{ "type": "Feature", "properties": { }, "geometry": { "type": "LineString", "coordinates": [ [ 664028.57981573685538, 4511744.986542604863644 ], [ 663287.31439152546227, 4512295.640857732854784 ] ] } },
{ "type": "Feature", "properties": { }, "geometry": { "type": "LineString", "coordinates": [ [ 663559.615975929656997, 4511599.759030922316015 ], [ 663002.91051448113285, 4512250.257260332815349 ] ] } },
{ "type": "Feature", "properties": { }, "geometry": { "type": "LineString", "coordinates": [ [ 667710.702351513085887, 4511959.802236967720091 ], [ 667308.301121226977557, 4512431.791649934835732 ] ] } },
{ "type": "Feature", "properties": { }, "geometry": { "type": "LineString", "coordinates": [ [ 667601.781717751524411, 4512065.697297569364309 ], [ 667241.738511706003919, 4512534.661137376911938 ] ] } },
{ "type": "Feature", "properties": { }, "geometry": { "type": "LineString", "coordinates": [ [ 670530.536536676227115, 4511085.411593712866306 ], [ 670209.825781711377203, 4511082.386020553298295 ] ] } },
{ "type": "Feature", "properties": { }, "geometry": { "type": "LineString", "coordinates": [ [ 675041.666118305060081, 4510592.243168625980616 ], [ 674382.091169415041804, 4510434.913364303298295 ] ] } },
{ "type": "Feature", "properties": { }, "geometry": { "type": "LineString", "coordinates": [ [ 674702.801924379891716, 4510622.498900226317346 ], [ 674115.840731330914423, 4510453.066803264431655 ] ] } },
{ "type": "Feature", "properties": { }, "geometry": { "type": "LineString", "coordinates": [ [ 674064.40598761010915, 4510707.214948708191514 ], [ 673441.137916640611365, 4510543.833998065441847 ] ] } },
{ "type": "Feature", "properties": { }, "geometry": { "type": "LineString", "coordinates": [ [ 674188.454487172071822, 4510652.754631826654077 ], [ 673586.365428322926164, 4510501.475973824970424 ] ] } },
{ "type": "Feature", "properties": { }, "geometry": { "type": "LineString", "coordinates": [ [ 676717.833648970699869, 4509975.026243977248669 ], [ 676024.977395320078358, 4509711.80137905292213 ] ] } },
{ "type": "Feature", "properties": { }, "geometry": { "type": "LineString", "coordinates": [ [ 677365.306305220583454, 4510026.460987697355449 ], [ 676651.271039449609816, 4509790.466281213797629 ] ] } },
{ "type": "Feature", "properties": { }, "geometry": { "type": "LineString", "coordinates": [ [ 677855.449157148017548, 4510080.921304578892887 ], [ 677174.695196137647144, 4509872.156756535172462 ] ] } },
{ "type": "Feature", "properties": { }, "geometry": { "type": "LineString", "coordinates": [ [ 676536.299259367864579, 4510459.117949584499002 ], [ 675810.161700956872664, 4510223.123243100941181 ] ] } },
{ "type": "Feature", "properties": { }, "geometry": { "type": "LineString", "coordinates": [ [ 675967.491505279205739, 4510447.015656944364309 ], [ 675268.584105308516882, 4510223.123243100941181 ] ] } },
{ "type": "Feature", "properties": { }, "geometry": { "type": "LineString", "coordinates": [ [ 680179.089344063657336, 4510050.665572977624834 ], [ 679558.846846254076809, 4510005.281975577585399 ] ] } },
{ "type": "Feature", "properties": { }, "geometry": { "type": "LineString", "coordinates": [ [ 680170.012624583439901, 4509242.837539245374501 ], [ 679507.412102533387952, 4509267.042124526575208 ] ] } },
{ "type": "Feature", "properties": { }, "geometry": { "type": "LineString", "coordinates": [ [ 684689.462532402598299, 4509906.95084787812084 ], [ 684178.140668354812078, 4509991.666896359063685 ] ] } },
{ "type": "Feature", "properties": { }, "geometry": { "type": "LineString", "coordinates": [ [ 684910.329373085871339, 4509707.263019314967096 ], [ 684426.237667478504591, 4509791.979067795909941 ] ] } },
{ "type": "Feature", "properties": { }, "geometry": { "type": "LineString", "coordinates": [ [ 683799.944023348973133, 4510130.843261721543968 ], [ 683261.392000860767439, 4510161.098993321880698 ] ] } },
{ "type": "Feature", "properties": { }, "geometry": { "type": "LineString", "coordinates": [ [ 683902.813510790583678, 4510006.794762159697711 ], [ 683364.261488302377984, 4510018.897054799832404 ] ] } },
{ "type": "Feature", "properties": { }, "geometry": { "type": "LineString", "coordinates": [ [ 686271.837295106612146, 4510509.039906727150083 ], [ 685854.308199020335451, 4510624.011686808429658 ] ] } },
{ "type": "Feature", "properties": { }, "geometry": { "type": "LineString", "coordinates": [ [ 684954.200183906592429, 4511528.658061660826206 ], [ 684485.236344099510461, 4511604.297390662133694 ] ] } },
{ "type": "Feature", "properties": { }, "geometry": { "type": "LineString", "coordinates": [ [ 689120.414425290306099, 4509537.830922346562147 ], [ 688839.036121406010352, 4509619.521397667936981 ] ] } },
{ "type": "Feature", "properties": { }, "geometry": { "type": "LineString", "coordinates": [ [ 689029.647230488946661, 4509667.930568228475749 ], [ 688757.345646084868349, 4509758.697763030417264 ] ] } },
{ "type": "Feature", "properties": { }, "geometry": { "type": "LineString", "coordinates": [ [ 688718.013195004197769, 4509961.411164753139019 ], [ 688469.916195880388841, 4510061.255079034715891 ] ] } },
{ "type": "Feature", "properties": { }, "geometry": { "type": "LineString", "coordinates": [ [ 688267.20279415731784, 4510106.638676435686648 ], [ 687964.645478152669966, 4510224.636029677465558 ] ] } },
{ "type": "Feature", "properties": { }, "geometry": { "type": "LineString", "coordinates": [ [ 688179.461172515992075, 4510118.74096907582134 ], [ 687870.852710191276856, 4510242.789468637667596 ] ] } },
{ "type": "Feature", "properties": { }, "geometry": { "type": "LineString", "coordinates": [ [ 687867.827137031243183, 4510345.65895607881248 ], [ 687522.911796786007471, 4510433.40057772025466 ] ] } },
{ "type": "Feature", "properties": { }, "geometry": { "type": "LineString", "coordinates": [ [ 687220.354480781359598, 4510400.119272960349917 ], [ 686851.234555255738087, 4510515.091053041629493 ] ] } },
{ "type": "Feature", "properties": { }, "geometry": { "type": "LineString", "coordinates": [ [ 689462.304192375624552, 4509162.659850501455367 ], [ 689156.721303210943006, 4509259.478191622532904 ] ] } },
{ "type": "Feature", "properties": { }, "geometry": { "type": "LineString", "coordinates": [ [ 689259.590790652437136, 4509250.401472142897546 ], [ 688984.26363308832515, 4509332.091947463341057 ] ] } },
{ "type": "Feature", "properties": { }, "geometry": { "type": "LineString", "coordinates": [ [ 689743.682496259920299, 4508820.770083416253328 ], [ 689507.687789776246063, 4508902.460558736696839 ] ] } },
{ "type": "Feature", "properties": { }, "geometry": { "type": "LineString", "coordinates": [ [ 689619.633996697957627, 4509083.994948339648545 ], [ 689338.255692813661881, 4509201.992301581427455 ] ] } },
{ "type": "Feature", "properties": { }, "geometry": { "type": "LineString", "coordinates": [ [ 690557.561676312470809, 4508106.734817645512521 ], [ 690388.129579349886626, 4508064.376793405041099 ] ] } },
{ "type": "Feature", "properties": { }, "geometry": { "type": "LineString", "coordinates": [ [ 690424.436457270523533, 4508324.576085168868303 ], [ 690242.902067667688243, 4508318.524938848800957 ] ] } },
{ "type": "Feature", "properties": { }, "geometry": { "type": "LineString", "coordinates": [ [ 690288.285665068426169, 4508372.985255729407072 ], [ 690100.700129145523533, 4508376.010828889906406 ] ] } },
{ "type": "Feature", "properties": { }, "geometry": { "type": "LineString", "coordinates": [ [ 690052.290958584751934, 4508560.570791652426124 ], [ 689831.424117901478894, 4508587.800950093194842 ] ] } },
{ "type": "Feature", "properties": { }, "geometry": { "type": "LineString", "coordinates": [ [ 689767.887081540422514, 4508696.721583854407072 ], [ 689528.866801896831021, 4508763.284193376079202 ] ] } },
{ "type": "Feature", "properties": { }, "geometry": { "type": "LineString", "coordinates": [ [ 690687.661322194500826, 4507904.021415922790766 ], [ 690478.896774151362479, 4507825.356513761915267 ] ] } },
{ "type": "Feature", "properties": { }, "geometry": { "type": "LineString", "coordinates": [ [ 690557.561676312470809, 4507976.635171763598919 ], [ 690360.899420909467153, 4507931.251574363559484 ] ] } },
{ "type": "Feature", "properties": { }, "geometry": { "type": "LineString", "coordinates": [ [ 692850.946131627541035, 4508772.36091285571456 ], [ 692602.849132503732108, 4508602.928815892897546 ] ] } },
{ "type": "Feature", "properties": { }, "geometry": { "type": "LineString", "coordinates": [ [ 692735.974351545795798, 4508802.61664445605129 ], [ 692484.851779261953197, 4508639.235693813301623 ] ] } },
{ "type": "Feature", "properties": { }, "geometry": { "type": "LineString", "coordinates": [ [ 692578.644547223346308, 4508705.798303334973752 ], [ 692330.54754809953738, 4508524.263913732022047 ] ] } },
{ "type": "Feature", "properties": { }, "geometry": { "type": "LineString", "coordinates": [ [ 692276.087231218698435, 4508136.990549245849252 ], [ 691946.299756773747504, 4507985.711891243234277 ] ] } },
{ "type": "Feature", "properties": { }, "geometry": { "type": "LineString", "coordinates": [ [ 691770.81651349097956, 4507105.270101670175791 ], [ 691401.696587965358049, 4506920.710138907656074 ] ] } },
{ "type": "Feature", "properties": { }, "geometry": { "type": "LineString", "coordinates": [ [ 691764.765367170912214, 4507501.620185635983944 ], [ 691416.824453765526414, 4507335.213661833666265 ] ] } },
{ "type": "Feature", "properties": { }, "geometry": { "type": "LineString", "coordinates": [ [ 691767.790940330945887, 4507444.134295594878495 ], [ 691416.824453765526414, 4507271.67662547249347 ] ] } },
{ "type": "Feature", "properties": { }, "geometry": { "type": "LineString", "coordinates": [ [ 693277.55194719391875, 4507531.875917236320674 ], [ 692920.534314308548346, 4507341.264808153733611 ] ] } },
{ "type": "Feature", "properties": { }, "geometry": { "type": "LineString", "coordinates": [ [ 693456.060763636720367, 4507462.287734555080533 ], [ 693092.991984431166202, 4507247.472040192224085 ] ] } },
{ "type": "Feature", "properties": { }, "geometry": { "type": "LineString", "coordinates": [ [ 691126.369430401129648, 4508061.351220244541764 ], [ 690872.221284957253374, 4507937.302720682695508 ] ] } },
{ "type": "Feature", "properties": { }, "geometry": { "type": "LineString", "coordinates": [ [ 691559.026392287691124, 4506061.447361453436315 ], [ 691135.446149881230667, 4505813.350362329743803 ] ] } },
{ "type": "Feature", "properties": { }, "geometry": { "type": "LineString", "coordinates": [ [ 691770.81651349097956, 4506545.539067060686648 ], [ 691307.903820003848523, 4506306.518787417560816 ] ] } },
{ "type": "Feature", "properties": { }, "geometry": { "type": "LineString", "coordinates": [ [ 691822.251257211784832, 4506454.771872259676456 ], [ 691395.645441645174287, 4506255.084043696522713 ] ] } },
{ "type": "Feature", "properties": { }, "geometry": { "type": "LineString", "coordinates": [ [ 691531.796233847271651, 4506690.766578743234277 ], [ 691102.164845120743848, 4506463.848591740243137 ] ] } },
{ "type": "Feature", "properties": { }, "geometry": { "type": "LineString", "coordinates": [ [ 691801.072245091432706, 4507041.733065309002995 ], [ 691422.87560008559376, 4506835.994090425781906 ] ] } },
{ "type": "Feature", "properties": { }, "geometry": { "type": "LineString", "coordinates": [ [ 692460.647193981450982, 4507907.046989081427455 ], [ 692124.80857321631629, 4507779.972916360013187 ] ] } },
{ "type": "Feature", "properties": { }, "geometry": { "type": "LineString", "coordinates": [ [ 691326.057258964166977, 4508058.32564708404243 ], [ 691050.730101399938576, 4507913.098135401494801 ] ] } },
{ "type": "Feature", "properties": { }, "geometry": { "type": "LineString", "coordinates": [ [ 693770.720372281502932, 4507504.645758795551956 ], [ 693392.523727275780402, 4507289.830064432695508 ] ] } },
{ "type": "Feature", "properties": { }, "geometry": { "type": "LineString", "coordinates": [ [ 694230.607492608483881, 4507280.753344952128828 ], [ 693797.95053072180599, 4507078.039943229407072 ] ] } },
{ "type": "Feature", "properties": { }, "geometry": { "type": "LineString", "coordinates": [ [ 694935.566038899240084, 4507519.773624596185982 ], [ 694496.857930692494847, 4507329.162515512667596 ] ] } },
{ "type": "Feature", "properties": { }, "geometry": { "type": "LineString", "coordinates": [ [ 694560.394967053434812, 4507177.883857510983944 ], [ 694103.533419886487536, 4506987.272748427465558 ] ] } },
{ "type": "Feature", "properties": { }, "geometry": { "type": "LineString", "coordinates": [ [ 694439.372040651622228, 4507141.576979589648545 ], [ 693985.536066644708626, 4506923.735712066292763 ] ] } },
{ "type": "Feature", "properties": { }, "geometry": { "type": "LineString", "coordinates": [ [ 695126.177147982176393, 4507283.778918112628162 ], [ 694672.341173975146376, 4507105.270101669244468 ] ] } },
{ "type": "Feature", "properties": { }, "geometry": { "type": "LineString", "coordinates": [ [ 695616.319999909610488, 4506808.763931985013187 ], [ 695232.072208583704196, 4506554.615786541253328 ] ] } },
{ "type": "Feature", "properties": { }, "geometry": { "type": "LineString", "coordinates": [ [ 696000.567791235516779, 4506572.769225501455367 ], [ 695610.268853589543141, 4506327.697799537330866 ] ] } },
{ "type": "Feature", "properties": { }, "geometry": { "type": "LineString", "coordinates": [ [ 695788.777670032228343, 4506648.408554502762854 ], [ 695477.143634547479451, 4506403.337128538638353 ] ] } },
{ "type": "Feature", "properties": { }, "geometry": { "type": "LineString", "coordinates": [ [ 695943.081901194644161, 4506866.249822026118636 ], [ 695552.782963548670523, 4506612.101676582358778 ] ] } },
{ "type": "Feature", "properties": { }, "geometry": { "type": "LineString", "coordinates": [ [ 695867.442572193453088, 4507026.605199508368969 ], [ 695428.734463986707851, 4506820.866224625147879 ] ] } },
{ "type": "Feature", "properties": { }, "geometry": { "type": "LineString", "coordinates": [ [ 696133.693010277464055, 4507096.19338218960911 ], [ 695707.087194710969925, 4506899.531126786023378 ] ] } },
{ "type": "Feature", "properties": { }, "geometry": { "type": "LineString", "coordinates": [ [ 695183.663038023049012, 4507643.822124158032238 ], [ 694754.031649296404794, 4507465.313307714648545 ] ] } },
{ "type": "Feature", "properties": { }, "geometry": { "type": "LineString", "coordinates": [ [ 696094.36055919714272, 4505692.327435927465558 ], [ 695607.243280429742299, 4505332.284229882061481 ] ] } },
{ "type": "Feature", "properties": { }, "geometry": { "type": "LineString", "coordinates": [ [ 696012.670083875884302, 4505574.330082685686648 ], [ 695431.760037146974355, 4505187.056718200445175 ] ] } },
{ "type": "Feature", "properties": { }, "geometry": { "type": "LineString", "coordinates": [ [ 696923.36760504974518, 4507162.755991710349917 ], [ 696527.017521083704196, 4506960.042589987628162 ] ] } },
{ "type": "Feature", "properties": { }, "geometry": { "type": "LineString", "coordinates": [ [ 696826.549263928201981, 4508690.670437532477081 ], [ 696454.403765242546797, 4508545.442925849929452 ] ] } },
{ "type": "Feature", "properties": { }, "geometry": { "type": "LineString", "coordinates": [ [ 697068.595116731943563, 4509032.560204617679119 ], [ 696717.62863016652409, 4508908.511705055832863 ] ] } },
{ "type": "Feature", "properties": { }, "geometry": { "type": "LineString", "coordinates": [ [ 696844.702702888520434, 4509077.943802018649876 ], [ 696560.298825844191015, 4509005.3300461769104 ] ] } },
{ "type": "Feature", "properties": { }, "geometry": { "type": "LineString", "coordinates": [ [ 697098.850848332396708, 4508841.949095535092056 ], [ 696711.577483846456744, 4508723.951742293313146 ] ] } },
{ "type": "Feature", "properties": { }, "geometry": { "type": "LineString", "coordinates": [ [ 697440.740615417598747, 4508324.576085167005658 ], [ 696932.444324529846199, 4508127.913829763419926 ] ] } },
{ "type": "Feature", "properties": { }, "geometry": { "type": "LineString", "coordinates": [ [ 697301.56425005546771, 4508170.271854004822671 ], [ 696805.37025180796627, 4507970.584025441668928 ] ] } },
{ "type": "Feature", "properties": { }, "geometry": { "type": "LineString", "coordinates": [ [ 696989.930214570718817, 4507377.571686072275043 ], [ 696542.145386883872561, 4507141.576979588717222 ] ] } },
{ "type": "Feature", "properties": { }, "geometry": { "type": "LineString", "coordinates": [ [ 696409.020167841925286, 4507193.011723309755325 ], [ 696163.948741878150031, 4507017.528480026870966 ] ] } },
{ "type": "Feature", "properties": { }, "geometry": { "type": "LineString", "coordinates": [ [ 696693.424044886254705, 4508088.581378683447838 ], [ 696278.920521959895268, 4507970.584025441668928 ] ] } },
{ "type": "Feature", "properties": { }, "geometry": { "type": "LineString", "coordinates": [ [ 696517.940801603486761, 4508466.778023689053953 ], [ 696169.999888198217377, 4508379.036402047611773 ] ] } },
{ "type": "Feature", "properties": { }, "geometry": { "type": "LineString", "coordinates": [ [ 696651.066020645550452, 4508512.16162109002471 ], [ 696318.252973040449433, 4508412.317706808447838 ] ] } },
{ "type": "Feature", "properties": { }, "geometry": { "type": "LineString", "coordinates": [ [ 695867.442572193569504, 4508651.33798645157367 ], [ 695440.836756627075374, 4508596.877669570967555 ] ] } },
{ "type": "Feature", "properties": { }, "geometry": { "type": "LineString", "coordinates": [ [ 697564.789114979445003, 4508990.202180379070342 ], [ 697071.620689891977236, 4508820.770083416253328 ] ] } },
{ "type": "Feature", "properties": { }, "geometry": { "type": "LineString", "coordinates": [ [ 695676.831463110633194, 4509087.020521500147879 ], [ 695295.609244944876991, 4509080.969375180080533 ] ] } },
{ "type": "Feature", "properties": { }, "geometry": { "type": "LineString", "coordinates": [ [ 695764.573084751958959, 4508956.920875618234277 ], [ 695350.069561825715937, 4508932.716290337964892 ] ] } },
{ "type": "Feature", "properties": { }, "geometry": { "type": "LineString", "coordinates": [ [ 695649.601304670213722, 4509477.319459145888686 ], [ 695216.944342783652246, 4509498.498471266590059 ] ] } },
{ "type": "Feature", "properties": { }, "geometry": { "type": "LineString", "coordinates": [ [ 695404.529878706554882, 4510015.871481635607779 ], [ 694980.949636300094426, 4510064.280652196146548 ] ] } },
{ "type": "Feature", "properties": { }, "geometry": { "type": "LineString", "coordinates": [ [ 697268.282945294980891, 4510103.613103277049959 ], [ 696769.063373887329362, 4510027.973774275742471 ] ] } },
{ "type": "Feature", "properties": { }, "geometry": { "type": "LineString", "coordinates": [ [ 697570.840261299628764, 4510030.999347435310483 ], [ 697062.543970411876217, 4509894.848555233329535 ] ] } },
{ "type": "Feature", "properties": { }, "geometry": { "type": "LineString", "coordinates": [ [ 697779.604809342767112, 4509822.234799392521381 ], [ 697277.35966477508191, 4509619.521397669799626 ] ] } },
{ "type": "Feature", "properties": { }, "geometry": { "type": "LineString", "coordinates": [ [ 696808.395824967999943, 4511108.103392411023378 ], [ 696188.153327158535831, 4511207.94730669260025 ] ] } },
{ "type": "Feature", "properties": { }, "geometry": { "type": "LineString", "coordinates": [ [ 696303.125107240281068, 4511392.50726945605129 ], [ 695698.010475231101736, 4511571.016085898503661 ] ] } },
{ "type": "Feature", "properties": { }, "geometry": { "type": "LineString", "coordinates": [ [ 696233.536924559273757, 4512058.133364666253328 ], [ 695628.42229254997801, 4512103.516962066292763 ] ] } },
{ "type": "Feature", "properties": { }, "geometry": { "type": "LineString", "coordinates": [ [ 696663.168313285685144, 4512112.593681546859443 ], [ 696103.437278677243739, 4512300.179217469878495 ] ] } },
{ "type": "Feature", "properties": { }, "geometry": { "type": "LineString", "coordinates": [ [ 696853.779422368621454, 4511604.297390659339726 ], [ 696278.920521959895268, 4511788.857353422790766 ] ] } },
{ "type": "Feature", "properties": { }, "geometry": { "type": "LineString", "coordinates": [ [ 697927.857894184999168, 4511059.694221851415932 ], [ 697365.101286416407675, 4510878.159832248464227 ] ] } },
{ "type": "Feature", "properties": { }, "geometry": { "type": "LineString", "coordinates": [ [ 697737.246785102179274, 4510581.653662564232945 ], [ 697201.720335774007253, 4510484.835321442224085 ] ] } },
{ "type": "Feature", "properties": { }, "geometry": { "type": "LineString", "coordinates": [ [ 697549.661249179276638, 4510254.891761278733611 ], [ 697017.16037301113829, 4510161.098993317224085 ] ] } },
{ "type": "Feature", "properties": { }, "geometry": { "type": "LineString", "coordinates": [ [ 696887.060727129108272, 4510684.523150005377829 ], [ 696315.22739988041576, 4510745.03461320605129 ] ] } },
{ "type": "Feature", "properties": { }, "geometry": { "type": "LineString", "coordinates": [ [ 696850.753849208587781, 4510881.185405408032238 ], [ 696278.920521959895268, 4510987.080466009676456 ] ] } },
{ "type": "Feature", "properties": { }, "geometry": { "type": "LineString", "coordinates": [ [ 696348.508704640902579, 4510850.929673807695508 ], [ 695758.521938431891613, 4510974.978173369541764 ] ] } },
{ "type": "Feature", "properties": { }, "geometry": { "type": "LineString", "coordinates": [ [ 696744.858788606943563, 4512418.176570711657405 ], [ 696127.641863957629539, 4512726.785033036023378 ] ] } },
{ "type": "Feature", "properties": { }, "geometry": { "type": "LineString", "coordinates": [ [ 696457.42933840258047, 4512681.401435635052621 ], [ 695743.394072631723247, 4513032.36792220082134 ] ] } },
{ "type": "Feature", "properties": { }, "geometry": { "type": "LineString", "coordinates": [ [ 696203.281192958704196, 4512723.759459876455367 ], [ 695555.808536708820611, 4513135.237409641966224 ] ] } },
{ "type": "Feature", "properties": { }, "geometry": { "type": "LineString", "coordinates": [ [ 695924.928462234442122, 4512835.705666798166931 ], [ 695316.788257065229118, 4513280.464921324513853 ] ] } },
{ "type": "Feature", "properties": { }, "geometry": { "type": "LineString", "coordinates": [ [ 696778.140093367546797, 4513207.851165483705699 ], [ 696121.590717637445778, 4513570.919944688677788 ] ] } },
{ "type": "Feature", "properties": { }, "geometry": { "type": "LineString", "coordinates": [ [ 696989.930214570718817, 4513195.748872843571007 ], [ 696327.329692520666867, 4513528.561920448206365 ] ] } },
{ "type": "Feature", "properties": { }, "geometry": { "type": "LineString", "coordinates": [ [ 694853.875563578098081, 4513153.390848602168262 ], [ 694372.809431130765006, 4513707.070736890658736 ] ] } },
{ "type": "Feature", "properties": { }, "geometry": { "type": "LineString", "coordinates": [ [ 696962.700056130299345, 4513592.09895680937916 ], [ 696309.176253560348414, 4513973.32117497548461 ] ] } },
{ "type": "Feature", "properties": { }, "geometry": { "type": "LineString", "coordinates": [ [ 697150.285592053201981, 4513601.175676289014518 ], [ 696451.378192082513124, 4513940.039870214648545 ] ] } },
{ "type": "Feature", "properties": { }, "geometry": { "type": "LineString", "coordinates": [ [ 697652.530736620887183, 4513828.093663292936981 ], [ 697020.185946171171963, 4514139.727698777802289 ] ] } },
{ "type": "Feature", "properties": { }, "geometry": { "type": "LineString", "coordinates": [ [ 697915.755601544864476, 4513906.75856545381248 ], [ 697289.461957415333018, 4514227.469320419244468 ] ] } },
{ "type": "Feature", "properties": { }, "geometry": { "type": "LineString", "coordinates": [ [ 698042.82967426686082, 4513994.50018709525466 ], [ 697561.76354181941133, 4514300.083076260052621 ] ] } },
{ "type": "Feature", "properties": { }, "geometry": { "type": "LineString", "coordinates": [ [ 697752.374650902231224, 4514176.034576698206365 ], [ 697219.873774734092876, 4514554.23122170381248 ] ] } },
{ "type": "Feature", "properties": { }, "geometry": { "type": "LineString", "coordinates": [ [ 696908.239739249343984, 4513961.218882335349917 ], [ 696318.252973040333018, 4514396.901417382061481 ] ] } },
{ "type": "Feature", "properties": { }, "geometry": { "type": "LineString", "coordinates": [ [ 696766.037800727179274, 4514151.829991417936981 ], [ 696200.255619798554108, 4514599.614819104783237 ] ] } },
{ "type": "Feature", "properties": { }, "geometry": { "type": "LineString", "coordinates": [ [ 691819.225684051867574, 4512784.270923076197505 ], [ 691873.68600093270652, 4512893.191556837409735 ] ] } },
{ "type": "Feature", "properties": { }, "geometry": { "type": "LineString", "coordinates": [ [ 692073.373829495743848, 4512868.98697155714035 ], [ 692067.322683175676502, 4512953.703020039014518 ] ] } },
{ "type": "Feature", "properties": { }, "geometry": { "type": "LineString", "coordinates": [ [ 691586.256550728343427, 4512932.524007918313146 ], [ 691604.409989688545465, 4513053.54693432059139 ] ] } },
{ "type": "Feature", "properties": { }, "geometry": { "type": "LineString", "coordinates": [ [ 691846.455842492287047, 4512148.900559466332197 ], [ 691770.816513491095975, 4512239.667754268273711 ] ] } },
{ "type": "Feature", "properties": { }, "geometry": { "type": "LineString", "coordinates": [ [ 691864.609281452605501, 4512052.08221834525466 ], [ 691813.174537731800228, 4512130.747120506130159 ] ] } },
{ "type": "Feature", "properties": { }, "geometry": { "type": "LineString", "coordinates": [ [ 691888.813866732874885, 4511813.061938701197505 ], [ 691831.327976692002267, 4511864.496682422235608 ] ] } },
{ "type": "Feature", "properties": { }, "geometry": { "type": "LineString", "coordinates": [ [ 691332.108405284467153, 4511673.885573339648545 ], [ 691286.724807883729227, 4511719.269170739687979 ] ] } },
{ "type": "Feature", "properties": { }, "geometry": { "type": "LineString", "coordinates": [ [ 694505.934650172828697, 4513292.567213963717222 ], [ 694151.942590447491966, 4513758.505480610765517 ] ] } },
{ "type": "Feature", "properties": { }, "geometry": { "type": "LineString", "coordinates": [ [ 692926.585460628732108, 4512693.503728275187314 ], [ 692766.230083146365359, 4512805.449935196898878 ] ] } },
{ "type": "Feature", "properties": { }, "geometry": { "type": "LineString", "coordinates": [ [ 693153.503447632072493, 4513864.400541212409735 ], [ 692996.173643309739418, 4514221.4181740982458 ] ] } },
{ "type": "Feature", "properties": { }, "geometry": { "type": "LineString", "coordinates": [ [ 692381.982291820342652, 4514154.855564577504992 ], [ 692203.473475377541035, 4514454.387307422235608 ] ] } },
{ "type": "Feature", "properties": { }, "geometry": { "type": "LineString", "coordinates": [ [ 692273.061658058664761, 4513806.914651172235608 ], [ 692206.499048537691124, 4514064.088369775563478 ] ] } },
{ "type": "Feature", "properties": { }, "geometry": { "type": "LineString", "coordinates": [ [ 692173.21774377708789, 4513691.94287109002471 ], [ 692191.371182737406343, 4513879.528407013043761 ] ] } },
{ "type": "Feature", "properties": { }, "geometry": { "type": "LineString", "coordinates": [ [ 692012.862366294721141, 4513068.674800120294094 ], [ 692052.194817375275306, 4513201.800019162707031 ] ] } },
{ "type": "Feature", "properties": { }, "geometry": { "type": "LineString", "coordinates": [ [ 692076.399402655661106, 4513383.334408765658736 ], [ 692082.450548975728452, 4513552.766505728475749 ] ] } },
{ "type": "Feature", "properties": { }, "geometry": { "type": "LineString", "coordinates": [ [ 691135.446149881230667, 4513274.413775003515184 ], [ 691208.059905722388066, 4513365.180969805456698 ] ] } },
{ "type": "Feature", "properties": { }, "geometry": { "type": "LineString", "coordinates": [ [ 691217.136625202489085, 4513226.004604443907738 ], [ 691280.67366156342905, 4513312.23343950510025 ] ] } },
{ "type": "Feature", "properties": { }, "geometry": { "type": "LineString", "coordinates": [ [ 691342.697911344352178, 4513165.493141242302954 ], [ 691406.234947705292143, 4513239.619683663360775 ] ] } },
{ "type": "Feature", "properties": { }, "geometry": { "type": "LineString", "coordinates": [ [ 691080.985833000391722, 4513729.762535591609776 ], [ 691109.728778020828031, 4513790.273998792283237 ] ] } },
{ "type": "Feature", "properties": { }, "geometry": { "type": "LineString", "coordinates": [ [ 690817.760968076298013, 4513655.635993170551956 ], [ 690811.709821756230667, 4513678.327791870571673 ] ] } },
{ "type": "Feature", "properties": { }, "geometry": { "type": "LineString", "coordinates": [ [ 690445.615469390642829, 4513623.867474989034235 ], [ 690351.822701429249719, 4513605.714036028832197 ] ] } },
{ "type": "Feature", "properties": { }, "geometry": { "type": "LineString", "coordinates": [ [ 690283.747305328142829, 4513607.226822609081864 ], [ 690215.671909227152355, 4513539.15142650809139 ] ] } },
{ "type": "Feature", "properties": { }, "geometry": { "type": "LineString", "coordinates": [ [ 690878.27243127732072, 4513413.590140365995467 ], [ 690813.222608336247504, 4513430.230792745947838 ] ] } },
{ "type": "Feature", "properties": { }, "geometry": { "type": "LineString", "coordinates": [ [ 690935.758321318193339, 4513365.180969805456698 ], [ 690884.323577597388066, 4513445.358658546581864 ] ] } },
{ "type": "Feature", "properties": { }, "geometry": { "type": "LineString", "coordinates": [ [ 690664.969523494015448, 4513437.794725646264851 ], [ 690601.432487133075483, 4513436.281939066015184 ] ] } },
{ "type": "Feature", "properties": { }, "geometry": { "type": "LineString", "coordinates": [ [ 691241.341210482874885, 4514410.516496602445841 ], [ 691248.905143383075483, 4514539.103355904109776 ] ] } },
{ "type": "Feature", "properties": { }, "geometry": { "type": "LineString", "coordinates": [ [ 691341.185124764451757, 4514413.542069762945175 ], [ 691347.236271084519103, 4514537.590569324791431 ] ] } },
{ "type": "Feature", "properties": { }, "geometry": { "type": "LineString", "coordinates": [ [ 691327.570045544183813, 4514301.595862841233611 ], [ 691295.801527363713831, 4514439.259441623464227 ] ] } },
{ "type": "Feature", "properties": { }, "geometry": { "type": "LineString", "coordinates": [ [ 691168.727454641833901, 4514434.721081882715225 ], [ 691186.88089360203594, 4514551.205648545175791 ] ] } },
{ "type": "Feature", "properties": { }, "geometry": { "type": "LineString", "coordinates": [ [ 691279.160874983528629, 4514593.563672785647213 ], [ 691197.470399662270211, 4514737.278397887945175 ] ] } },
{ "type": "Feature", "properties": { }, "geometry": { "type": "LineString", "coordinates": [ [ 691366.902496624854393, 4514585.9997398853302 ], [ 691236.802850742824376, 4514791.73871476855129 ] ] } },
{ "type": "Feature", "properties": { }, "geometry": { "type": "LineString", "coordinates": [ [ 691194.444826502236538, 4514596.589245945215225 ], [ 691173.265814381884411, 4514705.509879707358778 ] ] } },
{ "type": "Feature", "properties": { }, "geometry": { "type": "LineString", "coordinates": [ [ 691304.87824684381485, 4514699.458733387291431 ], [ 691214.111052042455412, 4514868.890830349177122 ] ] } },
{ "type": "Feature", "properties": { }, "geometry": { "type": "LineString", "coordinates": [ [ 692153.551518236869015, 4514067.113942936994135 ], [ 692047.656457635224797, 4514322.774874961003661 ] ] } },
{ "type": "Feature", "properties": { }, "geometry": { "type": "LineString", "coordinates": [ [ 691152.086802261532284, 4513876.502833854407072 ], [ 691130.907790141180158, 4513947.603803115896881 ] ] } },
{ "type": "Feature", "properties": { }, "geometry": { "type": "LineString", "coordinates": [ [ 691212.598265462438576, 4513828.093663293868303 ], [ 691221.67498494265601, 4513893.143486234359443 ] ] } },
{ "type": "Feature", "properties": { }, "geometry": { "type": "LineString", "coordinates": [ [ 690985.680278458981775, 4514059.550010037608445 ], [ 690994.756997939082794, 4514147.291631678119302 ] ] } },
{ "type": "Feature", "properties": { }, "geometry": { "type": "LineString", "coordinates": [ [ 691138.471723041380756, 4514235.033253319561481 ], [ 691139.984509621397592, 4514340.928313921205699 ] ] } },
{ "type": "Feature", "properties": { }, "geometry": { "type": "LineString", "coordinates": [ [ 690596.894127393024974, 4514466.489600063301623 ], [ 690658.918377174064517, 4514522.462703524157405 ] ] } },
{ "type": "Feature", "properties": { }, "geometry": { "type": "LineString", "coordinates": [ [ 690643.790511373779736, 4514499.770904824137688 ], [ 690696.738041674601845, 4514561.795154605060816 ] ] } },
{ "type": "Feature", "properties": { }, "geometry": { "type": "LineString", "coordinates": [ [ 690755.736718295491301, 4514552.718435124494135 ], [ 690789.018023055978119, 4514605.665965425781906 ] ] } },
{ "type": "Feature", "properties": { }, "geometry": { "type": "LineString", "coordinates": [ [ 690835.914407036616467, 4514755.431836848147213 ], [ 690746.659998815273866, 4514921.838360650464892 ] ] } },
{ "type": "Feature", "properties": { }, "geometry": { "type": "LineString", "coordinates": [ [ 689863.192636081716046, 4514971.760317791253328 ], [ 689904.037873742403463, 4514944.53015935048461 ] ] } },
{ "type": "Feature", "properties": { }, "geometry": { "type": "LineString", "coordinates": [ [ 691093.088125640642829, 4515549.644791360013187 ], [ 690811.709821756347083, 4515623.771333781071007 ] ] } },
{ "type": "Feature", "properties": { }, "geometry": { "type": "LineString", "coordinates": [ [ 691203.521545982337557, 4515434.673011277802289 ], [ 690916.092095777858049, 4515551.157577939331532 ] ] } },
{ "type": "Feature", "properties": { }, "geometry": { "type": "LineString", "coordinates": [ [ 691289.750381043646485, 4515275.830420375801623 ], [ 691074.934686680324376, 4515374.161548077128828 ] ] } },
{ "type": "Feature", "properties": { }, "geometry": { "type": "LineString", "coordinates": [ [ 691282.186448143445887, 4515222.882890074513853 ], [ 691082.498619580408558, 4515324.239590936340392 ] ] } },
{ "type": "Feature", "properties": { }, "geometry": { "type": "LineString", "coordinates": [ [ 691261.007436023210175, 4515123.038975792936981 ], [ 691149.061229101498611, 4515265.240914314985275 ] ] } },
{ "type": "Feature", "properties": { }, "geometry": { "type": "LineString", "coordinates": [ [ 690512.178078911732882, 4515749.332619922235608 ], [ 690217.184695807285607, 4515746.307046762667596 ] ] } },
{ "type": "Feature", "properties": { }, "geometry": { "type": "LineString", "coordinates": [ [ 690669.507883234182373, 4515708.487382262013853 ], [ 690292.824024808360264, 4515761.434912563301623 ] ] } },
{ "type": "Feature", "properties": { }, "geometry": { "type": "LineString", "coordinates": [ [ 690179.365031306631863, 4515768.998845462687314 ], [ 689834.449691061396152, 4515806.818509963341057 ] ] } },
{ "type": "Feature", "properties": { }, "geometry": { "type": "LineString", "coordinates": [ [ 690766.326224355725572, 4515908.175210825167596 ], [ 690374.514500129735097, 4515941.456515586003661 ] ] } },
{ "type": "Feature", "properties": { }, "geometry": { "type": "LineString", "coordinates": [ [ 690896.425870237755589, 4515844.638174463994801 ], [ 690530.331517872167751, 4515909.687997405417264 ] ] } },
{ "type": "Feature", "properties": { }, "geometry": { "type": "LineString", "coordinates": [ [ 690940.296681058360264, 4515817.408016024157405 ], [ 690621.098712673527189, 4515891.534558445215225 ] ] } },
{ "type": "Feature", "properties": { }, "geometry": { "type": "LineString", "coordinates": [ [ 690639.252151633845642, 4516012.557484846562147 ], [ 690199.031256847083569, 4516053.402722507715225 ] ] } },
{ "type": "Feature", "properties": { }, "geometry": { "type": "LineString", "coordinates": [ [ 690318.541396668879315, 4515902.12406450510025 ], [ 690047.75259884481784, 4515805.305723384022713 ] ] } },
{ "type": "Feature", "properties": { }, "geometry": { "type": "LineString", "coordinates": [ [ 687025.205011958372779, 4514569.359087501652539 ], [ 686852.747341835754924, 4514560.282368022017181 ] ] } },
{ "type": "Feature", "properties": { }, "geometry": { "type": "LineString", "coordinates": [ [ 686988.898134037852287, 4514717.612172343768179 ], [ 686864.849634475889616, 4514805.353793985210359 ] ] } },
{ "type": "Feature", "properties": { }, "geometry": { "type": "LineString", "coordinates": [ [ 687109.921060439664871, 4514890.069842467084527 ], [ 686946.540109797148034, 4514956.632451987825334 ] ] } },
{ "type": "Feature", "properties": { }, "geometry": { "type": "LineString", "coordinates": [ [ 686713.570976473623887, 4514705.509879703633487 ], [ 686553.215598991140723, 4514675.254148103296757 ] ] } },
{ "type": "Feature", "properties": { }, "geometry": { "type": "LineString", "coordinates": [ [ 687082.690901999245398, 4514281.929637297987938 ], [ 686916.284378196694888, 4514357.568966298364103 ] ] } },
{ "type": "Feature", "properties": { }, "geometry": { "type": "LineString", "coordinates": [ [ 686361.091703328536823, 4515608.643467977643013 ], [ 686100.892411564593203, 4515644.95034589804709 ] ] } },
{ "type": "Feature", "properties": { }, "geometry": { "type": "LineString", "coordinates": [ [ 685831.616400320432149, 4514510.360410881228745 ], [ 685492.752206395263784, 4514516.411557201296091 ] ] } },
{ "type": "Feature", "properties": { }, "geometry": { "type": "LineString", "coordinates": [ [ 685837.667546640499495, 4514595.07645936217159 ], [ 685513.93121851561591, 4514601.127605682238936 ] ] } },
{ "type": "Feature", "properties": { }, "geometry": { "type": "LineString", "coordinates": [ [ 686808.87653101538308, 4515914.226357142440975 ], [ 686699.955897253705189, 4516001.967978783883154 ] ] } },
{ "type": "Feature", "properties": { }, "geometry": { "type": "LineString", "coordinates": [ [ 689559.122533497284167, 4513747.915974549017847 ], [ 689395.74158285476733, 4513696.481230827979743 ] ] } },
{ "type": "Feature", "properties": { }, "geometry": { "type": "LineString", "coordinates": [ [ 689317.076680693542585, 4513859.862181470729411 ], [ 689144.619010570924729, 4513841.708742510527372 ] ] } },
{ "type": "Feature", "properties": { }, "geometry": { "type": "LineString", "coordinates": [ [ 688950.982328327954747, 4514065.6011563539505 ], [ 688733.14106080471538, 4514062.575583193451166 ] ] } },
{ "type": "Feature", "properties": { }, "geometry": { "type": "LineString", "coordinates": [ [ 688354.944415798876435, 4514477.07910612039268 ], [ 687982.79891711322125, 4514604.153178841806948 ] ] } },
{ "type": "Feature", "properties": { }, "geometry": { "type": "LineString", "coordinates": [ [ 688155.256587235839106, 4514676.766934683546424 ], [ 687749.829783789697103, 4514837.122312165796757 ] ] } },
{ "type": "Feature", "properties": { }, "geometry": { "type": "LineString", "coordinates": [ [ 687928.338600232382305, 4514767.534129484556615 ], [ 687559.218674706760794, 4514946.042945927008986 ] ] } },
{ "type": "Feature", "properties": { }, "geometry": { "type": "LineString", "coordinates": [ [ 688003.977929233573377, 4514903.684921686537564 ], [ 687571.320967346895486, 4515097.321603929623961 ] ] } },
{ "type": "Feature", "properties": { }, "geometry": { "type": "LineString", "coordinates": [ [ 689843.526410541613586, 4513654.123206587508321 ], [ 689680.14545989909675, 4513605.714036026969552 ] ] } },
{ "type": "Feature", "properties": { }, "geometry": { "type": "LineString", "coordinates": [ [ 690487.973493631463498, 4512988.497111377306283 ], [ 690578.740688432822935, 4513064.13644037861377 ] ] } },
{ "type": "Feature", "properties": { }, "geometry": { "type": "LineString", "coordinates": [ [ 691295.801527363830246, 4512743.425685413181782 ], [ 691320.00611264409963, 4512873.525331296026707 ] ] } },
{ "type": "Feature", "properties": { }, "geometry": { "type": "LineString", "coordinates": [ [ 690848.01669967698399, 4513917.34807151183486 ], [ 690914.579309197957627, 4513917.34807151183486 ] ] } },
{ "type": "Feature", "properties": { }, "geometry": { "type": "LineString", "coordinates": [ [ 688028.182514513959177, 4514625.332190961576998 ], [ 687646.960296348086558, 4514791.738714763894677 ] ] } },
{ "type": "Feature", "properties": { }, "geometry": { "type": "LineString", "coordinates": [ [ 688587.913549122516997, 4514286.467997036874294 ], [ 688318.637537878355943, 4514389.337484478019178 ] ] } },
{ "type": "Feature", "properties": { }, "geometry": { "type": "LineString", "coordinates": [ [ 689516.764509256696329, 4515200.191091370768845 ], [ 689444.150753415538929, 4515139.679628169164062 ] ] } },
{ "type": "Feature", "properties": { }, "geometry": { "type": "LineString", "coordinates": [ [ 688058.438246114179492, 4514083.754595313221216 ], [ 687840.59697859082371, 4514101.908034273423254 ] ] } },
{ "type": "Feature", "properties": { }, "geometry": { "type": "LineString", "coordinates": [ [ 687253.635785541846417, 4515127.577335529029369 ], [ 687032.768944858456962, 4515324.239590932615101 ] ] } },
{ "type": "Feature", "properties": { }, "geometry": { "type": "LineString", "coordinates": [ [ 688354.944415798643604, 4515832.535881820134819 ], [ 687952.543185512535274, 4515944.482088741846383 ] ] } },
{ "type": "Feature", "properties": { }, "geometry": { "type": "LineString", "coordinates": [ [ 687898.082868631812744, 4517169.839218561537564 ], [ 687395.837724064127542, 4517436.089656645432115 ] ] } },
{ "type": "Feature", "properties": { }, "geometry": { "type": "LineString", "coordinates": [ [ 688212.742477276595309, 4516519.340989151969552 ], [ 687716.548479028977454, 4516812.821585675701499 ] ] } },
{ "type": "Feature", "properties": { }, "geometry": { "type": "LineString", "coordinates": [ [ 688333.765403678407893, 4516679.696366634219885 ], [ 687819.417966470587999, 4516879.384195197373629 ] ] } },
{ "type": "Feature", "properties": { }, "geometry": { "type": "LineString", "coordinates": [ [ 688252.074928357149474, 4516646.41506187338382 ], [ 687731.676344829262234, 4516894.512060997076333 ] ] } },
{ "type": "Feature", "properties": { }, "geometry": { "type": "LineString", "coordinates": [ [ 688125.000855635269545, 4516752.310122475028038 ], [ 687619.73013790755067, 4517012.509414238855243 ] ] } },
{ "type": "Feature", "properties": { }, "geometry": { "type": "LineString", "coordinates": [ [ 688466.890622720471583, 4516346.883319028653204 ], [ 688019.105795033625327, 4516507.23869651183486 ] ] } },
{ "type": "Feature", "properties": { }, "geometry": { "type": "LineString", "coordinates": [ [ 688805.754816645639949, 4516658.517354513518512 ], [ 688397.302440039347857, 4516752.310122475028038 ] ] } },
{ "type": "Feature", "properties": { }, "geometry": { "type": "LineString", "coordinates": [ [ 688820.882682445808314, 4516555.647867072373629 ], [ 688466.890622720471583, 4516619.184903433546424 ] ] } },
{ "type": "Feature", "properties": { }, "geometry": { "type": "LineString", "coordinates": [ [ 688584.887975962250493, 4516964.100243678316474 ], [ 688106.847416674951091, 4517163.788072241470218 ] ] } },
{ "type": "Feature", "properties": { }, "geometry": { "type": "LineString", "coordinates": [ [ 688376.123427919112146, 4516824.923878316767514 ], [ 687889.006149151595309, 4517048.816292160190642 ] ] } },
{ "type": "Feature", "properties": { }, "geometry": { "type": "LineString", "coordinates": [ [ 688475.967342200572602, 4516725.079964035190642 ], [ 688016.080221873591654, 4516915.691073117777705 ] ] } },
{ "type": "Feature", "properties": { }, "geometry": { "type": "LineString", "coordinates": [ [ 687898.082868631812744, 4517433.064083485864103 ], [ 687371.633138783741742, 4517687.212228929623961 ] ] } },
{ "type": "Feature", "properties": { }, "geometry": { "type": "LineString", "coordinates": [ [ 688312.586391558055766, 4517396.757205565460026 ], [ 687819.417966470587999, 4517696.288948410190642 ] ] } },
{ "type": "Feature", "properties": { }, "geometry": { "type": "LineString", "coordinates": [ [ 688666.578451283508912, 4517781.004996891133487 ], [ 688242.998208877048455, 4518056.332154455594718 ] ] } },
{ "type": "Feature", "properties": { }, "geometry": { "type": "LineString", "coordinates": [ [ 688312.586391558055766, 4519490.453832316212356 ], [ 688000.952356073306873, 4519762.755416721105576 ] ] } },
{ "type": "Feature", "properties": { }, "geometry": { "type": "LineString", "coordinates": [ [ 688421.507025319733657, 4519907.982928402721882 ], [ 688206.691330956527963, 4520153.054354366846383 ] ] } },
{ "type": "Feature", "properties": { }, "geometry": { "type": "LineString", "coordinates": [ [ 689199.079327451647259, 4519511.632844436913729 ], [ 689053.851815769448876, 4519789.985575160942972 ] ] } },
{ "type": "Feature", "properties": { }, "geometry": { "type": "LineString", "coordinates": [ [ 688950.982328327838331, 4519088.052602030336857 ], [ 688718.013195004314184, 4519381.533198555000126 ] ] } },
{ "type": "Feature", "properties": { }, "geometry": { "type": "LineString", "coordinates": [ [ 688932.828889367519878, 4518761.290700745768845 ], [ 688606.06698808260262, 4519030.566711989231408 ] ] } },
{ "type": "Feature", "properties": { }, "geometry": { "type": "LineString", "coordinates": [ [ 689229.335059052100405, 4518380.068482579663396 ], [ 688754.320072924834676, 4518655.395640144124627 ] ] } },
{ "type": "Feature", "properties": { }, "geometry": { "type": "LineString", "coordinates": [ [ 689371.536997574265115, 4518313.505873058922589 ], [ 688842.06169456616044, 4518634.216628023423254 ] ] } },
{ "type": "Feature", "properties": { }, "geometry": { "type": "LineString", "coordinates": [ [ 688981.238059928291477, 4518198.53409297671169 ], [ 688627.246000202954747, 4518389.145202060230076 ] ] } },
{ "type": "Feature", "properties": { }, "geometry": { "type": "LineString", "coordinates": [ [ 688832.984975086059421, 4518331.659312019124627 ], [ 688442.686037440085784, 4518537.398286902345717 ] ] } },
{ "type": "Feature", "properties": { }, "geometry": { "type": "LineString", "coordinates": [ [ 688947.956755167804658, 4517908.079069612547755 ], [ 688600.015841762535274, 4518131.971483455970883 ] ] } },
{ "type": "Feature", "properties": { }, "geometry": { "type": "LineString", "coordinates": [ [ 696409.826987352105789, 4517944.385947533883154 ], [ 696400.750267871888354, 4518068.434447095729411 ] ] } },
{ "type": "Feature", "properties": { }, "geometry": { "type": "LineString", "coordinates": [ [ 696331.162085190881044, 4518116.843617656268179 ], [ 696303.931926750461571, 4518286.275714619085193 ] ] } },
{ "type": "Feature", "properties": { }, "geometry": { "type": "LineString", "coordinates": [ [ 695952.965440185158513, 4517971.616105974651873 ], [ 696064.911647106870078, 4518295.352434099651873 ] ] } },
{ "type": "Feature", "properties": { }, "geometry": { "type": "LineString", "coordinates": [ [ 695232.87902809411753, 4518613.037615904584527 ], [ 695202.623296493664384, 4518915.594931908883154 ] ] } },
{ "type": "Feature", "properties": { }, "geometry": { "type": "LineString", "coordinates": [ [ 695305.492783935274929, 4518749.188408106565475 ], [ 695278.262625494855456, 4519106.206040991470218 ] ] } },
{ "type": "Feature", "properties": { }, "geometry": { "type": "LineString", "coordinates": [ [ 697781.924415433080867, 4514682.818081008270383 ], [ 697358.34417302662041, 4515172.960932935588062 ] ] } }
]
}
