{
"type": "FeatureCollection",
"name": "20210519_083338_100a_3B_AnalyticMS",
"crs": { "type": "name", "properties": { "name": "urn:ogc:def:crs:OGC:1.3:CRS84" } },
"features": [
{ "type": "Feature", "geometry": { "type": "LineString", "coordinates": [ [ 0.0, 0.0 ], [ 1.0, 1.0 ] ] } },
{ "type": "Feature", "properties": { }, "geometry": { "type": "LineString", "coordinates": [ [ 654131.69189524021931, 4504649.606279188767076 ], [ 654221.10399097984191, 4504513.349395522847772 ] ] } },
{ "type": "Feature", "properties": { }, "geometry": { "type": "LineString", "coordinates": [ [ 654060.344080527545884, 4504685.743484043516219 ], [ 654159.216798885841854, 4504516.989818587899208 ] ] } },
{ "type": "Feature", "properties": { }, "geometry": { "type": "LineString", "coordinates": [ [ 654163.196125113288872, 4504496.718104804866016 ], [ 654291.992829594411887, 4504320.665055514313281 ] ] } },
{ "type": "Feature", "properties": { }, "geometry": { "type": "LineString", "coordinates": [ [ 654184.50781002745498, 4504405.911795170977712 ], [ 654346.66193437424954, 4504185.382186058908701 ] ] } },
{ "type": "Feature", "properties": { }, "geometry": { "type": "LineString", "coordinates": [ [ 654245.663079781108536, 4504248.390645804814994 ], [ 654426.349104053224437, 4503994.5036168275401 ] ] } },
{ "type": "Feature", "properties": { }, "geometry": { "type": "LineString", "coordinates": [ [ 654275.314119661576115, 4504138.125841249711812 ], [ 654450.440573956118897, 4503831.422897485084832 ] ] } },
{ "type": "Feature", "properties": { }, "geometry": { "type": "LineString", "coordinates": [ [ 654418.009749086690135, 4503823.083542518317699 ], [ 654614.822246130439453, 4503527.509828192181885 ] ] } },
{ "type": "Feature", "properties": { }, "geometry": { "type": "LineString", "coordinates": [ [ 654351.294909355347045, 4503548.811423624865711 ], [ 654512.522438705782406, 4503229.599447410553694 ] ] } },
{ "type": "Feature", "properties": { }, "geometry": { "type": "LineString", "coordinates": [ [ 654355.001289340318181, 4503472.36733643244952 ], [ 654489.35756379913073, 4503158.251632697880268 ] ] } },
{ "type": "Feature", "properties": { }, "geometry": { "type": "LineString", "coordinates": [ [ 654351.294909355347045, 4503385.26740678306669 ], [ 654476.486169683979824, 4503057.375192449428141 ] ] } },
{ "type": "Feature", "properties": { }, "geometry": { "type": "LineString", "coordinates": [ [ 654355.001289340318181, 4503301.873857119120657 ], [ 654477.526290559442714, 4502989.7673355396837 ] ] } },
{ "type": "Feature", "properties": { }, "geometry": { "type": "LineString", "coordinates": [ [ 654315.157704500830732, 4502845.062523959204555 ], [ 654390.211899198475294, 4502537.432985198684037 ] ] } },
{ "type": "Feature", "properties": { }, "geometry": { "type": "LineString", "coordinates": [ [ 654336.46938941499684, 4503032.234713206067681 ], [ 654432.801092911278829, 4502734.937721033580601 ] ] } },
{ "type": "Feature", "properties": { }, "geometry": { "type": "LineString", "coordinates": [ [ 654136.910887579782866, 4502222.863177946768701 ], [ 654236.983147176564671, 4501872.610269356518984 ] ] } },
{ "type": "Feature", "properties": { }, "geometry": { "type": "LineString", "coordinates": [ [ 654174.31526506820228, 4502384.544810812920332 ], [ 654273.460929668741301, 4502031.512117234990001 ] ] } },
{ "type": "Feature", "properties": { }, "geometry": { "type": "LineString", "coordinates": [ [ 654220.872066640178673, 4502474.897016931325197 ], [ 654301.485831315396354, 4502118.157943367958069 ] ] } },
{ "type": "Feature", "properties": { }, "geometry": { "type": "LineString", "coordinates": [ [ 654254.929029743652791, 4502674.56904464494437 ], [ 654335.029730610782281, 4502361.534326716326177 ] ] } },
{ "type": "Feature", "properties": { }, "geometry": { "type": "LineString", "coordinates": [ [ 654138.178060213918798, 4501832.294193036854267 ], [ 654216.012039900408126, 4501484.821069436147809 ] ] } },
{ "type": "Feature", "properties": { }, "geometry": { "type": "LineString", "coordinates": [ [ 654141.884440199006349, 4501677.552828660234809 ], [ 654228.984369848156348, 4501331.006300056353211 ] ] } },
{ "type": "Feature", "properties": { }, "geometry": { "type": "LineString", "coordinates": [ [ 653812.016621527844109, 4501092.871386014856398 ], [ 653930.422710026847199, 4500732.705035627819598 ] ] } },
{ "type": "Feature", "properties": { }, "geometry": { "type": "LineString", "coordinates": [ [ 653891.703791206819005, 4501190.163860622793436 ], [ 653991.776050803717226, 4500817.672672123648226 ] ] } },
{ "type": "Feature", "properties": { }, "geometry": { "type": "LineString", "coordinates": [ [ 653769.393251699511893, 4501002.065076380968094 ], [ 653893.498418945237063, 4500647.935184272006154 ] ] } },
{ "type": "Feature", "properties": { }, "geometry": { "type": "LineString", "coordinates": [ [ 653615.578482319135219, 4500511.896323354914784 ], [ 653719.229416625224985, 4500125.176932994276285 ] ] } },
{ "type": "Feature", "properties": { }, "geometry": { "type": "LineString", "coordinates": [ [ 654056.637700542341918, 4501480.188094453886151 ], [ 654150.928335640812293, 4501115.469517826102674 ] ] } },
{ "type": "Feature", "properties": { }, "geometry": { "type": "LineString", "coordinates": [ [ 654301.258779556606896, 4505322.777543972246349 ], [ 654291.992829593946226, 4505218.072309394367039 ] ] } },
{ "type": "Feature", "properties": { }, "geometry": { "type": "LineString", "coordinates": [ [ 654382.799139228183776, 4505421.923208572901785 ], [ 654375.561940995859914, 4505341.805672883056104 ] ] } },
{ "type": "Feature", "properties": { }, "geometry": { "type": "LineString", "coordinates": [ [ 654567.191543485387228, 4505639.67303269635886 ], [ 654569.971328474231996, 4505572.031597968190908 ] ] } },
{ "type": "Feature", "properties": { }, "geometry": { "type": "LineString", "coordinates": [ [ 654508.81605872057844, 4505567.398622986860573 ], [ 654494.135720806312747, 4505493.1432602731511 ] ] } },
{ "type": "Feature", "properties": { }, "geometry": { "type": "LineString", "coordinates": [ [ 654134.471680228482001, 4505020.707575189881027 ], [ 654149.855711005977355, 4504909.635449101217091 ] ] } },
{ "type": "Feature", "properties": { }, "geometry": { "type": "LineString", "coordinates": [ [ 654096.48128538148012, 4504935.460835533216596 ], [ 654131.691895239637233, 4504807.590726047754288 ] ] } },
{ "type": "Feature", "properties": { }, "geometry": { "type": "LineString", "coordinates": [ [ 654262.341789713595062, 4505204.173384451307356 ], [ 654265.121574702323414, 4505099.468149873428047 ] ] } },
{ "type": "Feature", "properties": { }, "geometry": { "type": "LineString", "coordinates": [ [ 654286.433259616489522, 4505260.695679224096239 ], [ 654284.551364387036301, 4505136.381799967028201 ] ] } },
{ "type": "Feature", "properties": { }, "geometry": { "type": "LineString", "coordinates": [ [ 654611.668103306554258, 4505701.754897447302938 ], [ 654629.871495062834583, 4505642.400605911388993 ] ] } },
{ "type": "Feature", "properties": { }, "geometry": { "type": "LineString", "coordinates": [ [ 654787.721152597339824, 4505965.834471383132041 ], [ 654830.094763602362946, 4505905.551187420263886 ] ] } },
{ "type": "Feature", "properties": { }, "geometry": { "type": "LineString", "coordinates": [ [ 654725.639287847443484, 4505875.954756745137274 ], [ 654733.883582615875639, 4505796.858555927872658 ] ] } },
{ "type": "Feature", "properties": { }, "geometry": { "type": "LineString", "coordinates": [ [ 656185.026406968478113, 4503205.507977502420545 ], [ 656153.161021050997078, 4503087.538697837851942 ] ] } },
{ "type": "Feature", "properties": { }, "geometry": { "type": "LineString", "coordinates": [ [ 656179.466836990904994, 4503294.46109714359045 ], [ 656132.358603540225886, 4503157.746856936253607 ] ] } },
{ "type": "Feature", "properties": { }, "geometry": { "type": "LineString", "coordinates": [ [ 656110.898807267076336, 4503073.089237919077277 ], [ 656096.073287326842546, 4502969.310598337091506 ] ] } },
{ "type": "Feature", "properties": { }, "geometry": { "type": "LineString", "coordinates": [ [ 655968.203177841962315, 4503040.574068166315556 ], [ 655966.349987849360332, 4502946.061378546990454 ] ] } },
{ "type": "Feature", "properties": { }, "geometry": { "type": "LineString", "coordinates": [ [ 656062.715867461171001, 4503118.408047853037715 ], [ 656036.771207565674558, 4503020.188978248275816 ] ] } },
{ "type": "Feature", "properties": { }, "geometry": { "type": "LineString", "coordinates": [ [ 655684.665108984219842, 4502534.653200204484165 ], [ 655710.609768879716285, 4502447.553270556032658 ] ] } },
{ "type": "Feature", "properties": { }, "geometry": { "type": "LineString", "coordinates": [ [ 655678.178944010287523, 4501606.205013941973448 ], [ 655720.802313838619739, 4501516.325299303978682 ] ] } },
{ "type": "Feature", "properties": { }, "geometry": { "type": "LineString", "coordinates": [ [ 657032.669332255609334, 4505429.539819446392357 ], [ 656986.26533857092727, 4505358.967667330056429 ] ] } },
{ "type": "Feature", "properties": { }, "geometry": { "type": "LineString", "coordinates": [ [ 658194.990095573593862, 4505628.201786646619439 ], [ 658118.176881367457099, 4505559.450966089963913 ] ] } },
{ "type": "Feature", "properties": { }, "geometry": { "type": "LineString", "coordinates": [ [ 655547.893510236404836, 4502090.832728894427419 ], [ 655599.041554030380212, 4501988.536641306243837 ] ] } },
{ "type": "Feature", "properties": { }, "geometry": { "type": "LineString", "coordinates": [ [ 655561.977754179621115, 4502053.768929043784738 ], [ 655613.867073970614001, 4501966.298361396417022 ] ] } }
]
}
