{
"type": "FeatureCollection",
"name": "20210519_083340_100a_3B_AnalyticMS",
"crs": { "type": "name", "properties": { "name": "urn:ogc:def:crs:OGC:1.3:CRS84" } },
"features": [
{ "type": "Feature", "geometry": { "type": "LineString", "coordinates": [ [ 0.0, 0.0 ], [ 1.0, 1.0 ] ] } },
{ "type": "Feature", "properties": { }, "geometry": { "type": "LineString", "coordinates": [ [ 650028.621221019886434, 4489573.571810186840594 ], [ 650060.165899691288359, 4489352.759059486910701 ] ] } },
{ "type": "Feature", "properties": { }, "geometry": { "type": "LineString", "coordinates": [ [ 649041.723416873253882, 4488199.125096648931503 ], [ 649077.77447821199894, 4488113.503825969994068 ] ] } },
{ "type": "Feature", "properties": { }, "geometry": { "type": "LineString", "coordinates": [ [ 649528.412744945613667, 4487550.205992552451789 ], [ 649636.565928961616009, 4487554.712375219911337 ] ] } },
{ "type": "Feature", "properties": { }, "geometry": { "type": "LineString", "coordinates": [ [ 648631.642594145727344, 4487176.176231164485216 ], [ 648672.200038151699118, 4487194.201761833392084 ] ] } },
{ "type": "Feature", "properties": { }, "geometry": { "type": "LineString", "coordinates": [ [ 648748.80854349641595, 4486639.9166937507689 ], [ 648771.340456833131611, 4486648.929459085687995 ] ] } },
{ "type": "Feature", "properties": { }, "geometry": { "type": "LineString", "coordinates": [ [ 648784.859604835161008, 4488120.263399970717728 ], [ 648809.644709505490027, 4488068.439999296329916 ] ] } },
{ "type": "Feature", "properties": { }, "geometry": { "type": "LineString", "coordinates": [ [ 648368.019208106561564, 4488075.199573297053576 ], [ 648401.817078111576848, 4488021.12298128940165 ] ] } },
{ "type": "Feature", "properties": { }, "geometry": { "type": "LineString", "coordinates": [ [ 648591.085150139639154, 4487604.282584560103714 ], [ 648663.187272817012854, 4487565.978331888094544 ] ] } },
{ "type": "Feature", "properties": { }, "geometry": { "type": "LineString", "coordinates": [ [ 649395.474456259165891, 4488413.178273347206414 ], [ 649314.359568247105926, 4488350.088916004635394 ] ] } },
{ "type": "Feature", "properties": { }, "geometry": { "type": "LineString", "coordinates": [ [ 648951.595763526740484, 4488501.052735360339284 ], [ 649048.482990874443203, 4488467.254865354858339 ] ] } },
{ "type": "Feature", "properties": { }, "geometry": { "type": "LineString", "coordinates": [ [ 649201.700001563876867, 4488841.284626743756235 ], [ 649071.014904211158864, 4488615.965493377298117 ] ] } },
{ "type": "Feature", "properties": { }, "geometry": { "type": "LineString", "coordinates": [ [ 649731.199964975821786, 4487351.925155189819634 ], [ 649663.604224965791218, 4487277.569841179065406 ] ] } },
{ "type": "Feature", "properties": { }, "geometry": { "type": "LineString", "coordinates": [ [ 648816.404283506446518, 4486842.703913781791925 ], [ 648888.506406183820218, 4486772.854982438497245 ] ] } },
{ "type": "Feature", "properties": { }, "geometry": { "type": "LineString", "coordinates": [ [ 648331.968146767700091, 4486817.918809112161398 ], [ 648352.246868770802394, 4486811.159235110506415 ] ] } },
{ "type": "Feature", "properties": { }, "geometry": { "type": "LineString", "coordinates": [ [ 647944.419237377005629, 4488192.365522649139166 ], [ 647946.672428710618988, 4488140.542121974751353 ] ] } },
{ "type": "Feature", "properties": { }, "geometry": { "type": "LineString", "coordinates": [ [ 647322.538429284584709, 4488302.771897998638451 ], [ 647345.070342621183954, 4488291.505941330455244 ] ] } },
{ "type": "Feature", "properties": { }, "geometry": { "type": "LineString", "coordinates": [ [ 647437.451187301659957, 4488104.491060636006296 ], [ 647408.159699963987805, 4488129.276165306568146 ] ] } },
{ "type": "Feature", "properties": { }, "geometry": { "type": "LineString", "coordinates": [ [ 648176.497944744769484, 4488701.586764058098197 ], [ 648187.763901413185522, 4488688.067616055719554 ] ] } },
{ "type": "Feature", "properties": { }, "geometry": { "type": "LineString", "coordinates": [ [ 648548.274514799937606, 4489120.680352120660245 ], [ 648597.84472414071206, 4489032.805890107527375 ] ] } },
{ "type": "Feature", "properties": { }, "geometry": { "type": "LineString", "coordinates": [ [ 648645.16174214775674, 4489188.276092130690813 ], [ 648649.668124815099873, 4489059.84418611228466 ] ] } },
{ "type": "Feature", "properties": { }, "geometry": { "type": "LineString", "coordinates": [ [ 647804.721374689484946, 4489195.035666132345796 ], [ 647782.189461352769285, 4489131.946308789774776 ] ] } },
{ "type": "Feature", "properties": { }, "geometry": { "type": "LineString", "coordinates": [ [ 648431.108565449248999, 4488503.305926695466042 ], [ 648455.893670119578019, 4488530.344222700223327 ] ] } },
{ "type": "Feature", "properties": { }, "geometry": { "type": "LineString", "coordinates": [ [ 648338.727720768889412, 4488372.620829342864454 ], [ 648295.917085429187864, 4488334.316576670855284 ] ] } },
{ "type": "Feature", "properties": { }, "geometry": { "type": "LineString", "coordinates": [ [ 647978.217107381904498, 4488446.976143354550004 ], [ 647946.672428710618988, 4488471.761248024180532 ] ] } },
{ "type": "Feature", "properties": { }, "geometry": { "type": "LineString", "coordinates": [ [ 648453.64047878596466, 4488631.737832714803517 ], [ 648440.121330783935264, 4488606.952728044241667 ] ] } },
{ "type": "Feature", "properties": { }, "geometry": { "type": "LineString", "coordinates": [ [ 646750.227830532821827, 4488262.214453993365169 ], [ 646653.340603185119107, 4488332.063385336659849 ] ] } },
{ "type": "Feature", "properties": { }, "geometry": { "type": "LineString", "coordinates": [ [ 646986.812920568045229, 4487888.184692604467273 ], [ 646986.812920568045229, 4487888.184692604467273 ] ] } },
{ "type": "Feature", "properties": { }, "geometry": { "type": "LineString", "coordinates": [ [ 647543.35117998404894, 4487791.297465256415308 ], [ 647462.236291971988976, 4487827.348526595160365 ] ] } },
{ "type": "Feature", "properties": { }, "geometry": { "type": "LineString", "coordinates": [ [ 647432.944804634316824, 4489316.707998149096966 ], [ 647462.236291971988976, 4489305.442041480913758 ] ] } },
{ "type": "Feature", "properties": { }, "geometry": { "type": "LineString", "coordinates": [ [ 647417.172465298557654, 4489456.405860836617649 ], [ 647428.438421966973692, 4489406.835651496425271 ] ] } },
{ "type": "Feature", "properties": { }, "geometry": { "type": "LineString", "coordinates": [ [ 648958.355337527580559, 4489798.890943554230034 ], [ 649052.98937354166992, 4489620.888828194700181 ] ] } },
{ "type": "Feature", "properties": { }, "geometry": { "type": "LineString", "coordinates": [ [ 649584.742528287693858, 4490481.607917656190693 ], [ 649659.097842298680916, 4490249.529210289008915 ] ] } },
{ "type": "Feature", "properties": { }, "geometry": { "type": "LineString", "coordinates": [ [ 649305.346802912768908, 4490274.314314958639443 ], [ 649377.448925590142608, 4490094.059008265845478 ] ] } },
{ "type": "Feature", "properties": { }, "geometry": { "type": "LineString", "coordinates": [ [ 649388.714882258558646, 4489949.854762910865247 ], [ 649447.297856933902949, 4489735.801586212590337 ] ] } },
{ "type": "Feature", "properties": { }, "geometry": { "type": "LineString", "coordinates": [ [ 649269.295741574140266, 4489900.284553569741547 ], [ 649332.385098916827701, 4489674.965420203283429 ] ] } },
{ "type": "Feature", "properties": { }, "geometry": { "type": "LineString", "coordinates": [ [ 649825.834000990143977, 4490166.16113094240427 ], [ 649875.404210330802016, 4489868.739874898456037 ] ] } },
{ "type": "Feature", "properties": { }, "geometry": { "type": "LineString", "coordinates": [ [ 650175.078657708480023, 4490008.43773758597672 ], [ 650215.636101714568213, 4489679.471802870742977 ] ] } },
{ "type": "Feature", "properties": { }, "geometry": { "type": "LineString", "coordinates": [ [ 650253.940354386926629, 4490447.810047651641071 ], [ 650305.763755061314441, 4490150.388791607692838 ] ] } },
{ "type": "Feature", "properties": { }, "geometry": { "type": "LineString", "coordinates": [ [ 647379.99480829294771, 4487234.383673954755068 ], [ 647319.909706061822362, 4487223.868781064637005 ] ] } },
{ "type": "Feature", "properties": { }, "geometry": { "type": "LineString", "coordinates": [ [ 648369.896867550909519, 4487794.677252260968089 ], [ 648431.484097337932326, 4487761.630446033552289 ] ] } },
{ "type": "Feature", "properties": { }, "geometry": { "type": "LineString", "coordinates": [ [ 648563.671322246431373, 4487443.179404208436608 ], [ 648625.258552033337764, 4487467.213445100933313 ] ] } },
{ "type": "Feature", "properties": { }, "geometry": { "type": "LineString", "coordinates": [ [ 648526.118133351905271, 4487156.273041054606438 ], [ 648548.650046688620932, 4487195.328357504680753 ] ] } },
{ "type": "Feature", "properties": { }, "geometry": { "type": "LineString", "coordinates": [ [ 648339.854316435405053, 4486968.507096581161022 ], [ 648374.403250218369067, 4486998.549647697247565 ] ] } },
{ "type": "Feature", "properties": { }, "geometry": { "type": "LineString", "coordinates": [ [ 649763.871239313855767, 4488602.821877269074321 ], [ 649657.220182853518054, 4488452.609121690504253 ] ] } },
{ "type": "Feature", "properties": { }, "geometry": { "type": "LineString", "coordinates": [ [ 649831.466979323886335, 4488517.200606589205563 ], [ 649714.301029973197728, 4488377.50274390168488 ] ] } },
{ "type": "Feature", "properties": { }, "geometry": { "type": "LineString", "coordinates": [ [ 649708.292519750073552, 4488888.226112866774201 ], [ 649600.139335733954795, 4488766.553780848160386 ] ] } },
{ "type": "Feature", "properties": { }, "geometry": { "type": "LineString", "coordinates": [ [ 649493.488279273733497, 4488707.970806173980236 ], [ 649425.892539263702929, 4488622.349535495042801 ] ] } },
{ "type": "Feature", "properties": { }, "geometry": { "type": "LineString", "coordinates": [ [ 650492.403103866847232, 4490229.626020179130137 ], [ 650534.462675428600051, 4489909.672850797884166 ] ] } },
{ "type": "Feature", "properties": { }, "geometry": { "type": "LineString", "coordinates": [ [ 651386.168999554938637, 4493457.698137550614774 ], [ 651634.020046258578077, 4493293.966233971528709 ] ] } },
{ "type": "Feature", "properties": { }, "geometry": { "type": "LineString", "coordinates": [ [ 651229.947733753942885, 4493550.830046009272337 ], [ 651410.203040447435342, 4493436.668351770378649 ] ] } },
{ "type": "Feature", "properties": { }, "geometry": { "type": "LineString", "coordinates": [ [ 651724.14769960520789, 4493732.587480258196592 ], [ 651949.46683297213167, 4493610.9151482405141 ] ] } },
{ "type": "Feature", "properties": { }, "geometry": { "type": "LineString", "coordinates": [ [ 651513.849841796210967, 4494004.472567854449153 ], [ 651606.981750254519284, 4493675.50663313921541 ] ] } },
{ "type": "Feature", "properties": { }, "geometry": { "type": "LineString", "coordinates": [ [ 652545.060408838558942, 4493655.22791113704443 ], [ 652858.254004218499176, 4493492.998135111294687 ] ] } }
]
}
