{
"type": "FeatureCollection",
"name": "20181031_095925_103b_3B_AnalyticMS",
"crs": { "type": "name", "properties": { "name": "urn:ogc:def:crs:OGC:1.3:CRS84" } },
"features": [
{ "type": "Feature", "geometry": { "type": "LineString", "coordinates": [ [ 0.0, 0.0 ], [ 1.0, 1.0 ] ] } },
{ "type": "Feature", "properties": { }, "geometry": { "type": "LineString", "coordinates": [ [ 799230.648851875914261, 608770.561368046444841 ], [ 799481.691219275584444, 608908.521587968803942 ] ] } },
{ "type": "Feature", "properties": { }, "geometry": { "type": "LineString", "coordinates": [ [ 799355.039214100921527, 608374.77385187568143 ], [ 799606.081581500708126, 608517.257357697119005 ] ] } },
{ "type": "Feature", "properties": { }, "geometry": { "type": "LineString", "coordinates": [ [ 799244.218709573149681, 608557.966930789058097 ], [ 799467.555950840935111, 608691.403864812222309 ] ] } },
{ "type": "Feature", "properties": { }, "geometry": { "type": "LineString", "coordinates": [ [ 799243.653298835852183, 608473.155320180929266 ], [ 799470.948415265302174, 608594.1532179818023 ] ] } },
{ "type": "Feature", "properties": { }, "geometry": { "type": "LineString", "coordinates": [ [ 799178.065653298981488, 608602.06896830513142 ], [ 799407.622412677970715, 608740.029188227606937 ] ] } },
{ "type": "Feature", "properties": { }, "geometry": { "type": "LineString", "coordinates": [ [ 798841.080853816354647, 608571.536788486293517 ], [ 799046.890362225123681, 608691.403864812338725 ] ] } },
{ "type": "Feature", "properties": { }, "geometry": { "type": "LineString", "coordinates": [ [ 798809.417852522688918, 608597.545682406052947 ], [ 799003.919146183761768, 608699.319615135667846 ] ] } },
{ "type": "Feature", "properties": { }, "geometry": { "type": "LineString", "coordinates": [ [ 799337.511481242021546, 608923.222267140867189 ], [ 799568.199062095838599, 609063.444130012881942 ] ] } },
{ "type": "Feature", "properties": { }, "geometry": { "type": "LineString", "coordinates": [ [ 799287.755336352041923, 608959.408554333727807 ], [ 799512.788809831952676, 609091.714666882180609 ] ] } },
{ "type": "Feature", "properties": { }, "geometry": { "type": "LineString", "coordinates": [ [ 799311.502587322262116, 609121.116025226307102 ], [ 799556.890847348142415, 609265.861173997400329 ] ] } },
{ "type": "Feature", "properties": { }, "geometry": { "type": "LineString", "coordinates": [ [ 799487.910737386904657, 608213.06638098298572 ], [ 799706.159282018314116, 608341.980029107187875 ] ] } },
{ "type": "Feature", "properties": { }, "geometry": { "type": "LineString", "coordinates": [ [ 799293.409443725831807, 608213.06638098298572 ], [ 799496.957309185178019, 608293.354705691919662 ] ] } },
{ "type": "Feature", "properties": { }, "geometry": { "type": "LineString", "coordinates": [ [ 798594.561772315646522, 608825.971620310330763 ], [ 798824.118531694752164, 608946.969518111087382 ] ] } },
{ "type": "Feature", "properties": { }, "geometry": { "type": "LineString", "coordinates": [ [ 798631.878880983218551, 608745.683295601396821 ], [ 798844.473318240605295, 608842.933942431933247 ] ] } },
{ "type": "Feature", "properties": { }, "geometry": { "type": "LineString", "coordinates": [ [ 798423.807729624793865, 608814.66340556263458 ], [ 798647.710381629993208, 608934.530481888679788 ] ] } },
{ "type": "Feature", "properties": { }, "geometry": { "type": "LineString", "coordinates": [ [ 798669.195989650674164, 608721.936044631176628 ], [ 798890.836998706334271, 608820.317512936424464 ] ] } },
{ "type": "Feature", "properties": { }, "geometry": { "type": "LineString", "coordinates": [ [ 797761.146345407352783, 608591.891575032146648 ], [ 798160.326326002483256, 608801.093547865282744 ] ] } },
{ "type": "Feature", "properties": { }, "geometry": { "type": "LineString", "coordinates": [ [ 797914.938065976602957, 608646.17100582132116 ], [ 798298.286545924842358, 608831.625727684237063 ] ] } },
{ "type": "Feature", "properties": { }, "geometry": { "type": "LineString", "coordinates": [ [ 798016.711998706217855, 608717.412758732098155 ], [ 798396.668014230206609, 608890.428444372490048 ] ] } },
{ "type": "Feature", "properties": { }, "geometry": { "type": "LineString", "coordinates": [ [ 798115.093467011582106, 608806.747655239189044 ], [ 798481.479624838219024, 608974.109233505674638 ] ] } },
{ "type": "Feature", "properties": { }, "geometry": { "type": "LineString", "coordinates": [ [ 798207.820827943040058, 608844.064763906761073 ], [ 798557.244663648074493, 609006.903056274168193 ] ] } },
{ "type": "Feature", "properties": { }, "geometry": { "type": "LineString", "coordinates": [ [ 797645.802554980386049, 608567.013502587098628 ], [ 798038.197606726898812, 608771.692189521156251 ] ] } },
{ "type": "Feature", "properties": { }, "geometry": { "type": "LineString", "coordinates": [ [ 797087.176746442331932, 608016.303444372373633 ], [ 797473.917690814938396, 608261.691704398253933 ] ] } },
{ "type": "Feature", "properties": { }, "geometry": { "type": "LineString", "coordinates": [ [ 796967.309670116286725, 608009.518515523755923 ], [ 797322.387613195227459, 608233.421167528955266 ] ] } },
{ "type": "Feature", "properties": { }, "geometry": { "type": "LineString", "coordinates": [ [ 796825.956985769560561, 607965.416478007566184 ], [ 797179.904107373673469, 608199.4965232857503 ] ] } },
{ "type": "Feature", "properties": { }, "geometry": { "type": "LineString", "coordinates": [ [ 796693.650873220991343, 608015.172622897662222 ], [ 797046.467173350392841, 608250.383489650557749 ] ] } },
{ "type": "Feature", "properties": { }, "geometry": { "type": "LineString", "coordinates": [ [ 796612.231727037345991, 608006.12605109938886 ], [ 796940.169954721699469, 608237.944453428033739 ] ] } },
{ "type": "Feature", "properties": { }, "geometry": { "type": "LineString", "coordinates": [ [ 796954.870633893762715, 608329.54099288478028 ], [ 797333.695827942923643, 608555.70528783951886 ] ] } },
{ "type": "Feature", "properties": { }, "geometry": { "type": "LineString", "coordinates": [ [ 796545.513260025647469, 607994.817836351692677 ], [ 796857.61998706322629, 608211.935559508274309 ] ] } },
{ "type": "Feature", "properties": { }, "geometry": { "type": "LineString", "coordinates": [ [ 796468.61739974108059, 608078.498625484993681 ], [ 796806.733020698418841, 608327.279349935124628 ] ] } },
{ "type": "Feature", "properties": { }, "geometry": { "type": "LineString", "coordinates": [ [ 797510.103978007566184, 608563.621038163080812 ], [ 797877.620957309030928, 608776.215475420467556 ] ] } },
{ "type": "Feature", "properties": { }, "geometry": { "type": "LineString", "coordinates": [ [ 797434.338939197710715, 608468.632034282083623 ], [ 797814.294954721699469, 608688.011400388204493 ] ] } },
{ "type": "Feature", "properties": { }, "geometry": { "type": "LineString", "coordinates": [ [ 797254.538324708701111, 608375.904673350625671 ], [ 797646.933376455213875, 608606.592254204442725 ] ] } },
{ "type": "Feature", "properties": { }, "geometry": { "type": "LineString", "coordinates": [ [ 797161.81096377724316, 608384.951245148782618 ], [ 797550.813551099505275, 608603.199789780075662 ] ] } },
{ "type": "Feature", "properties": { }, "geometry": { "type": "LineString", "coordinates": [ [ 797238.706824061926454, 608426.791639715433121 ], [ 797599.438874514773488, 608631.470326649490744 ] ] } },
{ "type": "Feature", "properties": { }, "geometry": { "type": "LineString", "coordinates": [ [ 797288.462968951906078, 608458.45464100909885 ], [ 797651.456662354292348, 608659.740863518789411 ] ] } },
{ "type": "Feature", "properties": { }, "geometry": { "type": "LineString", "coordinates": [ [ 795958.616914618061855, 607924.706904915627092 ], [ 796332.91882276814431, 608216.458845407236367 ] ] } },
{ "type": "Feature", "properties": { }, "geometry": { "type": "LineString", "coordinates": [ [ 796137.286707632243633, 608015.172622897545807 ], [ 796505.934508408536203, 608292.223884217091836 ] ] } },
{ "type": "Feature", "properties": { }, "geometry": { "type": "LineString", "coordinates": [ [ 796287.68596377724316, 608106.769162354175933 ], [ 796647.287192755262367, 608360.073172703501768 ] ] } },
{ "type": "Feature", "properties": { }, "geometry": { "type": "LineString", "coordinates": [ [ 795667.995795601163991, 607449.761885510757565 ], [ 795984.625808537821285, 607704.196717334911227 ] ] } },
{ "type": "Feature", "properties": { }, "geometry": { "type": "LineString", "coordinates": [ [ 795807.086836998350918, 607712.112467658240348 ], [ 796132.76342173316516, 607985.77126455353573 ] ] } },
{ "type": "Feature", "properties": { }, "geometry": { "type": "LineString", "coordinates": [ [ 795715.490297541720793, 607726.813146830303594 ], [ 796043.428525226074271, 607993.687014876981266 ] ] } },
{ "type": "Feature", "properties": { }, "geometry": { "type": "LineString", "coordinates": [ [ 796734.025388097856194, 608328.703347347560339 ], [ 797110.630821474362165, 608561.903864811989479 ] ] } },
{ "type": "Feature", "properties": { }, "geometry": { "type": "LineString", "coordinates": [ [ 799230.879204398137517, 609191.813308537472039 ], [ 799450.677393272635527, 609336.558457308565266 ] ] } },
{ "type": "Feature", "properties": { }, "geometry": { "type": "LineString", "coordinates": [ [ 799170.568725743563846, 609311.094032987719402 ], [ 799378.304818887147121, 609479.963373220525682 ] ] } },
{ "type": "Feature", "properties": { }, "geometry": { "type": "LineString", "coordinates": [ [ 800383.211416558828205, 608059.316542690386996 ], [ 800655.546733505791053, 608219.072299482068047 ] ] } },
{ "type": "Feature", "properties": { }, "geometry": { "type": "LineString", "coordinates": [ [ 800589.071183699881658, 607934.942933375947177 ], [ 800873.200549805886112, 608063.605287839076482 ] ] } },
{ "type": "Feature", "properties": { }, "geometry": { "type": "LineString", "coordinates": [ [ 799661.630045278114267, 607951.0257276839111 ], [ 799942.542852522688918, 608076.471523285377771 ] ] } },
{ "type": "Feature", "properties": { }, "geometry": { "type": "LineString", "coordinates": [ [ 800149.474805950885639, 608193.339828589465469 ], [ 800435.748544631293043, 608357.384330529952422 ] ] } },
{ "type": "Feature", "properties": { }, "geometry": { "type": "LineString", "coordinates": [ [ 799986.502490297541954, 608406.704899740754627 ], [ 800288.859023285913281, 608569.677215394098312 ] ] } },
{ "type": "Feature", "properties": { }, "geometry": { "type": "LineString", "coordinates": [ [ 799773.137419146019965, 608140.802700517117046 ], [ 800016.523706338834018, 608285.547849288093857 ] ] } },
{ "type": "Feature", "properties": { }, "geometry": { "type": "LineString", "coordinates": [ [ 799652.197921439190395, 607841.621820189291611 ], [ 799926.619531266856939, 607982.990528282360174 ] ] } },
{ "type": "Feature", "properties": { }, "geometry": { "type": "LineString", "coordinates": [ [ 807133.160187581088394, 607577.904899741173722 ], [ 807439.090674860053696, 607765.180104570812546 ] ] } },
{ "type": "Feature", "properties": { }, "geometry": { "type": "LineString", "coordinates": [ [ 806991.631597671541385, 607577.904899741173722 ], [ 807230.37174428650178, 607736.58847024559509 ] ] } },
{ "type": "Feature", "properties": { }, "geometry": { "type": "LineString", "coordinates": [ [ 807536.302231565467082, 607786.623830314609222 ], [ 807739.302835274022073, 607981.04694372555241 ] ] } },
{ "type": "Feature", "properties": { }, "geometry": { "type": "LineString", "coordinates": [ [ 807594.915081931976601, 607826.652118369820528 ], [ 807769.324051315314136, 608036.800630659563467 ] ] } },
{ "type": "Feature", "properties": { }, "geometry": { "type": "LineString", "coordinates": [ [ 807440.520256576244719, 607689.412273609195836 ], [ 807619.217971108388156, 607818.07462807232514 ] ] } },
{ "type": "Feature", "properties": { }, "geometry": { "type": "LineString", "coordinates": [ [ 807401.921550237340853, 607646.524822121486068 ], [ 807604.922153945779428, 607760.891359422006644 ] ] } },
{ "type": "Feature", "properties": { }, "geometry": { "type": "LineString", "coordinates": [ [ 807334.73120957321953, 607589.341553471167572 ], [ 807537.731813281774521, 607702.278509055497125 ] ] } },
{ "type": "Feature", "properties": { }, "geometry": { "type": "LineString", "coordinates": [ [ 807253.245051746605895, 607593.630298619973473 ], [ 807499.133106942754239, 607703.708090771688148 ] ] } },
{ "type": "Feature", "properties": { }, "geometry": { "type": "LineString", "coordinates": [ [ 807697.844965502736159, 607883.835387020255439 ], [ 807875.113098318572156, 608111.138879905105568 ] ] } },
{ "type": "Feature", "properties": { }, "geometry": { "type": "LineString", "coordinates": [ [ 807782.190286761848256, 607943.877819103072397 ], [ 807955.169674428994767, 608136.871350797708146 ] ] } },
{ "type": "Feature", "properties": { }, "geometry": { "type": "LineString", "coordinates": [ [ 808571.319394135731272, 607823.792954937438481 ], [ 808701.4113303150516, 607969.610289995674975 ] ] } },
{ "type": "Feature", "properties": { }, "geometry": { "type": "LineString", "coordinates": [ [ 808455.523275118903257, 607899.56078589905519 ], [ 808585.615211298223585, 608038.230212375987321 ] ] } },
{ "type": "Feature", "properties": { }, "geometry": { "type": "LineString", "coordinates": [ [ 807960.888001293991692, 608018.216068348381668 ], [ 808142.444879258633591, 608214.068763475632295 ] ] } },
{ "type": "Feature", "properties": { }, "geometry": { "type": "LineString", "coordinates": [ [ 808062.38830314821098, 608049.666866106097586 ], [ 808253.952253126655705, 608245.519561233231798 ] ] } },
{ "type": "Feature", "properties": { }, "geometry": { "type": "LineString", "coordinates": [ [ 808252.522671410348266, 608115.42762505391147 ], [ 808476.967000862699933, 608349.879026520065963 ] ] } },
{ "type": "Feature", "properties": { }, "geometry": { "type": "LineString", "coordinates": [ [ 808334.008829237078317, 608148.308004527818412 ], [ 808564.171485554426908, 608394.196059723966755 ] ] } },
{ "type": "Feature", "properties": { }, "geometry": { "type": "LineString", "coordinates": [ [ 808455.523275118903257, 608201.202528029098175 ], [ 808664.242205692455173, 608452.808910090359859 ] ] } },
{ "type": "Feature", "properties": { }, "geometry": { "type": "LineString", "coordinates": [ [ 808539.86859637813177, 608235.512489219312556 ], [ 808712.847984045161866, 608484.259707847959362 ] ] } },
{ "type": "Feature", "properties": { }, "geometry": { "type": "LineString", "coordinates": [ [ 808644.22806166484952, 608292.695757869514637 ], [ 808801.482050453079864, 608541.442976498277858 ] ] } },
{ "type": "Feature", "properties": { }, "geometry": { "type": "LineString", "coordinates": [ [ 809176.032460112473927, 608601.485408581094816 ], [ 809327.568122035707347, 608823.070574600831605 ] ] } },
{ "type": "Feature", "properties": { }, "geometry": { "type": "LineString", "coordinates": [ [ 809267.525689952890389, 608654.379932082607411 ], [ 809413.343025011126883, 608835.93681004724931 ] ] } },
{ "type": "Feature", "properties": { }, "geometry": { "type": "LineString", "coordinates": [ [ 809028.785543337929994, 608557.168375377077609 ], [ 809207.48325787007343, 608777.323959680623375 ] ] } },
{ "type": "Feature", "properties": { }, "geometry": { "type": "LineString", "coordinates": [ [ 808760.024180681677535, 608412.780622035148554 ], [ 808963.02478439011611, 608651.520768650108948 ] ] } },
{ "type": "Feature", "properties": { }, "geometry": { "type": "LineString", "coordinates": [ [ 808822.925776196992956, 608434.22434777894523 ], [ 809004.482654161634855, 608677.253239542711526 ] ] } },
{ "type": "Feature", "properties": { }, "geometry": { "type": "LineString", "coordinates": [ [ 808931.573986632516608, 608492.837198145571165 ], [ 809111.701282880851068, 608728.718181327916682 ] ] } },
{ "type": "Feature", "properties": { }, "geometry": { "type": "LineString", "coordinates": [ [ 806858.68049805983901, 606974.621415480738506 ], [ 807077.406500647193752, 607171.903692324180156 ] ] } },
{ "type": "Feature", "properties": { }, "geometry": { "type": "LineString", "coordinates": [ [ 806981.62452565797139, 607200.495326649281196 ], [ 807180.336384217720479, 607403.495930357836187 ] ] } },
{ "type": "Feature", "properties": { }, "geometry": { "type": "LineString", "coordinates": [ [ 806738.595633894321509, 606524.303174859727733 ], [ 806971.617453644168563, 606688.705072229262441 ] ] } },
{ "type": "Feature", "properties": { }, "geometry": { "type": "LineString", "coordinates": [ [ 806710.003999569104053, 606469.979069642024115 ], [ 806965.899126779171638, 606637.240130444057286 ] ] } },
{ "type": "Feature", "properties": { }, "geometry": { "type": "LineString", "coordinates": [ [ 806804.356392842135392, 606801.642027813591994 ], [ 807011.645741699379869, 606931.733963993028738 ] ] } },
{ "type": "Feature", "properties": { }, "geometry": { "type": "LineString", "coordinates": [ [ 806305.432373868301511, 605800.934826433775015 ], [ 806587.059971970855258, 605926.738017464405857 ] ] } },
{ "type": "Feature", "properties": { }, "geometry": { "type": "LineString", "coordinates": [ [ 806213.93914402788505, 605683.709125700639561 ], [ 806508.432977576740086, 605805.223571582464501 ] ] } },
{ "type": "Feature", "properties": { }, "geometry": { "type": "LineString", "coordinates": [ [ 799547.656355790561065, 607827.366152146365494 ], [ 799811.386214585974813, 607935.471634805668145 ] ] } },
{ "type": "Feature", "properties": { }, "geometry": { "type": "LineString", "coordinates": [ [ 799465.68626454344485, 607800.04278839728795 ], [ 799732.980040349531919, 607903.396381709026173 ] ] } },
{ "type": "Feature", "properties": { }, "geometry": { "type": "LineString", "coordinates": [ [ 799380.152256285422482, 607754.899839594494551 ], [ 799622.498613016330637, 607839.245875515509397 ] ] } },
{ "type": "Feature", "properties": { }, "geometry": { "type": "LineString", "coordinates": [ [ 799582.107553561218083, 607947.351358174812049 ], [ 799851.777274041087367, 608080.40425990941003 ] ] } },
{ "type": "Feature", "properties": { }, "geometry": { "type": "LineString", "coordinates": [ [ 799463.31031986954622, 608053.080896160448901 ], [ 799710.40856594813522, 608167.126240504323505 ] ] } },
{ "type": "Feature", "properties": { }, "geometry": { "type": "LineString", "coordinates": [ [ 799153.249539934447967, 608559.157111686654389 ], [ 799371.836449927068315, 608691.022041084361263 ] ] } },
{ "type": "Feature", "properties": { }, "geometry": { "type": "LineString", "coordinates": [ [ 799033.264333906001411, 608713.593515485757962 ], [ 799241.159492866252549, 608849.022361894254573 ] ] } },
{ "type": "Feature", "properties": { }, "geometry": { "type": "LineString", "coordinates": [ [ 798946.542353311087936, 608751.608630267088301 ], [ 799171.069124988163821, 608875.157753306324594 ] ] } },
{ "type": "Feature", "properties": { }, "geometry": { "type": "LineString", "coordinates": [ [ 798935.85060227883514, 608788.435772711527534 ], [ 799128.302120859269053, 608888.22544901247602 ] ] } },
{ "type": "Feature", "properties": { }, "geometry": { "type": "LineString", "coordinates": [ [ 797953.397479649400339, 608907.233006402966566 ], [ 798325.232821104116738, 609085.428856940357946 ] ] } },
{ "type": "Feature", "properties": { }, "geometry": { "type": "LineString", "coordinates": [ [ 797789.457297155051492, 608844.270472546457313 ], [ 798160.104666272876784, 609031.970101779093966 ] ] } },
{ "type": "Feature", "properties": { }, "geometry": { "type": "LineString", "coordinates": [ [ 797544.734995750361122, 608834.766693851095624 ], [ 797897.562779814354144, 609043.849825148354284 ] ] } },
{ "type": "Feature", "properties": { }, "geometry": { "type": "LineString", "coordinates": [ [ 797494.840157599886879, 608714.781487822532654 ], [ 797848.855914000771008, 608930.992453141254373 ] ] } },
{ "type": "Feature", "properties": { }, "geometry": { "type": "LineString", "coordinates": [ [ 797930.826005248003639, 609112.75222068966832 ], [ 798312.165125397965312, 609298.075905248522758 ] ] } },
{ "type": "Feature", "properties": { }, "geometry": { "type": "LineString", "coordinates": [ [ 798044.871349591878243, 609106.812359005096368 ], [ 798407.202912351232953, 609273.128486173343845 ] ] } },
{ "type": "Feature", "properties": { }, "geometry": { "type": "LineString", "coordinates": [ [ 796782.056755450204946, 608411.848541909013875 ], [ 797137.260484188096598, 608632.811396575300023 ] ] } },
{ "type": "Feature", "properties": { }, "geometry": { "type": "LineString", "coordinates": [ [ 797139.636428861878812, 608491.442688482347876 ], [ 797503.155963958241045, 608689.83406874735374 ] ] } },
{ "type": "Feature", "properties": { }, "geometry": { "type": "LineString", "coordinates": [ [ 797102.809286417555995, 608455.803518374916166 ], [ 797449.697208796977066, 608669.638539019739255 ] ] } },
{ "type": "Feature", "properties": { }, "geometry": { "type": "LineString", "coordinates": [ [ 796923.425463543157093, 608433.232043973519467 ], [ 797282.193109291838482, 608642.315175270661712 ] ] } },
{ "type": "Feature", "properties": { }, "geometry": { "type": "LineString", "coordinates": [ [ 796884.222376424935646, 608429.66812696272973 ], [ 797232.298271141364239, 608643.503147607552819 ] ] } },
{ "type": "Feature", "properties": { }, "geometry": { "type": "LineString", "coordinates": [ [ 796233.213535794988275, 608192.073659579386003 ], [ 796564.65781779459212, 608418.976375930360518 ] ] } },
{ "type": "Feature", "properties": { }, "geometry": { "type": "LineString", "coordinates": [ [ 796289.048235630034469, 608217.021078654681332 ], [ 796637.124130346463062, 608462.93135239626281 ] ] } },
{ "type": "Feature", "properties": { }, "geometry": { "type": "LineString", "coordinates": [ [ 796132.235887157148682, 608218.20905099157244 ], [ 796485.063671221141703, 608421.352320604259148 ] ] } },
{ "type": "Feature", "properties": { }, "geometry": { "type": "LineString", "coordinates": [ [ 796286.672290956135839, 608340.570201693917625 ], [ 796633.560213335673325, 608550.841305328067392 ] ] } },
{ "type": "Feature", "properties": { }, "geometry": { "type": "LineString", "coordinates": [ [ 796363.890492855687626, 608233.65269137150608 ], [ 796729.785972625832073, 608495.006605493021198 ] ] } },
{ "type": "Feature", "properties": { }, "geometry": { "type": "LineString", "coordinates": [ [ 796432.792888396885246, 608260.976055120583624 ], [ 796803.440257514710538, 608519.954024568200111 ] ] } },
{ "type": "Feature", "properties": { }, "geometry": { "type": "LineString", "coordinates": [ [ 796567.033762468374334, 608309.682920934050344 ], [ 796944.808965607662685, 608561.533056360320188 ] ] } },
{ "type": "Feature", "properties": { }, "geometry": { "type": "LineString", "coordinates": [ [ 796529.018647687043995, 608296.615225228015333 ], [ 796887.786293435725383, 608553.217250001849607 ] ] } },
{ "type": "Feature", "properties": { }, "geometry": { "type": "LineString", "coordinates": [ [ 795955.228008956648409, 608006.749975020531565 ], [ 796312.807682368322276, 608263.351999794365838 ] ] } },
{ "type": "Feature", "properties": { }, "geometry": { "type": "LineString", "coordinates": [ [ 795799.603632820653729, 608018.629698389675468 ], [ 796140.551693515502848, 608287.111446532653645 ] ] } },
{ "type": "Feature", "properties": { }, "geometry": { "type": "LineString", "coordinates": [ [ 795521.618105982313864, 607412.76380656240508 ], [ 795825.739024232840165, 607656.298135630204342 ] ] } },
{ "type": "Feature", "properties": { }, "geometry": { "type": "LineString", "coordinates": [ [ 795482.415018864092417, 607321.28993661981076 ], [ 795782.972020103828982, 607587.395740089006722 ] ] } },
{ "type": "Feature", "properties": { }, "geometry": { "type": "LineString", "coordinates": [ [ 795476.475157179520465, 607365.244913085713051 ], [ 795777.03215841925703, 607602.839380468940362 ] ] } },
{ "type": "Feature", "properties": { }, "geometry": { "type": "LineString", "coordinates": [ [ 795608.340086577110924, 607466.222561723552644 ], [ 795913.648977164528333, 607703.817029106779955 ] ] } },
{ "type": "Feature", "properties": { }, "geometry": { "type": "LineString", "coordinates": [ [ 795458.655572125688195, 607531.561040253960527 ], [ 795754.460684017860331, 607772.719424647977576 ] ] } },
{ "type": "Feature", "properties": { }, "geometry": { "type": "LineString", "coordinates": [ [ 795470.535295494948514, 607152.597864777781069 ], [ 795714.069624562631361, 607384.252470476436429 ] ] } },
{ "type": "Feature", "properties": { }, "geometry": { "type": "LineString", "coordinates": [ [ 795408.760733975213952, 607154.973809451563284 ], [ 795670.11464809672907, 607391.380304497899488 ] ] } },
{ "type": "Feature", "properties": { }, "geometry": { "type": "LineString", "coordinates": [ [ 795356.489951150957495, 607208.432564612827264 ], [ 795643.979256684659049, 607447.215004332945682 ] ] } },
{ "type": "Feature", "properties": { }, "geometry": { "type": "LineString", "coordinates": [ [ 795371.933591530891135, 607064.687911845976487 ], [ 795636.851422663079575, 607299.906434555305168 ] ] } },
{ "type": "Feature", "properties": { }, "geometry": { "type": "LineString", "coordinates": [ [ 795411.136678649112582, 607339.109521673526615 ], [ 795714.069624562631361, 607573.140072046080604 ] ] } },
{ "type": "Feature", "properties": { }, "geometry": { "type": "LineString", "coordinates": [ [ 795209.181381373433396, 607314.162102598347701 ], [ 795499.046631580917165, 607530.37306791706942 ] ] } },
{ "type": "Feature", "properties": { }, "geometry": { "type": "LineString", "coordinates": [ [ 795673.678565107518807, 607645.606384597835131 ], [ 795977.799483358045109, 607904.584354045568034 ] ] } },
{ "type": "Feature", "properties": { }, "geometry": { "type": "LineString", "coordinates": [ [ 795124.241359283798374, 607130.917369629256427 ], [ 795409.354720143601298, 607350.692251958767883 ] ] } },
{ "type": "Feature", "properties": { }, "geometry": { "type": "LineString", "coordinates": [ [ 800072.146142539917491, 606281.517148734303191 ], [ 800259.84577177267056, 606466.840833293274045 ] ] } },
{ "type": "Feature", "properties": { }, "geometry": { "type": "LineString", "coordinates": [ [ 800149.364344439469278, 606300.524706125026569 ], [ 800344.191807693685405, 606487.03636302088853 ] ] } },
{ "type": "Feature", "properties": { }, "geometry": { "type": "LineString", "coordinates": [ [ 800189.755403894581832, 606308.840512483380735 ], [ 800401.214479865622707, 606488.224335357779637 ] ] } },
{ "type": "Feature", "properties": { }, "geometry": { "type": "LineString", "coordinates": [ [ 800363.199365084408782, 606332.599959221784957 ], [ 800555.65088366472628, 606466.840833293274045 ] ] } },
{ "type": "Feature", "properties": { }, "geometry": { "type": "LineString", "coordinates": [ [ 800392.898673507268541, 606333.787931558676064 ], [ 800605.545721815200523, 606453.773137587239034 ] ] } },
{ "type": "Feature", "properties": { }, "geometry": { "type": "LineString", "coordinates": [ [ 800025.963717942358926, 606262.80658442794811 ], [ 800210.396423248574138, 606457.931040766416118 ] ] } },
{ "type": "Feature", "properties": { }, "geometry": { "type": "LineString", "coordinates": [ [ 800254.054406630340964, 606162.125928874127567 ], [ 800495.318908002926037, 606291.16742445458658 ] ] } },
{ "type": "Feature", "properties": { }, "geometry": { "type": "LineString", "coordinates": [ [ 806629.010959607665427, 606383.979762793402188 ], [ 806924.816071499837562, 606538.41616659250576 ] ] } },
{ "type": "Feature", "properties": { }, "geometry": { "type": "LineString", "coordinates": [ [ 806758.499944331473671, 606728.491740499157459 ], [ 806934.319850195082836, 606778.386578649631701 ] ] } },
{ "type": "Feature", "properties": { }, "geometry": { "type": "LineString", "coordinates": [ [ 806455.566998417838477, 606243.799027037224732 ], [ 806611.191374553833157, 606246.174971711123362 ] ] } },
{ "type": "Feature", "properties": { }, "geometry": { "type": "LineString", "coordinates": [ [ 805961.370506260660477, 605447.857561303302646 ], [ 806269.055341521976516, 605515.571984507492743 ] ] } }
]
}
