{
"type": "FeatureCollection",
"name": "20181031_095926_103b_3B_AnalyticMS",
"crs": { "type": "name", "properties": { "name": "urn:ogc:def:crs:OGC:1.3:CRS84" } },
"features": [
{ "type": "Feature", "geometry": { "type": "LineString", "coordinates": [ [ 0.0, 0.0 ], [ 1.0, 1.0 ] ] } },
{ "type": "Feature", "properties": { }, "geometry": { "type": "LineString", "coordinates": [ [ 793005.340843949117698, 604287.652547770994715 ], [ 793240.647850318579003, 604464.132802548119798 ] ] } },
{ "type": "Feature", "properties": { }, "geometry": { "type": "LineString", "coordinates": [ [ 793243.098964968230575, 604446.975000000325963 ], [ 793453.894824840826914, 604606.29745222965721 ] ] } },
{ "type": "Feature", "properties": { }, "geometry": { "type": "LineString", "coordinates": [ [ 793157.309952229377814, 604410.20828025508672 ], [ 793373.008041401393712, 604569.530732484417967 ] ] } },
{ "type": "Feature", "properties": { }, "geometry": { "type": "LineString", "coordinates": [ [ 793681.848487261217088, 605000.926910828333348 ], [ 793897.546576433232985, 605172.504936306038871 ] ] } },
{ "type": "Feature", "properties": { }, "geometry": { "type": "LineString", "coordinates": [ [ 793493.112659235717729, 604934.746815286925994 ], [ 793691.652945859939791, 605089.167038216837682 ] ] } },
{ "type": "Feature", "properties": { }, "geometry": { "type": "LineString", "coordinates": [ [ 793534.781608280376531, 604978.866878981236368 ], [ 793728.419665605179034, 605143.09156050987076 ] ] } },
{ "type": "Feature", "properties": { }, "geometry": { "type": "LineString", "coordinates": [ [ 793326.436863057431765, 604625.906369427102618 ], [ 793532.330493630724959, 604777.875477707362734 ] ] } },
{ "type": "Feature", "properties": { }, "geometry": { "type": "LineString", "coordinates": [ [ 793397.519187898142263, 604748.462101911194623 ], [ 793591.157245223061182, 604900.431210191338323 ] ] } },
{ "type": "Feature", "properties": { }, "geometry": { "type": "LineString", "coordinates": [ [ 792774.936066879075952, 604022.932165605481714 ], [ 792948.965207006433047, 604177.352388535393402 ] ] } },
{ "type": "Feature", "properties": { }, "geometry": { "type": "LineString", "coordinates": [ [ 792826.409474522457458, 604135.6834394907346 ], [ 793002.889729299466126, 604282.750318471691571 ] ] } },
{ "type": "Feature", "properties": { }, "geometry": { "type": "LineString", "coordinates": [ [ 792877.882882165722549, 604206.765764331561513 ], [ 793096.032085987390019, 604370.990445860195905 ] ] } },
{ "type": "Feature", "properties": { }, "geometry": { "type": "LineString", "coordinates": [ [ 792738.169347133836709, 603581.731528662727214 ], [ 792941.611863057478331, 603723.896178344264627 ] ] } },
{ "type": "Feature", "properties": { }, "geometry": { "type": "LineString", "coordinates": [ [ 792573.944665605202317, 603630.753821656340733 ], [ 792757.778264331282116, 603755.760668790200725 ] ] } },
{ "type": "Feature", "properties": { }, "geometry": { "type": "LineString", "coordinates": [ [ 791351.246974522480741, 602587.804538216325454 ], [ 791508.935350318672135, 602716.896576432860456 ] ] } },
{ "type": "Feature", "properties": { }, "geometry": { "type": "LineString", "coordinates": [ [ 791486.875318471458741, 602956.288773885113187 ], [ 791617.601433121133596, 603055.967436305480078 ] ] } },
{ "type": "Feature", "properties": { }, "geometry": { "type": "LineString", "coordinates": [ [ 791852.091401273966767, 602901.54721337556839 ], [ 792002.42643312108703, 603054.333359872340225 ] ] } },
{ "type": "Feature", "properties": { }, "geometry": { "type": "LineString", "coordinates": [ [ 791220.520859872805886, 603042.894824840477668 ], [ 791373.307006369577721, 603164.633519107941538 ] ] } },
{ "type": "Feature", "properties": { }, "geometry": { "type": "LineString", "coordinates": [ [ 792380.715127388481051, 603654.447929935995489 ], [ 792568.633917197352275, 603785.174044585553929 ] ] } },
{ "type": "Feature", "properties": { }, "geometry": { "type": "LineString", "coordinates": [ [ 792637.265127388411202, 604004.140286623733118 ], [ 792808.843152866116725, 604144.670859872130677 ] ] } },
{ "type": "Feature", "properties": { }, "geometry": { "type": "LineString", "coordinates": [ [ 792596.413216560496949, 603986.165445859427564 ], [ 792764.723089171922766, 604129.964171974104829 ] ] } },
{ "type": "Feature", "properties": { }, "geometry": { "type": "LineString", "coordinates": [ [ 792148.676273885415867, 602961.599522292730398 ], [ 792333.326910828007385, 603160.95684713346418 ] ] } },
{ "type": "Feature", "properties": { }, "geometry": { "type": "LineString", "coordinates": [ [ 792066.972452229354531, 602925.64984076411929 ], [ 792235.282324840780348, 603120.104936305433512 ] ] } },
{ "type": "Feature", "properties": { }, "geometry": { "type": "LineString", "coordinates": [ [ 792503.270859872573055, 603262.269585986970924 ], [ 792651.971815286553465, 603433.847611464676447 ] ] } },
{ "type": "Feature", "properties": { }, "geometry": { "type": "LineString", "coordinates": [ [ 791751.595700637088157, 603314.560031846864149 ], [ 791892.126273885369301, 603433.847611464676447 ] ] } },
{ "type": "Feature", "properties": { }, "geometry": { "type": "LineString", "coordinates": [ [ 792900.35143312078435, 604432.268312101485208 ], [ 793080.099840764072724, 604551.555891719297506 ] ] } },
{ "type": "Feature", "properties": { }, "geometry": { "type": "LineString", "coordinates": [ [ 792874.20621019077953, 604332.589649681118317 ], [ 793052.32054140092805, 604460.047611464513466 ] ] } },
{ "type": "Feature", "properties": { }, "geometry": { "type": "LineString", "coordinates": [ [ 793019.639012738596648, 604425.732006368925795 ], [ 793181.412579617463052, 604541.751433120574802 ] ] } },
{ "type": "Feature", "properties": { }, "geometry": { "type": "LineString", "coordinates": [ [ 793089.904299362795427, 604692.08646496757865 ], [ 793295.797929935972206, 604821.178503184113652 ] ] } },
{ "type": "Feature", "properties": { }, "geometry": { "type": "LineString", "coordinates": [ [ 793194.485191082465462, 604755.815445859334432 ], [ 793385.672133757616393, 604880.005254776449874 ] ] } },
{ "type": "Feature", "properties": { }, "geometry": { "type": "LineString", "coordinates": [ [ 791032.602070063934661, 602649.490923566627316 ], [ 791164.96226114674937, 602758.974044585716911 ] ] } },
{ "type": "Feature", "properties": { }, "geometry": { "type": "LineString", "coordinates": [ [ 790821.806210191338323, 602736.096974521991797 ], [ 790972.141242038458586, 602858.652707006083801 ] ] } },
{ "type": "Feature", "properties": { }, "geometry": { "type": "LineString", "coordinates": [ [ 790702.518630573526025, 602835.775636942358688 ], [ 790852.853662420646288, 602956.697292993310839 ] ] } },
{ "type": "Feature", "properties": { }, "geometry": { "type": "LineString", "coordinates": [ [ 790937.825636942870915, 603084.155254776705988 ], [ 791062.015445860102773, 603192.004299362772144 ] ] } },
{ "type": "Feature", "properties": { }, "geometry": { "type": "LineString", "coordinates": [ [ 790475.382006369763985, 602930.552070063422434 ], [ 790614.278503185021691, 603064.54633757926058 ] ] } },
{ "type": "Feature", "properties": { }, "geometry": { "type": "LineString", "coordinates": [ [ 789388.721178344450891, 602397.84315286623314 ], [ 789540.690286624711007, 602548.178184713353403 ] ] } },
{ "type": "Feature", "properties": { }, "geometry": { "type": "LineString", "coordinates": [ [ 788875.621178344590589, 602147.829458598745987 ], [ 789032.492515924153849, 602301.432643312029541 ] ] } },
{ "type": "Feature", "properties": { }, "geometry": { "type": "LineString", "coordinates": [ [ 788012.828821656876244, 601626.559076433186419 ], [ 788146.82308917271439, 601824.282324840780348 ] ] } },
{ "type": "Feature", "properties": { }, "geometry": { "type": "LineString", "coordinates": [ [ 787955.636146497679874, 601654.338375796331093 ], [ 788089.630414013518021, 601860.232006369507872 ] ] } },
{ "type": "Feature", "properties": { }, "geometry": { "type": "LineString", "coordinates": [ [ 789419.768630573526025, 602701.781369426520541 ], [ 789551.311783439712599, 602833.324522292823531 ] ] } },
{ "type": "Feature", "properties": { }, "geometry": { "type": "LineString", "coordinates": [ [ 788968.763535032281652, 602849.665286623989232 ], [ 789118.281528662773781, 603020.426273885066621 ] ] } },
{ "type": "Feature", "properties": { }, "geometry": { "type": "LineString", "coordinates": [ [ 788953.23980891762767, 602801.460031846887432 ], [ 789099.489649681840092, 602968.95286624180153 ] ] } },
{ "type": "Feature", "properties": { }, "geometry": { "type": "LineString", "coordinates": [ [ 794301.844320593285374, 606286.945063692168333 ], [ 794544.777016983833164, 606493.928078554105014 ] ] } },
{ "type": "Feature", "properties": { }, "geometry": { "type": "LineString", "coordinates": [ [ 794316.551008491427638, 606332.154511675122194 ], [ 794584.53954352310393, 606541.316295114578679 ] ] } },
{ "type": "Feature", "properties": { }, "geometry": { "type": "LineString", "coordinates": [ [ 794359.036995752481744, 606349.584660295047797 ], [ 794613.408227175008506, 606553.299522290821187 ] ] } },
{ "type": "Feature", "properties": { }, "geometry": { "type": "LineString", "coordinates": [ [ 793942.892197451088578, 605836.484660295536742 ], [ 794171.66289808799047, 606023.858757960028015 ] ] } },
{ "type": "Feature", "properties": { }, "geometry": { "type": "LineString", "coordinates": [ [ 793867.724681527586654, 605862.629883225425147 ], [ 794077.975849255686626, 606043.467675157473423 ] ] } },
{ "type": "Feature", "properties": { }, "geometry": { "type": "LineString", "coordinates": [ [ 793796.914702759007923, 605837.574044584296644 ], [ 794000.629564754664898, 606005.33922505134251 ] ] } },
{ "type": "Feature", "properties": { }, "geometry": { "type": "LineString", "coordinates": [ [ 793719.568418257986195, 605885.50695328915026 ], [ 793902.58497876743786, 606063.07659235491883 ] ] } },
{ "type": "Feature", "properties": { }, "geometry": { "type": "LineString", "coordinates": [ [ 793722.836571124149486, 605924.724787684041075 ], [ 793938.534660296165384, 606093.579352439846843 ] ] } },
{ "type": "Feature", "properties": { }, "geometry": { "type": "LineString", "coordinates": [ [ 793617.166295115719549, 605997.71353503013961 ], [ 793820.881157111376524, 606154.58487260970287 ] ] } },
{ "type": "Feature", "properties": { }, "geometry": { "type": "LineString", "coordinates": [ [ 793565.965233544586226, 605977.015233543934301 ], [ 793760.965021230396815, 606127.350265390938148 ] ] } },
{ "type": "Feature", "properties": { }, "geometry": { "type": "LineString", "coordinates": [ [ 794144.428290869342163, 606126.260881102294661 ], [ 794363.394532907404937, 606314.724363055429421 ] ] } },
{ "type": "Feature", "properties": { }, "geometry": { "type": "LineString", "coordinates": [ [ 794093.22722929820884, 606105.562579616089351 ], [ 794313.282855625147931, 606291.847292991820723 ] ] } },
{ "type": "Feature", "properties": { }, "geometry": { "type": "LineString", "coordinates": [ [ 794415.684978767298162, 606531.511836516205221 ], [ 794670.60090233408846, 606719.975318469339982 ] ] } },
{ "type": "Feature", "properties": { }, "geometry": { "type": "LineString", "coordinates": [ [ 794361.215764330001548, 606499.919692142517306 ], [ 794605.23784500930924, 606676.399946919525973 ] ] } },
{ "type": "Feature", "properties": { }, "geometry": { "type": "LineString", "coordinates": [ [ 794303.478397026425228, 606477.042622078792192 ], [ 794559.483704881975427, 606655.701645433320664 ] ] } },
{ "type": "Feature", "properties": { }, "geometry": { "type": "LineString", "coordinates": [ [ 795392.862685773521662, 606877.936040337430313 ], [ 795665.208757960237563, 607106.706740974215791 ] ] } },
{ "type": "Feature", "properties": { }, "geometry": { "type": "LineString", "coordinates": [ [ 795233.812579616438597, 606838.718205942423083 ], [ 795490.907271760748699, 607050.058757959399372 ] ] } },
{ "type": "Feature", "properties": { }, "geometry": { "type": "LineString", "coordinates": [ [ 795660.851220805314369, 607450.952176218386739 ], [ 795984.952888930798508, 607704.206745035480708 ] ] } },
{ "type": "Feature", "properties": { }, "geometry": { "type": "LineString", "coordinates": [ [ 795475.655891718226485, 607368.158970273565501 ], [ 795776.85471338708885, 607602.880752811441198 ] ] } },
{ "type": "Feature", "properties": { }, "geometry": { "type": "LineString", "coordinates": [ [ 795488.728503183228895, 607333.298673033714294 ], [ 795782.850869724177755, 607587.81517733738292 ] ] } },
{ "type": "Feature", "properties": { }, "geometry": { "type": "LineString", "coordinates": [ [ 795525.238717190804891, 607411.567605410353281 ], [ 795825.692819102783687, 607656.151773232733831 ] ] } },
{ "type": "Feature", "properties": { }, "geometry": { "type": "LineString", "coordinates": [ [ 795379.790074308519252, 607074.025212311884388 ], [ 795636.926269271061756, 607299.938787630526349 ] ] } },
{ "type": "Feature", "properties": { }, "geometry": { "type": "LineString", "coordinates": [ [ 787836.483275688369758, 601632.705897996318527 ], [ 787957.457643882371485, 601826.264887106604874 ] ] } },
{ "type": "Feature", "properties": { }, "geometry": { "type": "LineString", "coordinates": [ [ 787957.457643882371485, 601928.421020248206332 ], [ 788064.99041561037302, 602127.356647944892757 ] ] } },
{ "type": "Feature", "properties": { }, "geometry": { "type": "LineString", "coordinates": [ [ 795122.69538216420915, 607132.851963904220611 ], [ 795409.563956086523831, 607350.90189168532379 ] ] } },
{ "type": "Feature", "properties": { }, "geometry": { "type": "LineString", "coordinates": [ [ 797948.558227174333297, 604478.022452227422036 ], [ 798105.429564754012972, 604700.256847131880932 ] ] } },
{ "type": "Feature", "properties": { }, "geometry": { "type": "LineString", "coordinates": [ [ 797857.049946919665672, 604467.12860933993943 ], [ 797981.239755836781114, 604693.720541399437934 ] ] } },
{ "type": "Feature", "properties": { }, "geometry": { "type": "LineString", "coordinates": [ [ 797793.865658172289841, 604521.59782377735246 ], [ 797915.876698512001894, 604746.010987259214744 ] ] } },
{ "type": "Feature", "properties": { }, "geometry": { "type": "LineString", "coordinates": [ [ 797802.580732482252643, 604571.709501059725881 ], [ 797939.843152864370495, 604807.016507429070771 ] ] } },
{ "type": "Feature", "properties": { }, "geometry": { "type": "LineString", "coordinates": [ [ 794822.025318469735794, 603113.02393842744641 ], [ 794893.924681527074426, 603389.727547769318335 ] ] } },
{ "type": "Feature", "properties": { }, "geometry": { "type": "LineString", "coordinates": [ [ 795292.639331208541989, 603030.230732482741587 ], [ 795401.577760083251633, 603267.716507429606281 ] ] } },
{ "type": "Feature", "properties": { }, "geometry": { "type": "LineString", "coordinates": [ [ 795809.007484074681997, 602485.538588109076954 ], [ 795931.018524414394051, 602696.879140126053244 ] ] } },
{ "type": "Feature", "properties": { }, "geometry": { "type": "LineString", "coordinates": [ [ 795754.538269637268968, 602479.002282376633957 ], [ 795863.476698511978611, 602681.627760083647445 ] ] } },
{ "type": "Feature", "properties": { }, "geometry": { "type": "LineString", "coordinates": [ [ 795582.415552015299909, 602657.661305731162429 ], [ 795704.426592354895547, 602862.465552015695721 ] ] } },
{ "type": "Feature", "properties": { }, "geometry": { "type": "LineString", "coordinates": [ [ 795514.873726112884469, 602696.879140126053244 ], [ 795617.275849255151115, 602901.683386410586536 ] ] } },
{ "type": "Feature", "properties": { }, "geometry": { "type": "LineString", "coordinates": [ [ 794928.784978766925633, 603075.984872610075399 ], [ 795026.829564754152671, 603350.50971337442752 ] ] } },
{ "type": "Feature", "properties": { }, "geometry": { "type": "LineString", "coordinates": [ [ 794913.533598724519834, 603041.124575370224193 ], [ 794998.505573246744461, 603315.649416134459898 ] ] } },
{ "type": "Feature", "properties": { }, "geometry": { "type": "LineString", "coordinates": [ [ 794961.466507429373451, 603023.694426750182174 ], [ 795052.974787684157491, 603282.96788747201208 ] ] } },
{ "type": "Feature", "properties": { }, "geometry": { "type": "LineString", "coordinates": [ [ 794989.79049893678166, 602949.616295115440153 ], [ 795074.762473459122702, 603208.889755837270059 ] ] } },
{ "type": "Feature", "properties": { }, "geometry": { "type": "LineString", "coordinates": [ [ 800148.388234251411632, 606299.109854916809127 ], [ 800344.314192306366749, 606487.066215050872415 ] ] } },
{ "type": "Feature", "properties": { }, "geometry": { "type": "LineString", "coordinates": [ [ 800076.488871194189414, 606281.679706296883523 ], [ 800260.295135664637201, 606467.084154763375409 ] ] } },
{ "type": "Feature", "properties": { }, "geometry": { "type": "LineString", "coordinates": [ [ 804892.656811746186577, 604796.30422858952079 ], [ 805186.790569707867689, 604773.427158525795676 ] ] } },
{ "type": "Feature", "properties": { }, "geometry": { "type": "LineString", "coordinates": [ [ 804052.741525121964514, 604606.751362347509712 ], [ 804111.568276714300737, 604685.187031137291342 ] ] } },
{ "type": "Feature", "properties": { }, "geometry": { "type": "LineString", "coordinates": [ [ 803899.138340408680961, 604505.438623494002968 ], [ 804039.668913657078519, 604564.265375086339191 ] ] } },
{ "type": "Feature", "properties": { }, "geometry": { "type": "LineString", "coordinates": [ [ 801399.001397733693011, 605453.202954704174772 ], [ 801647.381015568040311, 605528.370470627676696 ] ] } },
{ "type": "Feature", "properties": { }, "geometry": { "type": "LineString", "coordinates": [ [ 801294.420506013906561, 605887.867285914253443 ], [ 801568.945346778258681, 605949.962190372869372 ] ] } },
{ "type": "Feature", "properties": { }, "geometry": { "type": "LineString", "coordinates": [ [ 802346.7657289437484, 604881.276203111861832 ], [ 802588.609041045652702, 604907.421426041750237 ] ] } },
{ "type": "Feature", "properties": { }, "geometry": { "type": "LineString", "coordinates": [ [ 802640.899486905545928, 604681.918878271128051 ], [ 802908.888021937338635, 604711.332254067296162 ] ] } },
{ "type": "Feature", "properties": { }, "geometry": { "type": "LineString", "coordinates": [ [ 802944.837703465949744, 604596.946903748787008 ], [ 803104.97719391179271, 604744.01378272974398 ] ] } },
{ "type": "Feature", "properties": { }, "geometry": { "type": "LineString", "coordinates": [ [ 803454.66955059976317, 604688.455184003571048 ], [ 803683.440251236665063, 604691.723336869850755 ] ] } },
{ "type": "Feature", "properties": { }, "geometry": { "type": "LineString", "coordinates": [ [ 787790.781847703969106, 601862.557197564747185 ], [ 787933.26277024357114, 602060.148665614891797 ] ] } },
{ "type": "Feature", "properties": { }, "geometry": { "type": "LineString", "coordinates": [ [ 787769.275293358368799, 601889.440390496747568 ], [ 787927.886131657171063, 602096.440976073034108 ] ] } },
{ "type": "Feature", "properties": { }, "geometry": { "type": "LineString", "coordinates": [ [ 788472.270788529887795, 602264.460931897978298 ], [ 788637.602425061631948, 602474.149836767464876 ] ] } },
{ "type": "Feature", "properties": { }, "geometry": { "type": "LineString", "coordinates": [ [ 788630.881626828690059, 602295.376603769720532 ], [ 788774.706709014833905, 602471.461517474264838 ] ] } },
{ "type": "Feature", "properties": { }, "geometry": { "type": "LineString", "coordinates": [ [ 788513.939737574546598, 602451.299122775322758 ], [ 788667.17393728683237, 602643.513952239067294 ] ] } },
{ "type": "Feature", "properties": { }, "geometry": { "type": "LineString", "coordinates": [ [ 789055.636075154063292, 602514.474626165232621 ], [ 789186.019560874206945, 602656.955548704834655 ] ] } },
{ "type": "Feature", "properties": { }, "geometry": { "type": "LineString", "coordinates": [ [ 789156.448048649006523, 602472.805677120690234 ], [ 789262.636660730466247, 602605.877482134033926 ] ] } },
{ "type": "Feature", "properties": { }, "geometry": { "type": "LineString", "coordinates": [ [ 789347.318718466209248, 602687.871220576576889 ], [ 789462.916448073694482, 602823.631344883120619 ] ] } },
{ "type": "Feature", "properties": { }, "geometry": { "type": "LineString", "coordinates": [ [ 789276.078257196466438, 602744.325925733777694 ], [ 789391.675986803951673, 602890.839327213121578 ] ] } },
{ "type": "Feature", "properties": { }, "geometry": { "type": "LineString", "coordinates": [ [ 789325.812164120608941, 602894.871806152979843 ], [ 789446.786532314494252, 603042.729367278865539 ] ] } },
{ "type": "Feature", "properties": { }, "geometry": { "type": "LineString", "coordinates": [ [ 789052.947755860863253, 602638.137313652434386 ], [ 789160.480527588864788, 602772.553278312436305 ] ] } },
{ "type": "Feature", "properties": { }, "geometry": { "type": "LineString", "coordinates": [ [ 788898.369396501919255, 602709.377774922177196 ], [ 789051.603596214321442, 602890.839327213121578 ] ] } },
{ "type": "Feature", "properties": { }, "geometry": { "type": "LineString", "coordinates": [ [ 789175.266283701406792, 603210.749323103809729 ], [ 789319.091365887550637, 603408.340791153954342 ] ] } },
{ "type": "Feature", "properties": { }, "geometry": { "type": "LineString", "coordinates": [ [ 788481.679906056146137, 602635.448994359234348 ], [ 788641.634904001490213, 602826.319664176320657 ] ] } },
{ "type": "Feature", "properties": { }, "geometry": { "type": "LineString", "coordinates": [ [ 788431.94599913188722, 602704.001136335777119 ], [ 788595.933476017089561, 602915.034200851921923 ] ] } },
{ "type": "Feature", "properties": { }, "geometry": { "type": "LineString", "coordinates": [ [ 789962.943836608668789, 603040.041047985898331 ], [ 790053.002532930928282, 603185.210289818583988 ] ] } },
{ "type": "Feature", "properties": { }, "geometry": { "type": "LineString", "coordinates": [ [ 790997.946764490334317, 603026.599451519898139 ], [ 791125.641930917277932, 603136.820542540983297 ] ] } },
{ "type": "Feature", "properties": { }, "geometry": { "type": "LineString", "coordinates": [ [ 790518.08177065430209, 603373.392640342470258 ], [ 790612.172945916303433, 603498.399487476330251 ] ] } },
{ "type": "Feature", "properties": { }, "geometry": { "type": "LineString", "coordinates": [ [ 790879.660715589416213, 603713.465030931984074 ], [ 790979.128529437817633, 603865.355070997728035 ] ] } },
{ "type": "Feature", "properties": { }, "geometry": { "type": "LineString", "coordinates": [ [ 791066.498906466760673, 603812.932844780385494 ], [ 791182.096636074362323, 603950.037128733471036 ] ] } },
{ "type": "Feature", "properties": { }, "geometry": { "type": "LineString", "coordinates": [ [ 791530.233984543592669, 603807.556206193985417 ], [ 791674.059066729736514, 603924.498095448128879 ] ] } },
{ "type": "Feature", "properties": { }, "geometry": { "type": "LineString", "coordinates": [ [ 791188.817434307304211, 603915.088977921986952 ], [ 791305.759323561447673, 604038.751665409072302 ] ] } },
{ "type": "Feature", "properties": { }, "geometry": { "type": "LineString", "coordinates": [ [ 790324.522781543899328, 603784.705492201843299 ], [ 790452.217947970842943, 603919.121456861728802 ] ] } },
{ "type": "Feature", "properties": { }, "geometry": { "type": "LineString", "coordinates": [ [ 790303.016227198299021, 603858.634272764786147 ], [ 790441.464670798042789, 604009.18015318387188 ] ] } },
{ "type": "Feature", "properties": { }, "geometry": { "type": "LineString", "coordinates": [ [ 792075.962801062967628, 603650.289527541957796 ], [ 792209.03460607631132, 603763.198937856242992 ] ] } },
{ "type": "Feature", "properties": { }, "geometry": { "type": "LineString", "coordinates": [ [ 792286.995865579112433, 603605.932259204098955 ], [ 792459.048300343798473, 603733.62742563104257 ] ] } },
{ "type": "Feature", "properties": { }, "geometry": { "type": "LineString", "coordinates": [ [ 792438.885905644856393, 603611.308897790499032 ], [ 792604.217542176600546, 603744.380702803842723 ] ] } },
{ "type": "Feature", "properties": { }, "geometry": { "type": "LineString", "coordinates": [ [ 792632.444894755142741, 603533.347638287814334 ], [ 792795.088211993686855, 603657.010325774899684 ] ] } },
{ "type": "Feature", "properties": { }, "geometry": { "type": "LineString", "coordinates": [ [ 791304.415163915022276, 603053.482644451665692 ], [ 791434.79864963516593, 603158.327096886467189 ] ] } },
{ "type": "Feature", "properties": { }, "geometry": { "type": "LineString", "coordinates": [ [ 792092.092716822284274, 602935.196595550980419 ], [ 792256.080193707486615, 603119.34646713512484 ] ] } },
{ "type": "Feature", "properties": { }, "geometry": { "type": "LineString", "coordinates": [ [ 791704.974738601711579, 602861.267814987921156 ], [ 791836.702383968397044, 602980.898023535381071 ] ] } },
{ "type": "Feature", "properties": { }, "geometry": { "type": "LineString", "coordinates": [ [ 790997.946764490450732, 602620.663238246692345 ], [ 791114.888653744710609, 602725.507690681377426 ] ] } },
{ "type": "Feature", "properties": { }, "geometry": { "type": "LineString", "coordinates": [ [ 791258.713735930854455, 602544.046138390433043 ], [ 791411.947935643140227, 602655.611389058292843 ] ] } },
{ "type": "Feature", "properties": { }, "geometry": { "type": "LineString", "coordinates": [ [ 790968.375252265366726, 602600.500843547633849 ], [ 791090.693780105910264, 602708.033615275635384 ] ] } },
{ "type": "Feature", "properties": { }, "geometry": { "type": "LineString", "coordinates": [ [ 792761.484220828977413, 603982.296960251755081 ], [ 792936.224974886979908, 604140.907798550557345 ] ] } },
{ "type": "Feature", "properties": { }, "geometry": { "type": "LineString", "coordinates": [ [ 792538.353719493490644, 604045.472463642014191 ], [ 792698.308717438834719, 604178.544268655357882 ] ] } },
{ "type": "Feature", "properties": { }, "geometry": { "type": "LineString", "coordinates": [ [ 792561.204433485632762, 604316.992712255101651 ], [ 792760.140061182435602, 604447.376197975245304 ] ] } },
{ "type": "Feature", "properties": { }, "geometry": { "type": "LineString", "coordinates": [ [ 792567.925231718691066, 604229.622335226042196 ], [ 792748.042624362977222, 604362.694140239385888 ] ] } },
{ "type": "Feature", "properties": { }, "geometry": { "type": "LineString", "coordinates": [ [ 792667.393045567092486, 604120.74540385149885 ], [ 792855.575396090978757, 604263.226326391100883 ] ] } },
{ "type": "Feature", "properties": { }, "geometry": { "type": "LineString", "coordinates": [ [ 792741.321826130035333, 604241.719772045500576 ], [ 792936.224974886979908, 604370.759098118986003 ] ] } },
{ "type": "Feature", "properties": { }, "geometry": { "type": "LineString", "coordinates": [ [ 792735.945187543635257, 604290.109519323101267 ], [ 792905.309303015121259, 604404.36308928404469 ] ] } },
{ "type": "Feature", "properties": { }, "geometry": { "type": "LineString", "coordinates": [ [ 792867.672832910320722, 604495.76594525272958 ], [ 793042.413586968323216, 604620.772792386589572 ] ] } },
{ "type": "Feature", "properties": { }, "geometry": { "type": "LineString", "coordinates": [ [ 792670.081364860292524, 604327.745989427901804 ], [ 792846.166278564720415, 604459.473634794587269 ] ] } },
{ "type": "Feature", "properties": { }, "geometry": { "type": "LineString", "coordinates": [ [ 792659.328087687492371, 604385.544854231644422 ], [ 792848.854597857920453, 604503.830903132329695 ] ] } },
{ "type": "Feature", "properties": { }, "geometry": { "type": "LineString", "coordinates": [ [ 792432.165107412147336, 604019.933430356555618 ], [ 792594.80842465069145, 604155.693554663099349 ] ] } },
{ "type": "Feature", "properties": { }, "geometry": { "type": "LineString", "coordinates": [ [ 792313.879058511345647, 603982.296960251755081 ], [ 792469.801577516947873, 604119.401244204957038 ] ] } },
{ "type": "Feature", "properties": { }, "geometry": { "type": "LineString", "coordinates": [ [ 792285.651705932803452, 604011.868472476955503 ], [ 792429.476788118947297, 604139.563638903899118 ] ] } },
{ "type": "Feature", "properties": { }, "geometry": { "type": "LineString", "coordinates": [ [ 792389.151998720946722, 604260.538007097900845 ], [ 792571.957710658432916, 604397.642291050986387 ] ] } },
{ "type": "Feature", "properties": { }, "geometry": { "type": "LineString", "coordinates": [ [ 792233.229479715460911, 604181.232587948557921 ], [ 792424.100149532547221, 604321.025191194843501 ] ] } },
{ "type": "Feature", "properties": { }, "geometry": { "type": "LineString", "coordinates": [ [ 792027.573053785716183, 604140.907798550557345 ], [ 792194.248849964002147, 604268.60296497750096 ] ] } },
{ "type": "Feature", "properties": { }, "geometry": { "type": "LineString", "coordinates": [ [ 791993.969062620657496, 604083.108933746698312 ], [ 792148.547421979601495, 604201.394982647500001 ] ] } },
{ "type": "Feature", "properties": { }, "geometry": { "type": "LineString", "coordinates": [ [ 792022.196415199316107, 604049.50494258175604 ], [ 792160.644858799059875, 604174.511789715499617 ] ] } },
{ "type": "Feature", "properties": { }, "geometry": { "type": "LineString", "coordinates": [ [ 793136.504762230091728, 604682.604136130190454 ], [ 793335.440389926778153, 604822.396739376476035 ] ] } },
{ "type": "Feature", "properties": { }, "geometry": { "type": "LineString", "coordinates": [ [ 793194.303627033834346, 604624.805271326331422 ], [ 793365.011902151978575, 604745.779639520333149 ] ] } },
{ "type": "Feature", "properties": { }, "geometry": { "type": "LineString", "coordinates": [ [ 793366.356061798636802, 604787.448588564875536 ], [ 793547.817614089581184, 604932.617830397677608 ] ] } },
{ "type": "Feature", "properties": { }, "geometry": { "type": "LineString", "coordinates": [ [ 793328.719591693836264, 604782.071949978475459 ], [ 793519.590261510922574, 604929.929511104477569 ] ] } },
{ "type": "Feature", "properties": { }, "geometry": { "type": "LineString", "coordinates": [ [ 793434.908203775179572, 604970.254300502478145 ], [ 793617.713915712665766, 605118.11186162836384 ] ] } },
{ "type": "Feature", "properties": { }, "geometry": { "type": "LineString", "coordinates": [ [ 793406.680851196637377, 604921.864553224877454 ], [ 793590.830722780781798, 605076.442912583821453 ] ] } },
{ "type": "Feature", "properties": { }, "geometry": { "type": "LineString", "coordinates": [ [ 793340.817028513178229, 604886.916402413276955 ], [ 793526.311059743980877, 605038.806442479020916 ] ] } },
{ "type": "Feature", "properties": { }, "geometry": { "type": "LineString", "coordinates": [ [ 793319.310474167694338, 604971.598460149019957 ], [ 793499.427866811980493, 605110.046903748763725 ] ] } },
{ "type": "Feature", "properties": { }, "geometry": { "type": "LineString", "coordinates": [ [ 793296.459760175435804, 604937.994468984077685 ], [ 793483.297951052780263, 605080.475391523563303 ] ] } },
{ "type": "Feature", "properties": { }, "geometry": { "type": "LineString", "coordinates": [ [ 793218.498500672634691, 604951.436065450077876 ], [ 793399.960052963579074, 605089.884509049821645 ] ] } },
{ "type": "Feature", "properties": { }, "geometry": { "type": "LineString", "coordinates": [ [ 793283.018163709435612, 605030.741484599420801 ], [ 793469.856354586780071, 605185.3198439583648 ] ] } },
{ "type": "Feature", "properties": { }, "geometry": { "type": "LineString", "coordinates": [ [ 793257.479130424093455, 605061.657156471163034 ], [ 793438.940682715037838, 605200.105600070906803 ] ] } },
{ "type": "Feature", "properties": { }, "geometry": { "type": "LineString", "coordinates": [ [ 793132.472283290349878, 605063.001316117821261 ], [ 793324.687112753977999, 605201.44975971756503 ] ] } },
{ "type": "Feature", "properties": { }, "geometry": { "type": "LineString", "coordinates": [ [ 793155.322997282491997, 604874.81896559393499 ], [ 793350.226146039436571, 605013.267409193678759 ] ] } },
{ "type": "Feature", "properties": { }, "geometry": { "type": "LineString", "coordinates": [ [ 795459.212631554109976, 607526.845948334550485 ], [ 795754.136491750716232, 607773.067166866268963 ] ] } },
{ "type": "Feature", "properties": { }, "geometry": { "type": "LineString", "coordinates": [ [ 795418.8878421561094, 607510.716032575350255 ], [ 795713.258804761338979, 607737.879012850578874 ] ] } },
{ "type": "Feature", "properties": { }, "geometry": { "type": "LineString", "coordinates": [ [ 795238.770449511823244, 607415.2806976668071 ], [ 795518.355656004394405, 607624.969602536293678 ] ] } },
{ "type": "Feature", "properties": { }, "geometry": { "type": "LineString", "coordinates": [ [ 795207.854777639964595, 607317.157043465063907 ], [ 795499.089879736537114, 607530.450340385199524 ] ] } },
{ "type": "Feature", "properties": { }, "geometry": { "type": "LineString", "coordinates": [ [ 795066.718014747020788, 606963.643056409433484 ], [ 795330.173305480508134, 607173.331961278920062 ] ] } },
{ "type": "Feature", "properties": { }, "geometry": { "type": "LineString", "coordinates": [ [ 795291.192675729165785, 606834.603730335831642 ], [ 795531.797252470394596, 607044.29263520531822 ] ] } },
{ "type": "Feature", "properties": { }, "geometry": { "type": "LineString", "coordinates": [ [ 795178.283265414764173, 606939.448182770633139 ], [ 795433.673598268651403, 607159.89036481291987 ] ] } },
{ "type": "Feature", "properties": { }, "geometry": { "type": "LineString", "coordinates": [ [ 795146.023433896480128, 606926.006586304632947 ], [ 795396.037128163850866, 607145.104608700261451 ] ] } },
{ "type": "Feature", "properties": { }, "geometry": { "type": "LineString", "coordinates": [ [ 795471.310068373451941, 607150.481247286661528 ], [ 795713.963405241607688, 607384.459362517460249 ] ] } },
{ "type": "Feature", "properties": { }, "geometry": { "type": "LineString", "coordinates": [ [ 795410.822884276509285, 607157.202045519719832 ], [ 795670.301816818187945, 607391.696959157008678 ] ] } },
{ "type": "Feature", "properties": { }, "geometry": { "type": "LineString", "coordinates": [ [ 795354.368179119308479, 607206.935952443862334 ], [ 795644.045861617545597, 607447.316315941512585 ] ] } },
{ "type": "Feature", "properties": { }, "geometry": { "type": "LineString", "coordinates": [ [ 794982.035957011277787, 607051.013433438376524 ], [ 795262.96532315062359, 607256.669859368004836 ] ] } },
{ "type": "Feature", "properties": { }, "geometry": { "type": "LineString", "coordinates": [ [ 794656.749322534305975, 607151.825406933319755 ], [ 794917.516293974593282, 607345.384396043606102 ] ] } },
{ "type": "Feature", "properties": { }, "geometry": { "type": "LineString", "coordinates": [ [ 794710.515708398190327, 607151.825406933319755 ], [ 794980.691797364735976, 607353.449353923206218 ] ] } },
{ "type": "Feature", "properties": { }, "geometry": { "type": "LineString", "coordinates": [ [ 794867.782387050334364, 607099.403180715977214 ], [ 795139.302635663421825, 607296.994648766005412 ] ] } },
{ "type": "Feature", "properties": { }, "geometry": { "type": "LineString", "coordinates": [ [ 794187.637605871073902, 606339.952980387257412 ], [ 794421.521384379360825, 606541.57692737726029 ] ] } },
{ "type": "Feature", "properties": { }, "geometry": { "type": "LineString", "coordinates": [ [ 794145.968656826531515, 606357.427055793115869 ], [ 794377.164116041618399, 606542.921087023802102 ] ] } },
{ "type": "Feature", "properties": { }, "geometry": { "type": "LineString", "coordinates": [ [ 794026.338448279188015, 606337.264661094057374 ], [ 794231.994874208932742, 606524.102851971401833 ] ] } },
{ "type": "Feature", "properties": { }, "geometry": { "type": "LineString", "coordinates": [ [ 793908.052399378502741, 606368.180332965916023 ], [ 794131.182900713989511, 606555.018523843144067 ] ] } },
{ "type": "Feature", "properties": { }, "geometry": { "type": "LineString", "coordinates": [ [ 793869.071769627043977, 606464.959827521000989 ], [ 794092.202270962530747, 606649.10969910514541 ] ] } },
{ "type": "Feature", "properties": { }, "geometry": { "type": "LineString", "coordinates": [ [ 794236.027353148674592, 606260.647561237914488 ], [ 794471.255291303619742, 606458.239029288059101 ] ] } },
{ "type": "Feature", "properties": { }, "geometry": { "type": "LineString", "coordinates": [ [ 790644.432777435868047, 602779.274076545843855 ], [ 790790.946178915211931, 602897.560125446529128 ] ] } },
{ "type": "Feature", "properties": { }, "geometry": { "type": "LineString", "coordinates": [ [ 790727.770675524952821, 603174.457012646016665 ], [ 790846.05672442575451, 603286.02226331376005 ] ] } },
{ "type": "Feature", "properties": { }, "geometry": { "type": "LineString", "coordinates": [ [ 796727.427258120733313, 604270.619204447488301 ], [ 796838.992508788476698, 604524.665377654833719 ] ] } },
{ "type": "Feature", "properties": { }, "geometry": { "type": "LineString", "coordinates": [ [ 796680.381670489790849, 604293.469918439746834 ], [ 796773.128686105133966, 604560.95768811297603 ] ] } },
{ "type": "Feature", "properties": { }, "geometry": { "type": "LineString", "coordinates": [ [ 796916.953768291277811, 603894.254503399715759 ], [ 797027.174859312362969, 604106.631727562402375 ] ] } },
{ "type": "Feature", "properties": { }, "geometry": { "type": "LineString", "coordinates": [ [ 796469.348605973646045, 603770.591815912513994 ], [ 796590.322974167647772, 604007.163913714000955 ] ] } },
{ "type": "Feature", "properties": { }, "geometry": { "type": "LineString", "coordinates": [ [ 796326.867683434160426, 604004.475594420800917 ], [ 796435.744614808703773, 604274.651683387346566 ] ] } },
{ "type": "Feature", "properties": { }, "geometry": { "type": "LineString", "coordinates": [ [ 796240.841466051759198, 603995.06647689465899 ], [ 796367.192472832161002, 604250.45680974854622 ] ] } },
{ "type": "Feature", "properties": { }, "geometry": { "type": "LineString", "coordinates": [ [ 799659.039447353919968, 605187.336083428119309 ], [ 799750.442303322721273, 605336.537804200663231 ] ] } },
{ "type": "Feature", "properties": { }, "geometry": { "type": "LineString", "coordinates": [ [ 799685.922640285920352, 605133.569697564234957 ], [ 799785.390454134321772, 605298.901334095862694 ] ] } },
{ "type": "Feature", "properties": { }, "geometry": { "type": "LineString", "coordinates": [ [ 799922.494738087407313, 605301.589653389062732 ], [ 800020.618392289150506, 605474.986247800407 ] ] } },
{ "type": "Feature", "properties": { }, "geometry": { "type": "LineString", "coordinates": [ [ 800082.449736032751389, 605290.836376216262579 ], [ 800165.787634121952578, 605441.382256635464728 ] ] } },
{ "type": "Feature", "properties": { }, "geometry": { "type": "LineString", "coordinates": [ [ 799805.552848833263852, 605329.817005967721343 ], [ 799879.481629396206699, 605516.655196844949387 ] ] } },
{ "type": "Feature", "properties": { }, "geometry": { "type": "LineString", "coordinates": [ [ 799605.273061490035616, 605234.381671059178188 ], [ 799706.085034984978847, 605406.434105823864229 ] ] } },
{ "type": "Feature", "properties": { }, "geometry": { "type": "LineString", "coordinates": [ [ 799606.617221136577427, 605188.680243074777536 ], [ 799703.396715691778809, 605348.635241020121612 ] ] } },
{ "type": "Feature", "properties": { }, "geometry": { "type": "LineString", "coordinates": [ [ 799243.694116554805078, 604995.121253964491189 ], [ 799352.571047929348424, 605163.141209789435379 ] ] } },
{ "type": "Feature", "properties": { }, "geometry": { "type": "LineString", "coordinates": [ [ 800185.950028821011074, 606164.540146505576558 ], [ 800504.515865065040998, 606341.969219856779091 ] ] } },
{ "type": "Feature", "properties": { }, "geometry": { "type": "LineString", "coordinates": [ [ 800196.703305993811227, 606130.936155340634286 ], [ 800493.762587892240845, 606290.891153285978362 ] ] } },
{ "type": "Feature", "properties": { }, "geometry": { "type": "LineString", "coordinates": [ [ 802270.741640696651302, 605328.47284632071387 ], [ 802612.158190932823345, 605302.933813035371713 ] ] } },
{ "type": "Feature", "properties": { }, "geometry": { "type": "LineString", "coordinates": [ [ 801979.058997384505346, 605495.148642498999834 ], [ 802276.118279283051379, 605488.427844266057946 ] ] } },
{ "type": "Feature", "properties": { }, "geometry": { "type": "LineString", "coordinates": [ [ 801829.85727661207784, 605586.551498467801139 ], [ 802137.66983568330761, 605602.681414227001369 ] ] } },
{ "type": "Feature", "properties": { }, "geometry": { "type": "LineString", "coordinates": [ [ 801941.422527279821225, 605681.986833376344293 ], [ 802132.293197096907534, 605733.064899947145022 ] ] } },
{ "type": "Feature", "properties": { }, "geometry": { "type": "LineString", "coordinates": [ [ 801983.091476324363612, 605637.629565038601868 ], [ 802231.761010945192538, 605706.181707015144639 ] ] } },
{ "type": "Feature", "properties": { }, "geometry": { "type": "LineString", "coordinates": [ [ 802203.533658366650343, 604933.28991022054106 ], [ 802410.534243942936882, 604953.45230491948314 ] ] } },
{ "type": "Feature", "properties": { }, "geometry": { "type": "LineString", "coordinates": [ [ 802410.534243942936882, 604832.477936725597829 ], [ 802629.632266338681802, 604845.91953319159802 ] ] } },
{ "type": "Feature", "properties": { }, "geometry": { "type": "LineString", "coordinates": [ [ 802422.631680762395263, 604813.65970167319756 ], [ 802656.515459270565771, 604821.724659552797675 ] ] } },
{ "type": "Feature", "properties": { }, "geometry": { "type": "LineString", "coordinates": [ [ 802828.567894035368226, 604500.470504015567712 ], [ 802956.263060462311842, 604667.146300193853676 ] ] } },
{ "type": "Feature", "properties": { }, "geometry": { "type": "LineString", "coordinates": [ [ 802667.268736443365924, 604495.093865429167636 ], [ 802808.405499336309731, 604620.100712562911212 ] ] } },
{ "type": "Feature", "properties": { }, "geometry": { "type": "LineString", "coordinates": [ [ 801538.174633299931884, 605410.466584763256833 ], [ 801725.012824177276343, 605458.856332040857524 ] ] } },
{ "type": "Feature", "properties": { }, "geometry": { "type": "LineString", "coordinates": [ [ 801570.434464818332344, 605405.089946176856756 ], [ 801750.5518574626185, 605448.10305486805737 ] ] } },
{ "type": "Feature", "properties": { }, "geometry": { "type": "LineString", "coordinates": [ [ 801698.129631245275959, 605355.356039252714254 ], [ 801902.44189752836246, 605386.271711124456488 ] ] } },
{ "type": "Feature", "properties": { }, "geometry": { "type": "LineString", "coordinates": [ [ 801634.954127855133265, 605344.6027620799141 ], [ 801816.415680146077648, 605382.239232184714638 ] ] } },
{ "type": "Feature", "properties": { }, "geometry": { "type": "LineString", "coordinates": [ [ 801617.480052449391223, 605368.797635718714446 ], [ 801802.974083680077456, 605410.466584763256833 ] ] } },
{ "type": "Feature", "properties": { }, "geometry": { "type": "LineString", "coordinates": [ [ 803820.557713225483894, 604534.074495180742815 ], [ 803882.389056969084777, 604563.646007405943237 ] ] } },
{ "type": "Feature", "properties": { }, "geometry": { "type": "LineString", "coordinates": [ [ 803766.791327361483127, 604501.814663662342355 ], [ 803812.492755345883779, 604528.697856594342738 ] ] } },
{ "type": "Feature", "properties": { }, "geometry": { "type": "LineString", "coordinates": [ [ 803625.65456446853932, 604612.035754683543928 ], [ 803852.817544743884355, 604622.789031856344081 ] ] } },
{ "type": "Feature", "properties": { }, "geometry": { "type": "LineString", "coordinates": [ [ 803596.083052243338898, 604618.756552916485816 ], [ 803828.622671105084009, 604644.295586201944388 ] ] } },
{ "type": "Feature", "properties": { }, "geometry": { "type": "LineString", "coordinates": [ [ 803546.349145319196396, 604646.983905495144427 ], [ 803758.726369481883012, 604669.834619487286545 ] ] } },
{ "type": "Feature", "properties": { }, "geometry": { "type": "LineString", "coordinates": [ [ 803303.056249284767546, 604702.094451005687006 ], [ 803551.725783905596472, 604687.308694893145002 ] ] } },
{ "type": "Feature", "properties": { }, "geometry": { "type": "LineString", "coordinates": [ [ 803278.8613756459672, 604710.159408885287121 ], [ 803487.206120868795551, 604695.373652772628702 ] ] } },
{ "type": "Feature", "properties": { }, "geometry": { "type": "LineString", "coordinates": [ [ 804737.274592206231318, 604755.860836869687773 ], [ 805074.658663502661511, 604739.730921110487543 ] ] } },
{ "type": "Feature", "properties": { }, "geometry": { "type": "LineString", "coordinates": [ [ 805257.464375440147705, 604895.653440115973353 ], [ 805460.43248207657598, 604919.848313754773699 ] ] } },
{ "type": "Feature", "properties": { }, "geometry": { "type": "LineString", "coordinates": [ [ 805296.445005191490054, 604926.569111987715587 ], [ 805514.198867940576747, 604953.452304919715971 ] ] } },
{ "type": "Feature", "properties": { }, "geometry": { "type": "LineString", "coordinates": [ [ 797642.799977455171756, 604655.720943198190071 ], [ 797761.086026355973445, 604907.078797112335451 ] ] } },
{ "type": "Feature", "properties": { }, "geometry": { "type": "LineString", "coordinates": [ [ 797689.84556508611422, 604608.675355567247607 ], [ 797812.164092926657759, 604846.591613015392795 ] ] } },
{ "type": "Feature", "properties": { }, "geometry": { "type": "LineString", "coordinates": [ [ 797593.066070531029254, 604708.143169415649027 ], [ 797681.780607206514105, 604890.948881353135221 ] ] } },
{ "type": "Feature", "properties": { }, "geometry": { "type": "LineString", "coordinates": [ [ 797406.227879653684795, 604849.279932308592834 ], [ 797505.695693502086215, 605136.930096680764109 ] ] } },
{ "type": "Feature", "properties": { }, "geometry": { "type": "LineString", "coordinates": [ [ 796857.810743841109797, 603937.939691914129071 ], [ 796969.375994508853182, 604148.97275643015746 ] ] } },
{ "type": "Feature", "properties": { }, "geometry": { "type": "LineString", "coordinates": [ [ 795610.747897338122129, 607465.782465391093865 ], [ 795913.689083585282788, 607703.853692939388566 ] ] } }
]
}
