{
"type": "FeatureCollection",
"name": "20181031_095646_101b_3B_AnalyticMS_clip",
"crs": { "type": "name", "properties": { "name": "urn:ogc:def:crs:OGC:1.3:CRS84" } },
"features": [
{ "type": "Feature", "geometry": { "type": "LineString", "coordinates": [ [ 0.0, 0.0 ], [ 1.0, 1.0 ] ] } },
{ "type": "Feature", "properties": { }, "geometry": { "type": "LineString", "coordinates": [ [ 211771.355301810661331, 635769.108616501558572 ], [ 212460.906310326972743, 635854.919408672489226 ] ] } },
{ "type": "Feature", "properties": { }, "geometry": { "type": "LineString", "coordinates": [ [ 211088.95519264190807, 635318.60195760417264 ], [ 211758.075060165167088, 635366.615138937951997 ] ] } },
{ "type": "Feature", "properties": { }, "geometry": { "type": "LineString", "coordinates": [ [ 211693.716966036969097, 635711.901421720860526 ], [ 212386.332645702263108, 635791.582871593884192 ] ] } },
{ "type": "Feature", "properties": { }, "geometry": { "type": "LineString", "coordinates": [ [ 211602.798388617782621, 635663.888240387197584 ], [ 212280.090712538250955, 635718.030764018883929 ] ] } },
{ "type": "Feature", "properties": { }, "geometry": { "type": "LineString", "coordinates": [ [ 211580.324133525398793, 635644.47865644376725 ], [ 212229.012860055576311, 635679.21159613202326 ] ] } },
{ "type": "Feature", "properties": { }, "geometry": { "type": "LineString", "coordinates": [ [ 211535.375623340631137, 635610.767273805220611 ], [ 212190.193692168715643, 635658.780455138883553 ] ] } },
{ "type": "Feature", "properties": { }, "geometry": { "type": "LineString", "coordinates": [ [ 211363.754038998769829, 635495.331327193998732 ], [ 212026.744564224092755, 635552.538521974580362 ] ] } },
{ "type": "Feature", "properties": { }, "geometry": { "type": "LineString", "coordinates": [ [ 211320.848642913304502, 635460.598387505742721 ], [ 211957.278684847638942, 635488.180427846382372 ] ] } },
{ "type": "Feature", "properties": { }, "geometry": { "type": "LineString", "coordinates": [ [ 210176.193968776147813, 634191.824531835620292 ], [ 210938.27552781792474, 634293.980236800969578 ] ] } },
{ "type": "Feature", "properties": { }, "geometry": { "type": "LineString", "coordinates": [ [ 209988.227471639838768, 634161.177820345968939 ], [ 210729.877889688534196, 634249.031726616201922 ] ] } },
{ "type": "Feature", "properties": { }, "geometry": { "type": "LineString", "coordinates": [ [ 209698.105269538122229, 634114.186196061782539 ], [ 210427.497002990974579, 634195.910760034108534 ] ] } },
{ "type": "Feature", "properties": { }, "geometry": { "type": "LineString", "coordinates": [ [ 209618.423819665127667, 634146.87602165073622 ], [ 210331.47064032353228, 634216.341901027131826 ] ] } },
{ "type": "Feature", "properties": { }, "geometry": { "type": "LineString", "coordinates": [ [ 209510.138772401813185, 634140.746679352829233 ], [ 210219.09936486161314, 634214.298786927829497 ] ] } },
{ "type": "Feature", "properties": { }, "geometry": { "type": "LineString", "coordinates": [ [ 209389.595040542655624, 634136.660451154108159 ], [ 210106.728089399664896, 634226.557471523759887 ] ] } },
{ "type": "Feature", "properties": { }, "geometry": { "type": "LineString", "coordinates": [ [ 208987.101562979049049, 634216.341901027248241 ], [ 209663.372329849895323, 634308.282035496085882 ] ] } },
{ "type": "Feature", "properties": { }, "geometry": { "type": "LineString", "coordinates": [ [ 208876.773401616432238, 634157.091592147247866 ], [ 209542.828597990737762, 634236.773042020271532 ] ] } },
{ "type": "Feature", "properties": { }, "geometry": { "type": "LineString", "coordinates": [ [ 209119.903979434049688, 634177.522733140387572 ], [ 209781.872947609750554, 634265.376639410620555 ] ] } },
{ "type": "Feature", "properties": { }, "geometry": { "type": "LineString", "coordinates": [ [ 209195.499201108439593, 634177.522733140387572 ], [ 209875.856196177890524, 634269.462867609225214 ] ] } },
{ "type": "Feature", "properties": { }, "geometry": { "type": "LineString", "coordinates": [ [ 209248.620167690416565, 634134.617337054922245 ], [ 209937.149619157135021, 634228.600585623062216 ] ] } },
{ "type": "Feature", "properties": { }, "geometry": { "type": "LineString", "coordinates": [ [ 213556.526246080728015, 637304.508862130925991 ], [ 214263.443724441196537, 637435.268164486507885 ] ] } },
{ "type": "Feature", "properties": { }, "geometry": { "type": "LineString", "coordinates": [ [ 212700.461438470811117, 637316.767546726739965 ], [ 213415.551373228488956, 637474.087332373368554 ] ] } },
{ "type": "Feature", "properties": { }, "geometry": { "type": "LineString", "coordinates": [ [ 212614.650646299880464, 637267.732808343367651 ], [ 213352.214836149971234, 637410.750795294879936 ] ] } },
{ "type": "Feature", "properties": { }, "geometry": { "type": "LineString", "coordinates": [ [ 212365.390726184326923, 637159.447761079994962 ], [ 213062.092634048254695, 637282.034607038483955 ] ] } },
{ "type": "Feature", "properties": { }, "geometry": { "type": "LineString", "coordinates": [ [ 213147.903426219156245, 637071.593854809645563 ], [ 213809.87239439485711, 637153.318418781971559 ] ] } },
{ "type": "Feature", "properties": { }, "geometry": { "type": "LineString", "coordinates": [ [ 210661.611916317808209, 635057.47787068260368 ], [ 211297.638469188124873, 635059.678654602612369 ] ] } },
{ "type": "Feature", "properties": { }, "geometry": { "type": "LineString", "coordinates": [ [ 211304.240820948034525, 635904.779679869767278 ], [ 211918.259534618671751, 635964.200845708837733 ] ] } },
{ "type": "Feature", "properties": { }, "geometry": { "type": "LineString", "coordinates": [ [ 211550.728619984292891, 636063.236122107249685 ], [ 212164.747333654930117, 636127.058855786337517 ] ] } },
{ "type": "Feature", "properties": { }, "geometry": { "type": "LineString", "coordinates": [ [ 208632.489142108679516, 634075.928242377354763 ], [ 209231.102368339546956, 634089.132945897174068 ] ] } },
{ "type": "Feature", "properties": { }, "geometry": { "type": "LineString", "coordinates": [ [ 207360.436036368046189, 632979.937850233982317 ], [ 207941.442991239193361, 633096.579397992230952 ] ] } },
{ "type": "Feature", "properties": { }, "geometry": { "type": "LineString", "coordinates": [ [ 207448.467393166705733, 633037.158232153160498 ], [ 208055.883755077462411, 633175.807619111030363 ] ] } },
{ "type": "Feature", "properties": { }, "geometry": { "type": "LineString", "coordinates": [ [ 208282.56449883399182, 633560.944805105216801 ], [ 208856.969101945258444, 633635.771458383998834 ] ] } },
{ "type": "Feature", "properties": { }, "geometry": { "type": "LineString", "coordinates": [ [ 207123.155619526864029, 632536.554091316531412 ], [ 207684.601909577148035, 632666.82430894265417 ] ] } },
{ "type": "Feature", "properties": { }, "geometry": { "type": "LineString", "coordinates": [ [ 208379.398991312657017, 633584.053036265773699 ], [ 209048.43730298243463, 633663.281257384573109 ] ] } },
{ "type": "Feature", "properties": { }, "geometry": { "type": "LineString", "coordinates": [ [ 208466.329956151312217, 633611.562835265300237 ], [ 209179.383946220448706, 633723.802815183647908 ] ] } },
{ "type": "Feature", "properties": { }, "geometry": { "type": "LineString", "coordinates": [ [ 208153.818639516073745, 633436.600513627985492 ], [ 208691.910307947866386, 633480.616192027344368 ] ] } },
{ "type": "Feature", "properties": { }, "geometry": { "type": "LineString", "coordinates": [ [ 210512.508805740129901, 634436.306609273073263 ], [ 211239.867891289031832, 634474.820327872526832 ] ] } },
{ "type": "Feature", "properties": { }, "geometry": { "type": "LineString", "coordinates": [ [ 210396.967649941885611, 634377.985835394007154 ], [ 211119.925167650857475, 634387.889363033813424 ] ] } },
{ "type": "Feature", "properties": { }, "geometry": { "type": "LineString", "coordinates": [ [ 210338.646876062790398, 634182.116066516959108 ], [ 211071.507921411597636, 634244.838408236042596 ] ] } },
{ "type": "Feature", "properties": { }, "geometry": { "type": "LineString", "coordinates": [ [ 213183.710288599366322, 637109.983974041999318 ], [ 213853.848992229090072, 637201.316506720613688 ] ] } },
{ "type": "Feature", "properties": { }, "geometry": { "type": "LineString", "coordinates": [ [ 212268.184177893417655, 637094.57848660228774 ], [ 212969.133856402680976, 637207.918858480639756 ] ] } },
{ "type": "Feature", "properties": { }, "geometry": { "type": "LineString", "coordinates": [ [ 211536.423524504614761, 636788.119325747014955 ], [ 212143.839886415313231, 636879.451858425629325 ] ] } },
{ "type": "Feature", "properties": { }, "geometry": { "type": "LineString", "coordinates": [ [ 211402.175705386674963, 636735.300511667854153 ], [ 212001.88932357748854, 636835.436180026386864 ] ] } },
{ "type": "Feature", "properties": { }, "geometry": { "type": "LineString", "coordinates": [ [ 206857.11080888210563, 632270.50928067183122 ], [ 207429.565849717706442, 632384.266372119891457 ] ] } },
{ "type": "Feature", "properties": { }, "geometry": { "type": "LineString", "coordinates": [ [ 207238.747502772515872, 632688.841810513171367 ], [ 207842.394004166446393, 632837.459946114802733 ] ] } },
{ "type": "Feature", "properties": { }, "geometry": { "type": "LineString", "coordinates": [ [ 206635.101001378556248, 632041.160305978031829 ], [ 207211.225625809252961, 632153.082605628645979 ] ] } },
{ "type": "Feature", "properties": { }, "geometry": { "type": "LineString", "coordinates": [ [ 206291.99493523669662, 631738.419659382430837 ], [ 206869.954351464955835, 631854.011542628053576 ] ] } },
{ "type": "Feature", "properties": { }, "geometry": { "type": "LineString", "coordinates": [ [ 204576.464604527398478, 638735.398179339244962 ], [ 205163.597979743411997, 638922.546942689456046 ] ] } },
{ "type": "Feature", "properties": { }, "geometry": { "type": "LineString", "coordinates": [ [ 204504.907724422955653, 638658.336923842201941 ], [ 205084.701932448748266, 638838.1465200020466 ] ] } },
{ "type": "Feature", "properties": { }, "geometry": { "type": "LineString", "coordinates": [ [ 204481.055431054817745, 638636.319422271568328 ], [ 205055.345263687951956, 638814.2942266339669 ] ] } },
{ "type": "Feature", "properties": { }, "geometry": { "type": "LineString", "coordinates": [ [ 204481.055431054817745, 638682.189217210398056 ], [ 204981.953591785946628, 638795.946308658458292 ] ] } },
{ "type": "Feature", "properties": { }, "geometry": { "type": "LineString", "coordinates": [ [ 204007.679147286922671, 638401.466072185197845 ], [ 204662.699819012254011, 638526.231914418633096 ] ] } },
{ "type": "Feature", "properties": { }, "geometry": { "type": "LineString", "coordinates": [ [ 205651.652597891690675, 638867.503188762813807 ], [ 206286.490559843980009, 639014.28653256688267 ] ] } },
{ "type": "Feature", "properties": { }, "geometry": { "type": "LineString", "coordinates": [ [ 205515.878004872996826, 638808.789851241279393 ], [ 206103.011380088981241, 638920.712150891777128 ] ] } },
{ "type": "Feature", "properties": { }, "geometry": { "type": "LineString", "coordinates": [ [ 205044.33651290263515, 638959.242778640356846 ], [ 205635.13947171374457, 639153.730709180585109 ] ] } },
{ "type": "Feature", "properties": { }, "geometry": { "type": "LineString", "coordinates": [ [ 205420.468831400386989, 639060.156327505595982 ], [ 206055.306793352676323, 639245.470299058128148 ] ] } },
{ "type": "Feature", "properties": { }, "geometry": { "type": "LineString", "coordinates": [ [ 205444.321124768554, 639098.6869552541757 ], [ 206090.167837506131036, 639287.670510401832871 ] ] } },
{ "type": "Feature", "properties": { }, "geometry": { "type": "LineString", "coordinates": [ [ 205246.163610633142525, 639016.121324364445172 ], [ 205846.140528431977145, 639192.261336929164827 ] ] } },
{ "type": "Feature", "properties": { }, "geometry": { "type": "LineString", "coordinates": [ [ 206029.619708186975913, 639060.156327505595982 ], [ 206580.057247451972216, 639184.922169739031233 ] ] } },
{ "type": "Feature", "properties": { }, "geometry": { "type": "LineString", "coordinates": [ [ 206101.176588291418739, 639058.32153570803348 ], [ 206649.77933575885254, 639205.104879512102343 ] ] } },
{ "type": "Feature", "properties": { }, "geometry": { "type": "LineString", "coordinates": [ [ 212829.358109907218022, 636946.476176728028804 ], [ 213508.231075000716373, 637052.894100985955447 ] ] } },
{ "type": "Feature", "properties": { }, "geometry": { "type": "LineString", "coordinates": [ [ 213332.091062435938511, 637162.981608838890679 ], [ 213987.111734161269851, 637245.547239728737622 ] ] } },
{ "type": "Feature", "properties": { }, "geometry": { "type": "LineString", "coordinates": [ [ 213504.561491405620473, 637252.886406918871216 ], [ 214181.599664701556321, 637353.799955784110352 ] ] } },
{ "type": "Feature", "properties": { }, "geometry": { "type": "LineString", "coordinates": [ [ 212163.32868739659898, 637069.407227163901553 ], [ 212855.045195072918432, 637164.816400636453182 ] ] } },
{ "type": "Feature", "properties": { }, "geometry": { "type": "LineString", "coordinates": [ [ 211708.300321604241617, 636166.689662769436836 ], [ 212273.416195249621524, 636218.063833100837655 ] ] } },
{ "type": "Feature", "properties": { }, "geometry": { "type": "LineString", "coordinates": [ [ 210904.661514277366223, 635320.850644098944031 ], [ 211522.986350051709451, 635322.685435896506533 ] ] } },
{ "type": "Feature", "properties": { }, "geometry": { "type": "LineString", "coordinates": [ [ 210495.502943423722172, 634999.762079527718015 ], [ 211117.497362793161301, 634970.405410766950808 ] ] } },
{ "type": "Feature", "properties": { }, "geometry": { "type": "LineString", "coordinates": [ [ 208601.080412453360623, 633693.849017621483654 ], [ 209268.027230862819124, 633805.771317271981388 ] ] } }
]
}
