{
"type": "FeatureCollection",
"name": "20181031_093406_1004_3B_AnalyticMS",
"crs": { "type": "name", "properties": { "name": "urn:ogc:def:crs:OGC:1.3:CRS84" } },
"features": [
{ "type": "Feature", "geometry": { "type": "LineString", "coordinates": [ [ 0.0, 0.0 ], [ 1.0, 1.0 ] ] } },
{ "type": "Feature", "properties": { }, "geometry": { "type": "LineString", "coordinates": [ [ 326153.726869628473651, 5041490.84336025826633 ], [ 325823.891709560120944, 5040811.382930518127978 ] ] } },
{ "type": "Feature", "properties": { }, "geometry": { "type": "LineString", "coordinates": [ [ 330109.549889381218236, 5042775.001583456993103 ], [ 329832.488354923843872, 5042339.619172166101635 ] ] } },
{ "type": "Feature", "properties": { }, "geometry": { "type": "LineString", "coordinates": [ [ 330285.461974750971422, 5042926.725757088512182 ], [ 329942.433408279903233, 5042403.387303113006055 ] ] } },
{ "type": "Feature", "properties": { }, "geometry": { "type": "LineString", "coordinates": [ [ 330608.700431617966387, 5042955.311470961198211 ], [ 330272.268568348430563, 5042403.387303112074733 ] ] } },
{ "type": "Feature", "properties": { }, "geometry": { "type": "LineString", "coordinates": [ [ 331675.167449172353372, 5043019.079601906239986 ], [ 331453.078441393037792, 5042508.93455433472991 ] ] } },
{ "type": "Feature", "properties": { }, "geometry": { "type": "LineString", "coordinates": [ [ 331589.410307554586325, 5043034.47190937679261 ], [ 331343.133388036920223, 5042475.95103832706809 ] ] } },
{ "type": "Feature", "properties": { }, "geometry": { "type": "LineString", "coordinates": [ [ 332022.59381777769886, 5043093.84223818872124 ], [ 331824.692721736675594, 5042605.686201287433505 ] ] } },
{ "type": "Feature", "properties": { }, "geometry": { "type": "LineString", "coordinates": [ [ 327949.129590936703607, 5042552.912575678899884 ], [ 327740.233989560219925, 5042108.734560119919479 ] ] } },
{ "type": "Feature", "properties": { }, "geometry": { "type": "LineString", "coordinates": [ [ 328215.196620058268309, 5042640.868618363514543 ], [ 328129.439478440559469, 5042253.862030549906194 ] ] } },
{ "type": "Feature", "properties": { }, "geometry": { "type": "LineString", "coordinates": [ [ 328267.970245669188444, 5042700.238947175443172 ], [ 328230.58892752812244, 5042282.447744422592223 ] ] } },
{ "type": "Feature", "properties": { }, "geometry": { "type": "LineString", "coordinates": [ [ 328492.25815451546805, 5042748.614770652726293 ], [ 328355.926288353977725, 5042302.237854027189314 ] ] } },
{ "type": "Feature", "properties": { }, "geometry": { "type": "LineString", "coordinates": [ [ 328547.230681193468627, 5042737.62026531714946 ], [ 328441.683429971686564, 5042308.834557227790356 ] ] } },
{ "type": "Feature", "properties": { }, "geometry": { "type": "LineString", "coordinates": [ [ 328634.824647388537414, 5042700.276194274425507 ], [ 328628.955847063974943, 5042301.197772204875946 ] ] } },
{ "type": "Feature", "properties": { }, "geometry": { "type": "LineString", "coordinates": [ [ 328693.512650633987505, 5042672.888459426350892 ], [ 328713.075318382470869, 5042299.241505430079997 ] ] } },
{ "type": "Feature", "properties": { }, "geometry": { "type": "LineString", "coordinates": [ [ 328895.008128443383612, 5042698.319927498698235 ], [ 328851.97025939670857, 5042326.629240278154612 ] ] } },
{ "type": "Feature", "properties": { }, "geometry": { "type": "LineString", "coordinates": [ [ 328973.258799437317066, 5042670.932192651554942 ], [ 328922.395863291225396, 5042322.716706728562713 ] ] } },
{ "type": "Feature", "properties": { }, "geometry": { "type": "LineString", "coordinates": [ [ 327862.099271323357243, 5042508.562050338834524 ], [ 327642.99739254033193, 5042062.533225673250854 ] ] } },
{ "type": "Feature", "properties": { }, "geometry": { "type": "LineString", "coordinates": [ [ 327324.125908240035642, 5042232.72843508515507 ], [ 327061.986160410393495, 5041628.242001657374203 ] ] } },
{ "type": "Feature", "properties": { }, "geometry": { "type": "LineString", "coordinates": [ [ 326124.934375258046202, 5041549.99133066367358 ], [ 325835.406892580504064, 5040910.2920952886343 ] ] } },
{ "type": "Feature", "properties": { }, "geometry": { "type": "LineString", "coordinates": [ [ 326408.593057611084078, 5041745.618008148856461 ], [ 326079.940239436575212, 5041125.481440521776676 ] ] } },
{ "type": "Feature", "properties": { }, "geometry": { "type": "LineString", "coordinates": [ [ 326645.301337367738597, 5041845.387613666243851 ], [ 326432.068258909275755, 5041340.670785754919052 ] ] } },
{ "type": "Feature", "properties": { }, "geometry": { "type": "LineString", "coordinates": [ [ 326741.158409335301258, 5041913.856950785964727 ], [ 326565.094399598950986, 5041373.927320927381516 ] ] } },
{ "type": "Feature", "properties": { }, "geometry": { "type": "LineString", "coordinates": [ [ 326883.965883899247274, 5041962.763620156794786 ], [ 326678.557872540142853, 5041454.134258695878088 ] ] } },
{ "type": "Feature", "properties": { }, "geometry": { "type": "LineString", "coordinates": [ [ 326970.041621992480941, 5042021.451623401604593 ], [ 326778.32747805735562, 5041491.303327417932451 ] ] } },
{ "type": "Feature", "properties": { }, "geometry": { "type": "LineString", "coordinates": [ [ 325733.681020288262516, 5040742.053152656182647 ], [ 325691.947329091490246, 5039722.186074034310877 ] ] } },
{ "type": "Feature", "properties": { }, "geometry": { "type": "LineString", "coordinates": [ [ 325738.897731687873602, 5040820.30382364988327 ], [ 325642.388570795301348, 5039857.820570424199104 ] ] } },
{ "type": "Feature", "properties": { }, "geometry": { "type": "LineString", "coordinates": [ [ 325720.639241789234802, 5040922.02969594206661 ], [ 325626.738436596526299, 5040082.139160607010126 ] ] } },
{ "type": "Feature", "properties": { }, "geometry": { "type": "LineString", "coordinates": [ [ 325720.639241789234802, 5041078.531037929467857 ], [ 325571.962966900784522, 5040254.290636793710291 ] ] } },
{ "type": "Feature", "properties": { }, "geometry": { "type": "LineString", "coordinates": [ [ 325796.281557083304506, 5041219.382245718501508 ], [ 325504.145718705956824, 5040434.267180079594254 ] ] } },
{ "type": "Feature", "properties": { }, "geometry": { "type": "LineString", "coordinates": [ [ 325877.140583777043503, 5041344.583319309167564 ], [ 325553.704477002145723, 5040595.985233467072248 ] ] } },
{ "type": "Feature", "properties": { }, "geometry": { "type": "LineString", "coordinates": [ [ 325929.307697773037944, 5041407.183856104500592 ], [ 325592.82981249911245, 5040702.927817158401012 ] ] } },
{ "type": "Feature", "properties": { }, "geometry": { "type": "LineString", "coordinates": [ [ 326002.341657367360312, 5041435.875768802128732 ], [ 325626.738436596468091, 5040783.786843852140009 ] ] } },
{ "type": "Feature", "properties": { }, "geometry": { "type": "LineString", "coordinates": [ [ 325784.978682384244166, 5040298.63268369063735 ], [ 325715.422530389623716, 5039220.512327773496509 ] ] } }
]
}
