{
"type": "FeatureCollection",
"name": "20181031_093407_1004_3B_AnalyticMS",
"crs": { "type": "name", "properties": { "name": "urn:ogc:def:crs:OGC:1.3:CRS84" } },
"features": [
{ "type": "Feature", "geometry": { "type": "LineString", "coordinates": [ [ 0.0, 0.0 ], [ 1.0, 1.0 ] ] } },
{ "type": "Feature", "properties": { }, "geometry": { "type": "LineString", "coordinates": [ [ 326132.674427932535764, 5036035.329092343337834 ], [ 325810.168938087648712, 5035404.977453101426363 ] ] } },
{ "type": "Feature", "properties": { }, "geometry": { "type": "LineString", "coordinates": [ [ 326170.788713096058927, 5036393.01699926238507 ], [ 325921.579925488622393, 5035777.324700467288494 ] ] } },
{ "type": "Feature", "properties": { }, "geometry": { "type": "LineString", "coordinates": [ [ 326334.973326108010951, 5036967.663144804537296 ], [ 326100.423878948029596, 5036454.586229141801596 ] ] } },
{ "type": "Feature", "properties": { }, "geometry": { "type": "LineString", "coordinates": [ [ 326378.951347450492904, 5037108.392813100479543 ], [ 326141.470032201032154, 5036604.111501706764102 ] ] } },
{ "type": "Feature", "properties": { }, "geometry": { "type": "LineString", "coordinates": [ [ 326440.520577330025844, 5037348.805996438488364 ], [ 326211.834866349061485, 5036782.955455164425075 ] ] } },
{ "type": "Feature", "properties": { }, "geometry": { "type": "LineString", "coordinates": [ [ 326050.582121426588856, 5035777.324700466357172 ], [ 325739.804103939619381, 5035173.359874029643834 ] ] } },
{ "type": "Feature", "properties": { }, "geometry": { "type": "LineString", "coordinates": [ [ 325980.217287278559525, 5035443.091738263145089 ], [ 325666.507401702168863, 5034865.513724632561207 ] ] } },
{ "type": "Feature", "properties": { }, "geometry": { "type": "LineString", "coordinates": [ [ 325895.193112683075015, 5035155.768665492534637 ], [ 325634.256852717662696, 5034730.647792515344918 ] ] } },
{ "type": "Feature", "properties": { }, "geometry": { "type": "LineString", "coordinates": [ [ 325816.032674266607501, 5034962.265371585264802 ], [ 325669.439269791648258, 5034586.986256130039692 ] ] } },
{ "type": "Feature", "properties": { }, "geometry": { "type": "LineString", "coordinates": [ [ 325804.305201908573508, 5034226.366481121629477 ], [ 325607.870039912173524, 5034015.271978677250445 ] ] } },
{ "type": "Feature", "properties": { }, "geometry": { "type": "LineString", "coordinates": [ [ 325754.463444387132768, 5034059.250000019557774 ], [ 325622.529380359628703, 5033865.746706113219261 ] ] } },
{ "type": "Feature", "properties": { }, "geometry": { "type": "LineString", "coordinates": [ [ 325426.094218363054097, 5036897.298310654237866 ], [ 325159.294222218624782, 5035844.757666524499655 ] ] } },
{ "type": "Feature", "properties": { }, "geometry": { "type": "LineString", "coordinates": [ [ 325654.779929344076663, 5037729.948848072439432 ], [ 325502.322788690100424, 5036577.724688899703324 ] ] } },
{ "type": "Feature", "properties": { }, "geometry": { "type": "LineString", "coordinates": [ [ 325672.371137881069444, 5037521.786213718354702 ], [ 325461.276635437097866, 5036436.995020603761077 ] ] } },
{ "type": "Feature", "properties": { }, "geometry": { "type": "LineString", "coordinates": [ [ 325434.889822631608695, 5036768.296114716678858 ], [ 325173.953562666138168, 5035677.641185423359275 ] ] } },
{ "type": "Feature", "properties": { }, "geometry": { "type": "LineString", "coordinates": [ [ 325399.707405557623133, 5036730.181829553097486 ], [ 325165.157958397641778, 5035630.731295991688967 ] ] } },
{ "type": "Feature", "properties": { }, "geometry": { "type": "LineString", "coordinates": [ [ 325619.597512270032894, 5037383.988413511775434 ], [ 325399.707405557623133, 5036302.129088486544788 ] ] } },
{ "type": "Feature", "properties": { }, "geometry": { "type": "LineString", "coordinates": [ [ 325772.054652924009133, 5038052.454337916336954 ], [ 325637.188720807025675, 5036900.230178743600845 ] ] } },
{ "type": "Feature", "properties": { }, "geometry": { "type": "LineString", "coordinates": [ [ 325807.237069997994695, 5038146.274116780608892 ], [ 325684.098610238987021, 5036961.799408623017371 ] ] } },
{ "type": "Feature", "properties": { }, "geometry": { "type": "LineString", "coordinates": [ [ 325883.465640324982814, 5038398.414772477932274 ], [ 325780.850257192505524, 5037190.485119603574276 ] ] } },
{ "type": "Feature", "properties": { }, "geometry": { "type": "LineString", "coordinates": [ [ 325807.237069997994695, 5039055.153224525973201 ], [ 325804.305201908515301, 5038348.573014955967665 ] ] } },
{ "type": "Feature", "properties": { }, "geometry": { "type": "LineString", "coordinates": [ [ 325150.498617949953768, 5035429.409687177278101 ], [ 324771.310345041158143, 5034315.299813167192042 ] ] } },
{ "type": "Feature", "properties": { }, "geometry": { "type": "LineString", "coordinates": [ [ 325328.365282046375796, 5035607.276351273991168 ], [ 324951.131587863899767, 5034688.624349896796048 ] ] } },
{ "type": "Feature", "properties": { }, "geometry": { "type": "LineString", "coordinates": [ [ 325330.3198607727536, 5036052.920300878584385 ], [ 324972.631953853648156, 5034975.947422668337822 ] ] } },
{ "type": "Feature", "properties": { }, "geometry": { "type": "LineString", "coordinates": [ [ 325189.590192476694938, 5036154.558394648134708 ], [ 324784.99239612556994, 5035079.540095164440572 ] ] } },
{ "type": "Feature", "properties": { }, "geometry": { "type": "LineString", "coordinates": [ [ 325056.678839086031076, 5036095.921032858081162 ], [ 324693.127195987908635, 5034876.263907625339925 ] ] } },
{ "type": "Feature", "properties": { }, "geometry": { "type": "LineString", "coordinates": [ [ 325232.5909244560753, 5035857.462428245693445 ], [ 324890.53964734764304, 5034819.581124561838806 ] ] } },
{ "type": "Feature", "properties": { }, "geometry": { "type": "LineString", "coordinates": [ [ 325023.451000738248695, 5035249.588444355875254 ], [ 324599.307417123811319, 5034106.15988945029676 ] ] } },
{ "type": "Feature", "properties": { }, "geometry": { "type": "LineString", "coordinates": [ [ 325224.7726095506805, 5035280.861703976988792 ], [ 324837.766021736548282, 5034242.980400294065475 ] ] } },
{ "type": "Feature", "properties": { }, "geometry": { "type": "LineString", "coordinates": [ [ 325130.952830686641391, 5034907.537167247384787 ], [ 324759.582872683182359, 5033973.248536059632897 ] ] } },
{ "type": "Feature", "properties": { }, "geometry": { "type": "LineString", "coordinates": [ [ 325072.315468896587845, 5034839.126911825500429 ], [ 324710.718404524843208, 5033902.883701912127435 ] ] } },
{ "type": "Feature", "properties": { }, "geometry": { "type": "LineString", "coordinates": [ [ 325170.044405213324353, 5035038.493941911496222 ], [ 324788.901553578209132, 5034104.205310723744333 ] ] } },
{ "type": "Feature", "properties": { }, "geometry": { "type": "LineString", "coordinates": [ [ 324483.987272270140238, 5033439.648543769493699 ], [ 324091.11694827710744, 5032581.58848290797323 ] ] } },
{ "type": "Feature", "properties": { }, "geometry": { "type": "LineString", "coordinates": [ [ 324505.487638259888627, 5033539.332058812491596 ], [ 324133.140390893211588, 5032719.386283117346466 ] ] } },
{ "type": "Feature", "properties": { }, "geometry": { "type": "LineString", "coordinates": [ [ 324577.807051134121139, 5033685.925463287159801 ], [ 324171.254676057258621, 5032833.729138607159257 ] ] } },
{ "type": "Feature", "properties": { }, "geometry": { "type": "LineString", "coordinates": [ [ 324611.034889481728896, 5033760.199454887770116 ], [ 324225.98288039455656, 5032878.684449313208461 ] ] } },
{ "type": "Feature", "properties": { }, "geometry": { "type": "LineString", "coordinates": [ [ 324655.990200187312439, 5033865.746706109493971 ], [ 324278.756506005476695, 5032956.867598365992308 ] ] } },
{ "type": "Feature", "properties": { }, "geometry": { "type": "LineString", "coordinates": [ [ 325004.882502837397624, 5034702.306400978937745 ], [ 324623.739651202864479, 5033768.017769792117178 ] ] } },
{ "type": "Feature", "properties": { }, "geometry": { "type": "LineString", "coordinates": [ [ 324799.651736572675873, 5034278.162817364558578 ], [ 324465.418774370104074, 5033386.874918158166111 ] ] } },
{ "type": "Feature", "properties": { }, "geometry": { "type": "LineString", "coordinates": [ [ 324754.696425867034122, 5034233.207506659440696 ], [ 324422.41804239078192, 5033259.827300946228206 ] ] } },
{ "type": "Feature", "properties": { }, "geometry": { "type": "LineString", "coordinates": [ [ 324817.242945109610446, 5034315.299813165329397 ], [ 324514.283242528326809, 5033457.239752305671573 ] ] } },
{ "type": "Feature", "properties": { }, "geometry": { "type": "LineString", "coordinates": [ [ 324382.023415380099323, 5033267.319852733053267 ], [ 323993.062248840287793, 5032516.761621821671724 ] ] } },
{ "type": "Feature", "properties": { }, "geometry": { "type": "LineString", "coordinates": [ [ 324219.793381094641518, 5032927.223154351115227 ], [ 323871.878367807774339, 5032159.07371490355581 ] ] } },
{ "type": "Feature", "properties": { }, "geometry": { "type": "LineString", "coordinates": [ [ 324049.745031903905328, 5032631.104477312415838 ], [ 323744.830750596243888, 5031853.18214423302561 ] ] } },
{ "type": "Feature", "properties": { }, "geometry": { "type": "LineString", "coordinates": [ [ 325056.841720646014437, 5031761.805588778108358 ], [ 324975.275581331923604, 5031329.664061090908945 ] ] } },
{ "type": "Feature", "properties": { }, "geometry": { "type": "LineString", "coordinates": [ [ 325599.237317202787381, 5032787.959420101717114 ], [ 325587.509844844811596, 5032515.29568777885288 ] ] } },
{ "type": "Feature", "properties": { }, "geometry": { "type": "LineString", "coordinates": [ [ 325575.782372486835811, 5032658.957224164158106 ], [ 325555.259295860363636, 5032427.339645093306899 ] ] } },
{ "type": "Feature", "properties": { }, "geometry": { "type": "LineString", "coordinates": [ [ 325531.804351144412067, 5032559.273709121160209 ], [ 325508.34940642840229, 5032345.247338587418199 ] ] } },
{ "type": "Feature", "properties": { }, "geometry": { "type": "LineString", "coordinates": [ [ 325435.05270419100998, 5032439.067117451690137 ], [ 325391.074682848586235, 5032186.926461755298078 ] ] } },
{ "type": "Feature", "properties": { }, "geometry": { "type": "LineString", "coordinates": [ [ 325388.142814759048633, 5032368.702283304184675 ], [ 325332.437321058649104, 5032066.719870085828006 ] ] } },
{ "type": "Feature", "properties": { }, "geometry": { "type": "LineString", "coordinates": [ [ 325115.479082435893361, 5032087.242946712300181 ], [ 325089.788598721614107, 5031813.008520130999386 ] ] } },
{ "type": "Feature", "properties": { }, "geometry": { "type": "LineString", "coordinates": [ [ 325772.217534483061172, 5033163.238535556942225 ], [ 325710.648304603644647, 5032946.280296934768558 ] ] } },
{ "type": "Feature", "properties": { }, "geometry": { "type": "LineString", "coordinates": [ [ 325819.127423915022518, 5033280.513259137049317 ], [ 325754.626325946126599, 5033069.418756693601608 ] ] } },
{ "type": "Feature", "properties": { }, "geometry": { "type": "LineString", "coordinates": [ [ 325625.108214284526184, 5034174.865589483641088 ], [ 325411.875135826063342, 5033754.268232891336083 ] ] } },
{ "type": "Feature", "properties": { }, "geometry": { "type": "LineString", "coordinates": [ [ 325711.183952377876267, 5034501.562140882946551 ], [ 325417.743936150625814, 5034002.714113296940923 ] ] } },
{ "type": "Feature", "properties": { }, "geometry": { "type": "LineString", "coordinates": [ [ 325973.323700207401998, 5033488.215951511636376 ], [ 325885.291695339255966, 5033308.239408225752413 ] ] } },
{ "type": "Feature", "properties": { }, "geometry": { "type": "LineString", "coordinates": [ [ 325793.34715692140162, 5033752.311966116540134 ], [ 325656.408482682018075, 5033472.565817313268781 ] ] } },
{ "type": "Feature", "properties": { }, "geometry": { "type": "LineString", "coordinates": [ [ 325345.362065481138416, 5034464.393072162754834 ], [ 325006.927913432416972, 5033814.912502912804484 ] ] } },
{ "type": "Feature", "properties": { }, "geometry": { "type": "LineString", "coordinates": [ [ 325286.674062235688325, 5034235.509859505109489 ], [ 325006.927913432416972, 5033566.466622507199645 ] ] } },
{ "type": "Feature", "properties": { }, "geometry": { "type": "LineString", "coordinates": [ [ 325243.636193189071491, 5034053.577049444429576 ], [ 324934.546042763045989, 5033400.183946644887328 ] ] } }
]
}
