{
"type": "FeatureCollection",
"name": "20181031_093408_1004_3B_AnalyticMS",
"crs": { "type": "name", "properties": { "name": "urn:ogc:def:crs:OGC:1.3:CRS84" } },
"features": [
{ "type": "Feature", "geometry": { "type": "LineString", "coordinates": [ [ 0.0, 0.0 ], [ 1.0, 1.0 ] ] } },
{ "type": "Feature", "properties": { }, "geometry": { "type": "LineString", "coordinates": [ [ 323319.718283737194724, 5031237.481928383000195 ], [ 322989.447549358417746, 5030406.860919764265418 ] ] } },
{ "type": "Feature", "properties": { }, "geometry": { "type": "LineString", "coordinates": [ [ 323383.00369391759159, 5031152.44215845130384 ], [ 323086.353333697130438, 5030357.419193060137331 ] ] } },
{ "type": "Feature", "properties": { }, "geometry": { "type": "LineString", "coordinates": [ [ 323260.388211693090852, 5031413.494475445710123 ], [ 322902.430110360437538, 5030503.76670410297811 ] ] } },
{ "type": "Feature", "properties": { }, "geometry": { "type": "LineString", "coordinates": [ [ 323086.35333369707223, 5030450.369639263488352 ], [ 322694.774858206044883, 5029269.701205586083233 ] ] } },
{ "type": "Feature", "properties": { }, "geometry": { "type": "LineString", "coordinates": [ [ 323068.554312083870173, 5030505.744373171590269 ], [ 322686.864181933517102, 5029412.093378491699696 ] ] } },
{ "type": "Feature", "properties": { }, "geometry": { "type": "LineString", "coordinates": [ [ 323052.732959538756404, 5030654.069553282111883 ], [ 322688.841851001663599, 5029702.810731507837772 ] ] } },
{ "type": "Feature", "properties": { }, "geometry": { "type": "LineString", "coordinates": [ [ 322700.707865410542581, 5030110.210559544153512 ], [ 322293.308037374401465, 5028905.810097049921751 ] ] } },
{ "type": "Feature", "properties": { }, "geometry": { "type": "LineString", "coordinates": [ [ 322615.668095480650663, 5030078.567854454740882 ], [ 322220.134281853330322, 5028945.363478411920369 ] ] } },
{ "type": "Feature", "properties": { }, "geometry": { "type": "LineString", "coordinates": [ [ 323555.060902845638338, 5031828.80497975833714 ], [ 323193.147463376633823, 5030970.496604186482728 ] ] } },
{ "type": "Feature", "properties": { }, "geometry": { "type": "LineString", "coordinates": [ [ 323671.743377865699586, 5031996.906850549392402 ], [ 323333.561967214336619, 5031156.397496591322124 ] ] } },
{ "type": "Feature", "properties": { }, "geometry": { "type": "LineString", "coordinates": [ [ 323727.118111773510464, 5032008.772864958271384 ], [ 323420.579406212316826, 5031245.392604657448828 ] ] } },
{ "type": "Feature", "properties": { }, "geometry": { "type": "LineString", "coordinates": [ [ 323780.515176613174845, 5032149.187368796207011 ], [ 323458.155118506925646, 5031391.740115699358284 ] ] } },
{ "type": "Feature", "properties": { }, "geometry": { "type": "LineString", "coordinates": [ [ 323450.244442234397866, 5031755.631224237382412 ], [ 323036.911606993875466, 5030770.752028305083513 ] ] } },
{ "type": "Feature", "properties": { }, "geometry": { "type": "LineString", "coordinates": [ [ 323377.070686713326722, 5031648.837094557471573 ], [ 322981.536873086064588, 5030667.913236761465669 ] ] } },
{ "type": "Feature", "properties": { }, "geometry": { "type": "LineString", "coordinates": [ [ 324789.126401362824254, 5031342.298388997092843 ], [ 324708.04196956922533, 5030804.372402464039624 ] ] } },
{ "type": "Feature", "properties": { }, "geometry": { "type": "LineString", "coordinates": [ [ 324648.711897525179666, 5031134.643136842176318 ], [ 324605.203178026189562, 5030576.940459627658129 ] ] } },
{ "type": "Feature", "properties": { }, "geometry": { "type": "LineString", "coordinates": [ [ 324654.644904729619157, 5031255.280949997715652 ], [ 324573.560472936020233, 5030727.243308805860579 ] ] } },
{ "type": "Feature", "properties": { }, "geometry": { "type": "LineString", "coordinates": [ [ 324753.528358136420138, 5031045.648028776049614 ], [ 324698.15362422860926, 5030557.163768946193159 ] ] } },
{ "type": "Feature", "properties": { }, "geometry": { "type": "LineString", "coordinates": [ [ 324806.925422976084519, 5031047.62569784373045 ], [ 324749.573020000127144, 5030604.627826580777764 ] ] } },
{ "type": "Feature", "properties": { }, "geometry": { "type": "LineString", "coordinates": [ [ 324802.970084839849733, 5030891.389841460622847 ], [ 324777.260386954061687, 5030460.257984607480466 ] ] } },
{ "type": "Feature", "properties": { }, "geometry": { "type": "LineString", "coordinates": [ [ 325180.704876853909809, 5029912.443652733229101 ], [ 325297.387351873971056, 5029667.212688284926116 ] ] } },
{ "type": "Feature", "properties": { }, "geometry": { "type": "LineString", "coordinates": [ [ 325158.950517104414757, 5030040.992142162285745 ], [ 325293.432013737678062, 5029783.895163305103779 ] ] } },
{ "type": "Feature", "properties": { }, "geometry": { "type": "LineString", "coordinates": [ [ 325170.816531513235532, 5030278.312430338934064 ], [ 325255.85630144312745, 5030112.188228615559638 ] ] } },
{ "type": "Feature", "properties": { }, "geometry": { "type": "LineString", "coordinates": [ [ 325020.513682334858458, 5030764.819021100178361 ], [ 325052.156387425027788, 5030311.932804496958852 ] ] } },
{ "type": "Feature", "properties": { }, "geometry": { "type": "LineString", "coordinates": [ [ 324955.250603086373303, 5030794.484057122841477 ], [ 324988.870977244689129, 5030361.374531200155616 ] ] } },
{ "type": "Feature", "properties": { }, "geometry": { "type": "LineString", "coordinates": [ [ 324919.65255985991098, 5030824.149093144573271 ], [ 324939.429250541259535, 5030379.17355281393975 ] ] } },
{ "type": "Feature", "properties": { }, "geometry": { "type": "LineString", "coordinates": [ [ 324921.630228928057477, 5029398.249695018865168 ], [ 325004.692329789802898, 5029214.326471681706607 ] ] } },
{ "type": "Feature", "properties": { }, "geometry": { "type": "LineString", "coordinates": [ [ 324860.322487815807108, 5029291.455565338954329 ], [ 324929.540905200585257, 5029107.532342002727091 ] ] } },
{ "type": "Feature", "properties": { }, "geometry": { "type": "LineString", "coordinates": [ [ 324660.577911934058648, 5028880.100399167276919 ], [ 324751.550689068331849, 5028719.909204647876322 ] ] } },
{ "type": "Feature", "properties": { }, "geometry": { "type": "LineString", "coordinates": [ [ 324646.734228457091376, 5028800.993636441417038 ], [ 324743.640012795804068, 5028644.757780058309436 ] ] } },
{ "type": "Feature", "properties": { }, "geometry": { "type": "LineString", "coordinates": [ [ 324498.4090483468608, 5028500.387938085012138 ], [ 324591.359494549280498, 5028326.353060089051723 ] ] } },
{ "type": "Feature", "properties": { }, "geometry": { "type": "LineString", "coordinates": [ [ 324565.649796663492452, 5028508.298614357598126 ], [ 324672.443926342879422, 5028344.152081701904535 ] ] } },
{ "type": "Feature", "properties": { }, "geometry": { "type": "LineString", "coordinates": [ [ 325164.883524308737833, 5032184.78541202377528 ], [ 325131.263150150363799, 5031892.090389939956367 ] ] } },
{ "type": "Feature", "properties": { }, "geometry": { "type": "LineString", "coordinates": [ [ 325107.531121332780458, 5032133.366016251966357 ], [ 325089.732099719520193, 5031812.983627214096487 ] ] } },
{ "type": "Feature", "properties": { }, "geometry": { "type": "LineString", "coordinates": [ [ 325125.330142945982516, 5032066.125267935916781 ], [ 325105.553452264633961, 5031753.653555169701576 ] ] } },
{ "type": "Feature", "properties": { }, "geometry": { "type": "LineString", "coordinates": [ [ 324870.21083315636497, 5031520.288605130277574 ], [ 324773.305048817710485, 5031051.581035981886089 ] ] } },
{ "type": "Feature", "properties": { }, "geometry": { "type": "LineString", "coordinates": [ [ 324945.36225774558261, 5031605.328375060111284 ], [ 324856.367149679397698, 5031108.933438957668841 ] ] } },
{ "type": "Feature", "properties": { }, "geometry": { "type": "LineString", "coordinates": [ [ 325058.089394629350863, 5031763.541900510899723 ], [ 324975.333558822283521, 5031329.738584284670651 ] ] } }
]
}
