{
"type": "FeatureCollection",
"name": "20171009_153515_0f25_3B_AnalyticMS_clip",
"crs": { "type": "name", "properties": { "name": "urn:ogc:def:crs:OGC:1.3:CRS84" } },
"features": [
{ "type": "Feature", "geometry": { "type": "LineString", "coordinates": [ [ 0.0, 0.0 ], [ 1.0, 1.0 ] ] } },
{ "type": "Feature", "properties": { }, "geometry": { "type": "LineString", "coordinates": [ [ 571067.385483517777175, 1759637.855141481151804 ], [ 572073.156454200507142, 1759753.827725713839754 ] ] } },
{ "type": "Feature", "properties": { }, "geometry": { "type": "LineString", "coordinates": [ [ 571173.735888272756711, 1759631.271544996416196 ], [ 572180.519719953183085, 1759771.04636267432943 ] ] } },
{ "type": "Feature", "properties": { }, "geometry": { "type": "LineString", "coordinates": [ [ 571601.163229287951253, 1759677.863150889053941 ], [ 572715.310326721053571, 1759874.35818443633616 ] ] } },
{ "type": "Feature", "properties": { }, "geometry": { "type": "LineString", "coordinates": [ [ 571264.893378062755801, 1759625.194379010470584 ], [ 572328.397425612434745, 1759799.406470608897507 ] ] } },
{ "type": "Feature", "properties": { }, "geometry": { "type": "LineString", "coordinates": [ [ 571372.256643815431744, 1759641.400154972914606 ], [ 572435.760691365110688, 1759803.457914599683136 ] ] } },
{ "type": "Feature", "properties": { }, "geometry": { "type": "LineString", "coordinates": [ [ 571465.439855600707233, 1759655.580208940431476 ], [ 572565.406899066409096, 1759850.04952049232088 ] ] } },
{ "type": "Feature", "properties": { }, "geometry": { "type": "LineString", "coordinates": [ [ 570831.388871061499231, 1759525.934001239016652 ], [ 571967.818910443224013, 1759631.271544996416196 ] ] } },
{ "type": "Feature", "properties": { }, "geometry": { "type": "LineString", "coordinates": [ [ 570237.852326428866945, 1759303.104581752093509 ], [ 571422.899693698505871, 1759276.770195812918246 ] ] } },
{ "type": "Feature", "properties": { }, "geometry": { "type": "LineString", "coordinates": [ [ 570373.575700116110966, 1759345.644743654178455 ], [ 571580.906009334488772, 1759384.133461565477774 ] ] } },
{ "type": "Feature", "properties": { }, "geometry": { "type": "LineString", "coordinates": [ [ 569660.521557759027928, 1759487.445283327484503 ], [ 570592.353675612132065, 1759130.918212148826569 ] ] } },
{ "type": "Feature", "properties": { }, "geometry": { "type": "LineString", "coordinates": [ [ 569711.164607642334886, 1759404.390681518940255 ], [ 570580.199343640124425, 1759128.892490153666586 ] ] } },
{ "type": "Feature", "properties": { }, "geometry": { "type": "LineString", "coordinates": [ [ 569563.286901983083226, 1759578.602773117367178 ], [ 570509.299073803471401, 1759268.667307831579819 ] ] } },
{ "type": "Feature", "properties": { }, "geometry": { "type": "LineString", "coordinates": [ [ 568647.660560092539527, 1760461.817563082324341 ], [ 569658.495835763518699, 1760429.406011157203466 ] ] } },
{ "type": "Feature", "properties": { }, "geometry": { "type": "LineString", "coordinates": [ [ 568540.297294339863583, 1760526.640666933031753 ], [ 569526.823906066943891, 1760496.254837003070861 ] ] } },
{ "type": "Feature", "properties": { }, "geometry": { "type": "LineString", "coordinates": [ [ 568439.011194573249668, 1760607.669546746416017 ], [ 569441.743582263006829, 1760555.000774867832661 ] ] } },
{ "type": "Feature", "properties": { }, "geometry": { "type": "LineString", "coordinates": [ [ 567444.381694864830934, 1761373.392460982082412 ], [ 568268.850546965259127, 1761399.726846921257675 ] ] } },
{ "type": "Feature", "properties": { }, "geometry": { "type": "LineString", "coordinates": [ [ 567401.841532962862402, 1761397.701124926097691 ], [ 568199.975999123998918, 1761444.292730818735436 ] ] } },
{ "type": "Feature", "properties": { }, "geometry": { "type": "LineString", "coordinates": [ [ 567274.221047256840393, 1761452.395618800073862 ], [ 568106.792787338607013, 1761490.88433671137318 ] ] } },
{ "type": "Feature", "properties": { }, "geometry": { "type": "LineString", "coordinates": [ [ 567085.8289016908966, 1761527.347332627279684 ], [ 568007.532409567385912, 1761565.836050538579002 ] ] } },
{ "type": "Feature", "properties": { }, "geometry": { "type": "LineString", "coordinates": [ [ 566678.658780629048124, 1762033.777831460582092 ], [ 567411.970142939477228, 1762171.526927143102512 ] ] } },
{ "type": "Feature", "properties": { }, "geometry": { "type": "LineString", "coordinates": [ [ 565663.772060967399739, 1762483.488114424282685 ], [ 566445.700751165859401, 1762611.108600130304694 ] ] } },
{ "type": "Feature", "properties": { }, "geometry": { "type": "LineString", "coordinates": [ [ 566064.865016043302603, 1762359.919072709046304 ], [ 566757.661938447039574, 1762507.796778368297964 ] ] } },
{ "type": "Feature", "properties": { }, "geometry": { "type": "LineString", "coordinates": [ [ 565396.376757583464496, 1762631.365820083767176 ], [ 566164.125393814523704, 1762738.729085836326703 ] ] } },
{ "type": "Feature", "properties": { }, "geometry": { "type": "LineString", "coordinates": [ [ 565523.99724328937009, 1762574.64560421439819 ], [ 566251.231439613853581, 1762716.446143887704238 ] ] } },
{ "type": "Feature", "properties": { }, "geometry": { "type": "LineString", "coordinates": [ [ 565619.206177070038393, 1762505.771056373137981 ], [ 566401.134867268498056, 1762627.314376092981547 ] ] } },
{ "type": "Feature", "properties": { }, "geometry": { "type": "LineString", "coordinates": [ [ 548727.723318988108076, 1758523.201613548910245 ], [ 548859.395248684799299, 1758790.596916932845488 ] ] } },
{ "type": "Feature", "properties": { }, "geometry": { "type": "LineString", "coordinates": [ [ 548843.189472722122446, 1758517.124447562964633 ], [ 548952.578460470074788, 1758833.137078834930435 ] ] } },
{ "type": "Feature", "properties": { }, "geometry": { "type": "LineString", "coordinates": [ [ 549910.744964262470603, 1758539.407389511587098 ], [ 549781.098756561172195, 1758877.702962732175365 ] ] } },
{ "type": "Feature", "properties": { }, "geometry": { "type": "LineString", "coordinates": [ [ 550072.802723889122717, 1758521.175891553750262 ], [ 549967.465180131839588, 1758833.137078834930435 ] ] } },
{ "type": "Feature", "properties": { }, "geometry": { "type": "LineString", "coordinates": [ [ 550477.94712295581121, 1758626.513435311149806 ], [ 550157.883047693176195, 1758926.320290620438755 ] ] } },
{ "type": "Feature", "properties": { }, "geometry": { "type": "LineString", "coordinates": [ [ 550510.358674881164916, 1758638.667767283273861 ], [ 550180.165989641915075, 1758932.397456606384367 ] ] } },
{ "type": "Feature", "properties": { }, "geometry": { "type": "LineString", "coordinates": [ [ 557272.049885135609657, 1762075.136322198435664 ], [ 557987.804990152944811, 1762224.026888855965808 ] ] } },
{ "type": "Feature", "properties": { }, "geometry": { "type": "LineString", "coordinates": [ [ 557207.22678128501866, 1762072.772979871137068 ], [ 557936.48669960454572, 1762237.531702158041298 ] ] } },
{ "type": "Feature", "properties": { }, "geometry": { "type": "LineString", "coordinates": [ [ 559390.955092253163457, 1762245.634590139612556 ], [ 560198.542927725589834, 1762653.47995186643675 ] ] } },
{ "type": "Feature", "properties": { }, "geometry": { "type": "LineString", "coordinates": [ [ 569759.374339137226343, 1759317.450050821062177 ], [ 570681.039369612350129, 1759045.090408245800063 ] ] } },
{ "type": "Feature", "properties": { }, "geometry": { "type": "LineString", "coordinates": [ [ 572108.203896707389504, 1759718.363444692222401 ], [ 573228.146746977348812, 1759927.535650189965963 ] ] } },
{ "type": "Feature", "properties": { }, "geometry": { "type": "LineString", "coordinates": [ [ 570151.572224445757456, 1759289.124647993594408 ], [ 571328.16588037146721, 1759245.54710518149659 ] ] } },
{ "type": "Feature", "properties": { }, "geometry": { "type": "LineString", "coordinates": [ [ 549149.375466172350571, 1758554.84305161004886 ], [ 549395.588583060540259, 1758846.81258845096454 ] ] } },
{ "type": "Feature", "properties": { }, "geometry": { "type": "LineString", "coordinates": [ [ 549234.351674655918032, 1758546.127543047768995 ], [ 549535.036720059113577, 1758859.885851294500753 ] ] } },
{ "type": "Feature", "properties": { }, "geometry": { "type": "LineString", "coordinates": [ [ 551467.700743773952127, 1758600.599471562774852 ], [ 550831.468618717859499, 1758955.756445481209084 ] ] } },
{ "type": "Feature", "properties": { }, "geometry": { "type": "LineString", "coordinates": [ [ 551570.107969382312149, 1758583.168454437982291 ], [ 550955.66461573226843, 1758944.862059778068215 ] ] } },
{ "type": "Feature", "properties": { }, "geometry": { "type": "LineString", "coordinates": [ [ 554669.5607018902665, 1760342.611745475558564 ], [ 555972.529231970896944, 1760623.686896613333374 ] ] } },
{ "type": "Feature", "properties": { }, "geometry": { "type": "LineString", "coordinates": [ [ 554863.480767403845675, 1760325.180728350766003 ], [ 556068.399826157372445, 1760593.18261664477177 ] ] } }
]
}
